{
"type": "FeatureCollection",
"name": "buc-ees_locations",
"features": [
{ "type": "Feature", "properties": { "store_number": "#57", "street": "2328 Lindsay Lane South", "city": "Athens", "state_name": "Alabama", "zip": "35613", "latitude": 34.7285362, "longitude": -86.9325269, "brand": "Buc-ees" }, "geometry": { "type": "Point", "coordinates": [ -86.932526900000013, 34.7285362 ] } },
{ "type": "Feature", "properties": { "store_number": "#58", "street": "2500 Buc-ee’s Blvd", "city": "Auburn", "state_name": "Alabama", "zip": "36832", "latitude": 32.5520992, "longitude": -85.526638, "brand": "Buc-ees" }, "geometry": { "type": "Point", "coordinates": [ -85.526638, 32.5520992 ] } },
{ "type": "Feature", "properties": { "store_number": "#43", "street": "6900 Buc-ee’s Blvd.", "city": "Leeds", "state_name": "Alabama", "zip": "35094", "latitude": 33.5444423, "longitude": -86.5865903, "brand": "Buc-ees" }, "geometry": { "type": "Point", "coordinates": [ -86.5865903, 33.5444423 ] } },
{ "type": "Feature", "properties": { "store_number": "#42", "street": "20403 County Rd. 68", "city": "Robertsdale", "state_name": "Alabama", "zip": "36567", "latitude": 30.6332992, "longitude": -87.6745534, "brand": "Buc-ees" }, "geometry": { "type": "Point", "coordinates": [ -87.6745534, 30.6332992 ] } },
{ "type": "Feature", "properties": { "store_number": "#60", "street": "5201 Nugget Road", "city": "Berthoud", "state_name": "CO", "zip": "80513", "latitude": 40.3336354, "longitude": -104.9833572, "brand": "Buc-ees" }, "geometry": { "type": "Point", "coordinates": [ -104.9833572, 40.3336354 ] } },
{ "type": "Feature", "properties": { "store_number": "#47", "street": "2330 Gateway North Drive", "city": "Daytona Beach", "state_name": "Florida", "zip": "32117", "latitude": 29.223603, "longitude": -81.100907, "brand": "Buc-ees" }, "geometry": { "type": "Point", "coordinates": [ -81.100907, 29.223603 ] } },
{ "type": "Feature", "properties": { "store_number": "#46", "street": "200 World Commerce Pkwy", "city": "Saint Augustine", "state_name": "Florida", "zip": "32092", "latitude": 29.983727, "longitude": -81.464048, "brand": "Buc-ees" }, "geometry": { "type": "Point", "coordinates": [ -81.464048, 29.983727 ] } },
{ "type": "Feature", "properties": { "store_number": "#52", "street": "601 Union Grove Rd. SE", "city": "Adairsville", "state_name": "Georgia", "zip": "30103", "latitude": 34.4402225, "longitude": -84.9166962, "brand": "Buc-ees" }, "geometry": { "type": "Point", "coordinates": [ -84.9166962, 34.4402225 ] } },
{ "type": "Feature", "properties": { "store_number": "#51", "street": "7001 Russell Parkway", "city": "Fort Valley", "state_name": "Georgia", "zip": "31030", "latitude": 32.5842634, "longitude": -83.7404681, "brand": "Buc-ees" }, "geometry": { "type": "Point", "coordinates": [ -83.7404681, 32.5842634 ] } },
{ "type": "Feature", "properties": { "store_number": "#55", "street": "1013 Buc-ee's Boulevard", "city": "Richmond", "state_name": "Kentucky", "zip": "40475", "latitude": 37.673739, "longitude": -84.3079659, "brand": "Buc-ees" }, "geometry": { "type": "Point", "coordinates": [ -84.3079659, 37.673739 ] } },
{ "type": "Feature", "properties": { "store_number": "#56", "street": "4001 Smiths Grove-Scottsville Road", "city": "Smiths Grove", "state_name": "KY", "zip": "42171", "latitude": 37.0402874, "longitude": -86.2106451, "brand": "Buc-ees" }, "geometry": { "type": "Point", "coordinates": [ -86.2106451, 37.0402874 ] } },
{ "type": "Feature", "properties": { "store_number": "#62", "street": "3284 N Beaver Rd", "city": "Springfield", "state_name": "Missouri", "zip": "65803", "latitude": 37.2545564, "longitude": -93.1826678, "brand": "Buc-ees" }, "geometry": { "type": "Point", "coordinates": [ -93.1826678, 37.2545564 ] } },
{ "type": "Feature", "properties": { "store_number": "#53", "street": "3390 North Williston Road", "city": "Florence", "state_name": "South Carolina", "zip": "29506", "latitude": 34.2716942, "longitude": -79.7023605, "brand": "Buc-ees" }, "geometry": { "type": "Point", "coordinates": [ -79.7023605, 34.2716942 ] } },
{ "type": "Feature", "properties": { "store_number": "#50", "street": "2045 Genesis Road", "city": "Crossville", "state_name": "Tennessee", "zip": "38555", "latitude": 35.9803141, "longitude": -85.0153246, "brand": "Buc-ees" }, "geometry": { "type": "Point", "coordinates": [ -85.0153246, 35.9803141 ] } },
{ "type": "Feature", "properties": { "store_number": "#45", "street": "170 Buc-ee’s Blvd", "city": "Kodak", "state_name": "Tennessee", "zip": "37764", "latitude": 35.9812258, "longitude": -83.6045773, "brand": "Buc-ees" }, "geometry": { "type": "Point", "coordinates": [ -83.6045773, 35.9812258 ] } },
{ "type": "Feature", "properties": { "store_number": "#14", "street": "780 Hwy-35 N Byp", "city": "Alvin", "state_name": "Texas", "zip": "77511", "latitude": 29.4301564, "longitude": -95.2263494, "brand": "Buc-ees" }, "geometry": { "type": "Point", "coordinates": [ -95.226349399999989, 29.4301564 ] } },
{ "type": "Feature", "properties": { "store_number": "#13", "street": "2299 E Mulberry St", "city": "Angleton", "state_name": "Texas", "zip": "77515", "latitude": 29.1848262, "longitude": -95.4088609, "brand": "Buc-ees" }, "geometry": { "type": "Point", "coordinates": [ -95.4088609, 29.1848262 ] } },
{ "type": "Feature", "properties": { "store_number": "#21", "street": "931 Loop 274", "city": "Angleton", "state_name": "Texas", "zip": "77515", "latitude": 29.17302, "longitude": -95.433649, "brand": "Buc-ees" }, "geometry": { "type": "Point", "coordinates": [ -95.433649, 29.17302 ] } },
{ "type": "Feature", "properties": { "store_number": "#25", "street": "2304 W Mulberry St", "city": "Angleton", "state_name": "Texas", "zip": "77515", "latitude": 29.1640271, "longitude": -95.4550001, "brand": "Buc-ees" }, "geometry": { "type": "Point", "coordinates": [ -95.4550001, 29.1640271 ] } },
{ "type": "Feature", "properties": { "store_number": "#28", "street": "1700 Highway 71 East", "city": "Bastrop", "state_name": "Texas", "zip": "78602", "latitude": 30.1070467, "longitude": -97.3058242, "brand": "Buc-ees" }, "geometry": { "type": "Point", "coordinates": [ -97.305824199999989, 30.1070467 ] } },
{ "type": "Feature", "properties": { "store_number": "#34", "street": "4080 East Freeway", "city": "Baytown", "state_name": "Texas", "zip": "77521", "latitude": 29.8003521, "longitude": -94.9995046, "brand": "Buc-ees" }, "geometry": { "type": "Point", "coordinates": [ -94.9995046, 29.8003521 ] } },
{ "type": "Feature", "properties": { "store_number": "#3", "street": "801 N Brooks", "city": "Brazoria", "state_name": "Texas", "zip": "77422", "latitude": 29.0555573, "longitude": -95.5718998, "brand": "Buc-ees" }, "geometry": { "type": "Point", "coordinates": [ -95.5718998, 29.0555573 ] } },
{ "type": "Feature", "properties": { "store_number": "#32", "street": "27106 US-290", "city": "Cypress", "state_name": "Texas", "zip": "77433", "latitude": 29.9807931, "longitude": -95.7182582, "brand": "Buc-ees" }, "geometry": { "type": "Point", "coordinates": [ -95.7182582, 29.9807931 ] } },
{ "type": "Feature", "properties": { "store_number": "#39", "street": "2800 S Interstate 35 E", "city": "Denton", "state_name": "Texas", "zip": "76210", "latitude": 33.1791596, "longitude": -97.1016215, "brand": "Buc-ees" }, "geometry": { "type": "Point", "coordinates": [ -97.1016215, 33.1791596 ] } },
{ "type": "Feature", "properties": { "store_number": "#24", "street": "505 E Main St", "city": "Eagle Lake", "state_name": "Texas", "zip": "77434", "latitude": 29.5858758, "longitude": -96.3317464, "brand": "Buc-ees" }, "geometry": { "type": "Point", "coordinates": [ -96.3317464, 29.5858758 ] } },
{ "type": "Feature", "properties": { "store_number": "#48", "street": "1402 South IH- 45", "city": "Ennis", "state_name": "Texas", "zip": "75119", "latitude": 32.3042725, "longitude": -96.5837781, "brand": "Buc-ees" }, "geometry": { "type": "Point", "coordinates": [ -96.5837781, 32.3042725 ] } },
{ "type": "Feature", "properties": { "store_number": "#37", "street": "15901 N Freeway", "city": "Fort Worth", "state_name": "Texas", "zip": "76177", "latitude": 33.0243747, "longitude": -97.2780281, "brand": "Buc-ees" }, "geometry": { "type": "Point", "coordinates": [ -97.2780281, 33.0243747 ] } },
{ "type": "Feature", "properties": { "store_number": "#7", "street": "4231 E. Hwy 332", "city": "Freeport", "state_name": "Texas", "zip": "77541", "latitude": 28.9812118, "longitude": -95.336757, "brand": "Buc-ees" }, "geometry": { "type": "Point", "coordinates": [ -95.336757, 28.9812118 ] } },
{ "type": "Feature", "properties": { "store_number": "#8", "street": "1002 N Brazosport Blvd.", "city": "Freeport", "state_name": "Texas", "zip": "77541", "latitude": 28.969489, "longitude": -95.3699306, "brand": "Buc-ees" }, "geometry": { "type": "Point", "coordinates": [ -95.369930599999989, 28.969489 ] } },
{ "type": "Feature", "properties": { "store_number": "#16", "street": "2375 E Austin St", "city": "Giddings", "state_name": "Texas", "zip": "78942", "latitude": 30.1796859, "longitude": -96.9138607, "brand": "Buc-ees" }, "geometry": { "type": "Point", "coordinates": [ -96.913860700000015, 30.1796859 ] } },
{ "type": "Feature", "properties": { "store_number": "#59", "street": "165 State Highway 77", "city": "Hillsboro", "state_name": "Texas", "zip": "76645", "latitude": 31.9909247, "longitude": -97.1042027, "brand": "Buc-ees" }, "geometry": { "type": "Point", "coordinates": [ -97.1042027, 31.9909247 ] } },
{ "type": "Feature", "properties": { "store_number": "#40", "street": "27700 Katy Fwy", "city": "Katy", "state_name": "Texas", "zip": "77494", "latitude": 29.7790711, "longitude": -95.8457177, "brand": "Buc-ees" }, "geometry": { "type": "Point", "coordinates": [ -95.8457177, 29.7790711 ] } },
{ "type": "Feature", "properties": { "store_number": "#1", "street": "899 Oyster Creek Drive", "city": "Lake Jackson", "state_name": "Texas", "zip": "77566", "latitude": 29.0406514, "longitude": -95.4131746, "brand": "Buc-ees" }, "geometry": { "type": "Point", "coordinates": [ -95.4131746, 29.0406514 ] } },
{ "type": "Feature", "properties": { "store_number": "#2", "street": "101 N Hwy 2004", "city": "Lake Jackson", "state_name": "Texas", "zip": "77566", "latitude": 29.0338575, "longitude": -95.4343859, "brand": "Buc-ees" }, "geometry": { "type": "Point", "coordinates": [ -95.4343859, 29.0338575 ] } },
{ "type": "Feature", "properties": { "store_number": "#29", "street": "598 Hwy 332", "city": "Lake Jackson", "state_name": "Texas", "zip": "77566", "latitude": 29.0210691, "longitude": -95.4366088, "brand": "Buc-ees" }, "geometry": { "type": "Point", "coordinates": [ -95.4366088, 29.0210691 ] } },
{ "type": "Feature", "properties": { "store_number": "#23", "street": "1702 League City Pkwy", "city": "League City", "state_name": "Texas", "zip": "77573", "latitude": 29.4988789, "longitude": -95.0563313, "brand": "Buc-ees" }, "geometry": { "type": "Point", "coordinates": [ -95.0563313, 29.4988789 ] } },
{ "type": "Feature", "properties": { "store_number": "#17", "street": "10070 West IH 10", "city": "Luling", "state_name": "Texas", "zip": "78658", "latitude": 29.6511847, "longitude": -97.5923467, "brand": "Buc-ees" }, "geometry": { "type": "Point", "coordinates": [ -97.5923467, 29.6511847 ] } },
{ "type": "Feature", "properties": { "store_number": "#26", "street": "205 IH-45 South", "city": "Madisonville", "state_name": "Texas", "zip": "77864", "latitude": 30.9655301, "longitude": -95.8805656, "brand": "Buc-ees" }, "geometry": { "type": "Point", "coordinates": [ -95.8805656, 30.9655301 ] } },
{ "type": "Feature", "properties": { "store_number": "#44", "street": "1550 Central Texas Expressway", "city": "Melissa", "state_name": "Texas", "zip": "75454", "latitude": 33.2774174, "longitude": -96.5463156, "brand": "Buc-ees" }, "geometry": { "type": "Point", "coordinates": [ -96.5463156, 33.2774174 ] } },
{ "type": "Feature", "properties": { "store_number": "#22", "street": "2760 IH 35 North", "city": "New Braunfels", "state_name": "Texas", "zip": "78130", "latitude": 29.7270239, "longitude": -98.0790445, "brand": "Buc-ees" }, "geometry": { "type": "Point", "coordinates": [ -98.0790445, 29.7270239 ] } },
{ "type": "Feature", "properties": { "store_number": "#19", "street": "2541 S Main St", "city": "Pearland", "state_name": "Texas", "zip": "77584", "latitude": 29.5603154, "longitude": -95.2851882, "brand": "Buc-ees" }, "geometry": { "type": "Point", "coordinates": [ -95.2851882, 29.5603154 ] } },
{ "type": "Feature", "properties": { "store_number": "#20", "street": "11151 Shadow Creek Pky", "city": "Pearland", "state_name": "Texas", "zip": "77584", "latitude": 29.5804915, "longitude": -95.391932, "brand": "Buc-ees" }, "geometry": { "type": "Point", "coordinates": [ -95.391932, 29.5804915 ] } },
{ "type": "Feature", "properties": { "store_number": "#12", "street": "2318 W Main", "city": "Port Lavaca", "state_name": "Texas", "zip": "77979", "latitude": 28.6100275, "longitude": -96.6489169, "brand": "Buc-ees" }, "geometry": { "type": "Point", "coordinates": [ -96.648916899999989, 28.6100275 ] } },
{ "type": "Feature", "properties": { "store_number": "#31", "street": "1243 Crabb River Rd", "city": "Richmond", "state_name": "Texas", "zip": "77469", "latitude": 29.5519451, "longitude": -95.6972148, "brand": "Buc-ees" }, "geometry": { "type": "Point", "coordinates": [ -95.6972148, 29.5519451 ] } },
{ "type": "Feature", "properties": { "store_number": "#38", "street": "5005 E Interstate 30", "city": "Royse City", "state_name": "Texas", "zip": "75189", "latitude": 32.9792639, "longitude": -96.2949132, "brand": "Buc-ees" }, "geometry": { "type": "Point", "coordinates": [ -96.2949132, 32.9792639 ] } },
{ "type": "Feature", "properties": { "store_number": "#35", "street": "4155 N General Bruce Dr.", "city": "Temple", "state_name": "Texas", "zip": "76501", "latitude": 31.1361662, "longitude": -97.3292307, "brand": "Buc-ees" }, "geometry": { "type": "Point", "coordinates": [ -97.3292307, 31.1361662 ] } },
{ "type": "Feature", "properties": { "store_number": "#36", "street": "506 W. IH 20", "city": "Terrell", "state_name": "Texas", "zip": "75160", "latitude": 32.7359626, "longitude": -96.2752569, "brand": "Buc-ees" }, "geometry": { "type": "Point", "coordinates": [ -96.2752569, 32.7359626 ] } },
{ "type": "Feature", "properties": { "store_number": "#33", "street": "6201 Gulf Fwy (IH 45)", "city": "Texas City", "state_name": "Texas", "zip": "77591", "latitude": 29.4289646, "longitude": -95.0627966, "brand": "Buc-ees" }, "geometry": { "type": "Point", "coordinates": [ -95.0627966, 29.4289646 ] } },
{ "type": "Feature", "properties": { "store_number": "#18", "street": "40900 US Hwy 290 Bypass", "city": "Waller", "state_name": "Texas", "zip": "77484", "latitude": 30.0566085, "longitude": -95.9268986, "brand": "Buc-ees" }, "geometry": { "type": "Point", "coordinates": [ -95.9268986, 30.0566085 ] } },
{ "type": "Feature", "properties": { "store_number": "#30", "street": "10484 US 59 Road", "city": "Wharton", "state_name": "Texas", "zip": "77488", "latitude": 29.3254215, "longitude": -96.1231776, "brand": "Buc-ees" }, "geometry": { "type": "Point", "coordinates": [ -96.1231776, 29.3254215 ] } }
]
}
