[
    {
        "street":"545 Brookwood Village",
        "city":"Birmingham",
        "state":"AL",
        "zip":"35209",
        "phone":"(205) 238-6245",
        "longitude":"-86.7742111",
        "latitude":"33.467652",
        "state_name":"Alabama",
        "brand":"DSW"
    },
    {
        "street":"4350 Creekside Avenue",
        "city":"Hoover",
        "state":"AL",
        "zip":"35244",
        "phone":"(205) 739-0219",
        "longitude":"-86.815287",
        "latitude":"33.375847",
        "state_name":"Alabama",
        "brand":"DSW"
    },
    {
        "street":"301 The Bridge Street",
        "city":"Huntsville",
        "state":"AL",
        "zip":"35806",
        "phone":"(256) 327-8550",
        "longitude":"-86.674362",
        "latitude":"34.715401",
        "state_name":"Alabama",
        "brand":"DSW"
    },
    {
        "street":"3930 B Airport Blvd",
        "city":"Mobile",
        "state":"AL",
        "zip":"36608",
        "phone":"(251) 460-9129",
        "longitude":"-88.1460254",
        "latitude":"30.6771837",
        "state_name":"Alabama",
        "brand":"DSW"
    },
    {
        "street":"7228 EastChase Parkway",
        "city":"Montgomery",
        "state":"AL",
        "zip":"36117",
        "phone":"(334) 270-7967",
        "longitude":"-86.165871",
        "latitude":"32.359165",
        "state_name":"Alabama",
        "brand":"DSW"
    },
    {
        "street":"1320 McFarland Blvd E Building 300 Suite310",
        "city":"Tuscaloosa",
        "state":"AL",
        "zip":"35404",
        "phone":"(205) 650-7000",
        "longitude":"-87.5281831",
        "latitude":"33.2005018",
        "state_name":"Alabama",
        "brand":"DSW"
    },
    {
        "street":"10100 W. McDowell Rd.",
        "city":"Avondale",
        "state":"AZ",
        "zip":"85392",
        "phone":"(623) 866-7199",
        "longitude":"-112.277156",
        "latitude":"33.467334",
        "state_name":"Arizona",
        "brand":"DSW"
    },
    {
        "street":"3411 West Frye Road",
        "city":"Chandler",
        "state":"AZ",
        "zip":"85226",
        "phone":"(480) 812-4533",
        "longitude":"-111.898432",
        "latitude":"33.295666",
        "state_name":"Arizona",
        "brand":"DSW"
    },
    {
        "street":"2803 South Market Street",
        "city":"Gilbert",
        "state":"AZ",
        "zip":"85295",
        "phone":"(480) 722-1870",
        "longitude":"-111.74205749933623",
        "latitude":"33.298732424261786",
        "state_name":"Arizona",
        "brand":"DSW"
    },
    {
        "street":"11895 North Oracle Road",
        "city":"Oro Valley",
        "state":"AZ",
        "zip":"85737",
        "phone":"(520) 742-4250",
        "longitude":"-110.93818716849091",
        "latitude":"32.422305617930704",
        "state_name":"Arizona",
        "brand":"DSW"
    },
    {
        "street":"7555 West Bell Road",
        "city":"Peoria",
        "state":"AZ",
        "zip":"85382",
        "phone":"(623) 776-1445",
        "longitude":"-112.221709",
        "latitude":"33.635604",
        "state_name":"Arizona",
        "brand":"DSW"
    },
    {
        "street":"21001 North Tatum Boulevard",
        "city":"Phoenix",
        "state":"AZ",
        "zip":"85050",
        "phone":"(480) 513-9348",
        "longitude":"-111.9719",
        "latitude":"33.674029",
        "state_name":"Arizona",
        "brand":"DSW"
    },
    {
        "street":"10220-B North 90th Street",
        "city":"Scottsdale",
        "state":"AZ",
        "zip":"85258",
        "phone":"(480) 767-2096",
        "longitude":"-111.888678",
        "latitude":"33.57865",
        "state_name":"Arizona",
        "brand":"DSW"
    },
    {
        "street":"1900 E. Rio Salado Parkway",
        "city":"Tempe",
        "state":"AZ",
        "zip":"85281",
        "phone":"(623) 463-6841",
        "longitude":"-111.9037982",
        "latitude":"33.4300958",
        "state_name":"Arizona",
        "brand":"DSW"
    },
    {
        "street":"7191 East Broadway Boulevard",
        "city":"Tucson",
        "state":"AZ",
        "zip":"85710",
        "phone":"(520) 834-0071",
        "longitude":"-110.839195",
        "latitude":"32.221628",
        "state_name":"Arizona",
        "brand":"DSW"
    },
    {
        "street":"17721 Chenal Parkway",
        "city":"Little Rock",
        "state":"AR",
        "zip":"72223",
        "phone":"(501) 881-6004",
        "longitude":"-92.458432",
        "latitude":"34.765619",
        "state_name":"Arkansas",
        "brand":"DSW"
    },
    {
        "street":"2203 Promenade Blvd",
        "city":"Rogers",
        "state":"AR",
        "zip":"72758",
        "phone":"(479) 202-0584",
        "longitude":"-94.1736791",
        "latitude":"36.3075956",
        "state_name":"Arkansas",
        "brand":"DSW"
    },
    {
        "street":"10540 Stockdale Highway",
        "city":"Bakersfield",
        "state":"CA",
        "zip":"93311",
        "phone":"(661) 473-2045",
        "longitude":"-119.1200866",
        "latitude":"35.3522491",
        "state_name":"California",
        "brand":"DSW"
    },
    {
        "street":"431 Associated Road",
        "city":"Brea",
        "state":"CA",
        "zip":"92821",
        "phone":"(714) 494-1286",
        "longitude":"-117.88120061159134",
        "latitude":"33.912685405302796",
        "state_name":"California",
        "brand":"DSW"
    },
    {
        "street":"2555 Sand Creek Road",
        "city":"Brentwood",
        "state":"CA",
        "zip":"94513",
        "phone":"(925) 513-8752",
        "longitude":"-121.73776924610138",
        "latitude":"37.94665957190666",
        "state_name":"California",
        "brand":"DSW"
    },
    {
        "street":"8251 On the Mall",
        "city":"Buena Park",
        "state":"CA",
        "zip":"90620",
        "phone":"(714) 226-0429",
        "longitude":"-117.9896816",
        "latitude":"33.8453768",
        "state_name":"California",
        "brand":"DSW"
    },
    {
        "street":"6510 Canoga Avenue",
        "city":"Canoga Park",
        "state":"CA",
        "zip":"91303",
        "phone":"(818) 264-4235",
        "longitude":"-118.5954843",
        "latitude":"34.1887275",
        "state_name":"California",
        "brand":"DSW"
    },
    {
        "street":"4049 Grand Ave",
        "city":"Chino",
        "state":"CA",
        "zip":"91710",
        "phone":"(909) 315-7026",
        "longitude":"-117.7164605",
        "latitude":"33.9958356",
        "state_name":"California",
        "brand":"DSW"
    },
    {
        "street":"2015 Birch Road",
        "city":"Chula Vista",
        "state":"CA",
        "zip":"91915",
        "phone":"(619) 421-8632",
        "longitude":"-116.9681564",
        "latitude":"32.6231735",
        "state_name":"California",
        "brand":"DSW"
    },
    {
        "street":"901-B South Coast Drive",
        "city":"Costa Mesa",
        "state":"CA",
        "zip":"92626",
        "phone":"(714) 668-9631",
        "longitude":"-117.895744",
        "latitude":"33.688958",
        "state_name":"California",
        "brand":"DSW"
    },
    {
        "street":"12058 Lakewood Boulevard",
        "city":"Downey",
        "state":"CA",
        "zip":"90242",
        "phone":"(562) 803-3474",
        "longitude":"-118.126275",
        "latitude":"33.926869",
        "state_name":"California",
        "brand":"DSW"
    },
    {
        "street":"7896 Dublin Boulevard",
        "city":"Dublin",
        "state":"CA",
        "zip":"94568",
        "phone":"(925) 833-1590",
        "longitude":"-121.9324355",
        "latitude":"37.7017587",
        "state_name":"California",
        "brand":"DSW"
    },
    {
        "street":"7415 Laguna Blvd",
        "city":"Elk Grove",
        "state":"CA",
        "zip":"95758",
        "phone":"(916) 525-8715",
        "longitude":"-121.41731768846512",
        "latitude":"38.42404374630719",
        "state_name":"California",
        "brand":"DSW"
    },
    {
        "street":"2395 Iron Point Road",
        "city":"Folsom",
        "state":"CA",
        "zip":"95630",
        "phone":"(916) 984-0229",
        "longitude":"-121.122188",
        "latitude":"38.643962",
        "state_name":"California",
        "brand":"DSW"
    },
    {
        "street":"43530 Christy Street",
        "city":"Fremont",
        "state":"CA",
        "zip":"94538",
        "phone":"(510) 623-0310",
        "longitude":"-121.969166",
        "latitude":"37.5052406",
        "state_name":"California",
        "brand":"DSW"
    },
    {
        "street":"7923 Blackstone Ave",
        "city":"Fresno",
        "state":"CA",
        "zip":"93720",
        "phone":"(559) 777-6089",
        "longitude":"-119.7944305",
        "latitude":"36.8508439",
        "state_name":"California",
        "brand":"DSW"
    },
    {
        "street":"8657 Villa La Jolla Drive",
        "city":"La Jolla",
        "state":"CA",
        "zip":"92037",
        "phone":"(858) 657-0314",
        "longitude":"-117.231188",
        "latitude":"32.864829",
        "state_name":"California",
        "brand":"DSW"
    },
    {
        "street":"79150 Highway 111",
        "city":"La Quinta",
        "state":"CA",
        "zip":"92253",
        "phone":"(760) 564-4702",
        "longitude":"-116.28348380327225",
        "latitude":"33.70915640928185",
        "state_name":"California",
        "brand":"DSW"
    },
    {
        "street":"7641 Carson Blvd",
        "city":"Long Beach",
        "state":"CA",
        "zip":"90808",
        "phone":"(714) 226-0429",
        "longitude":"-118.08412452972087",
        "latitude":"33.82951936054222",
        "state_name":"California",
        "brand":"DSW"
    },
    {
        "street":"13450 Maxella Avenue",
        "city":"Marina Del Rey",
        "state":"CA",
        "zip":"90292",
        "phone":"(310) 823-0600",
        "longitude":"-118.441318",
        "latitude":"33.986249",
        "state_name":"California",
        "brand":"DSW"
    },
    {
        "street":"3900 Sisk Road",
        "city":"Modesto",
        "state":"CA",
        "zip":"95356",
        "phone":"(209) 846-2682",
        "longitude":"-121.06235951185226",
        "latitude":"37.69366683192727",
        "state_name":"California",
        "brand":"DSW"
    },
    {
        "street":"1015 Cochrane Road",
        "city":"Morgan Hill",
        "state":"CA",
        "zip":"95037",
        "phone":"(408) 465-2025",
        "longitude":"-121.6524918",
        "latitude":"37.1549724",
        "state_name":"California",
        "brand":"DSW"
    },
    {
        "street":"19500 Plummer Street",
        "city":"Northridge",
        "state":"CA",
        "zip":"91324",
        "phone":"(818) 727-1470",
        "longitude":"-118.558519",
        "latitude":"34.241192",
        "state_name":"California",
        "brand":"DSW"
    },
    {
        "street":"136 Vintage Way",
        "city":"Novato",
        "state":"CA",
        "zip":"94945",
        "phone":"(415) 897-5718",
        "longitude":"-122.5549310445785",
        "latitude":"38.090813083977665",
        "state_name":"California",
        "brand":"DSW"
    },
    {
        "street":"4120 East Fourth Street",
        "city":"Ontario",
        "state":"CA",
        "zip":"91764",
        "phone":"(909) 466-0345",
        "longitude":"-117.5623498",
        "latitude":"34.0755411",
        "state_name":"California",
        "brand":"DSW"
    },
    {
        "street":"72-399 Highway 111",
        "city":"Palm Desert",
        "state":"CA",
        "zip":"92260",
        "phone":"(760) 340-3217",
        "longitude":"-116.4045326",
        "latitude":"33.7262967",
        "state_name":"California",
        "brand":"DSW"
    },
    {
        "street":"300 East Colorado Boulevard Suite 250",
        "city":"Pasadena",
        "state":"CA",
        "zip":"91101",
        "phone":"(626) 578-7530",
        "longitude":"-118.1425745",
        "latitude":"34.1456547",
        "state_name":"California",
        "brand":"DSW"
    },
    {
        "street":"2316 Monument Blvd",
        "city":"Pleasant Hill",
        "state":"CA",
        "zip":"94523",
        "phone":"(925) 521-6604",
        "longitude":"-122.0585956",
        "latitude":"37.9419252",
        "state_name":"California",
        "brand":"DSW"
    },
    {
        "street":"27536 Lugonia Avenue",
        "city":"Redlands",
        "state":"CA",
        "zip":"92374",
        "phone":"(909) 792-5020",
        "longitude":"-117.2035386",
        "latitude":"34.0729256",
        "state_name":"California",
        "brand":"DSW"
    },
    {
        "street":"1021 Galleria Boulevard",
        "city":"Roseville",
        "state":"CA",
        "zip":"95678",
        "phone":"(916) 784-2001",
        "longitude":"-121.2704731",
        "latitude":"38.7677172",
        "state_name":"California",
        "brand":"DSW"
    },
    {
        "street":"1901 Arden Way",
        "city":"Sacramento",
        "state":"CA",
        "zip":"95815",
        "phone":"(916) 923-9557",
        "longitude":"-121.42095208168024",
        "latitude":"38.59863548330489",
        "state_name":"California",
        "brand":"DSW"
    },
    {
        "street":"870 Northridge Center Space T02",
        "city":"Salinas",
        "state":"CA",
        "zip":"93906",
        "phone":"(831) 975-2551",
        "longitude":"-121.657846",
        "latitude":"36.7208275",
        "state_name":"California",
        "brand":"DSW"
    },
    {
        "street":"836 Camino Del Rio North",
        "city":"San Diego",
        "state":"CA",
        "zip":"92108",
        "phone":"(619) 296-4079",
        "longitude":"-117.156307",
        "latitude":"32.765829",
        "state_name":"California",
        "brand":"DSW"
    },
    {
        "street":"3530 Steven's Creek Boulevard",
        "city":"San Jose",
        "state":"CA",
        "zip":"95117",
        "phone":"(408) 423-8044",
        "longitude":"-121.9608813",
        "latitude":"37.3226587",
        "state_name":"California",
        "brand":"DSW"
    },
    {
        "street":"243 Madonna Rd Suite K",
        "city":"San Luis Obispo",
        "state":"CA",
        "zip":"93405",
        "phone":"(805) 250-8389",
        "longitude":"-120.67442625761032",
        "latitude":"35.26235733292444",
        "state_name":"California",
        "brand":"DSW"
    },
    {
        "street":"21 W. Hillsdale Blvd",
        "city":"San Mateo",
        "state":"CA",
        "zip":"94403",
        "phone":"(650) 212-7545",
        "longitude":"-122.2975977",
        "latitude":"37.5360138",
        "state_name":"California",
        "brand":"DSW"
    },
    {
        "street":"2663 Santa Rosa Avenue",
        "city":"Santa Rosa",
        "state":"CA",
        "zip":"95404",
        "phone":"(707) 560-0001",
        "longitude":"-122.71432647694901",
        "latitude":"38.41274337833017",
        "state_name":"California",
        "brand":"DSW"
    },
    {
        "street":"9902 Mission Gorge Road",
        "city":"Santee",
        "state":"CA",
        "zip":"92071",
        "phone":"(619) 383-7002",
        "longitude":"-116.979874",
        "latitude":"32.841479",
        "state_name":"California",
        "brand":"DSW"
    },
    {
        "street":"15301 Ventura Boulevard",
        "city":"Sherman Oaks",
        "state":"CA",
        "zip":"91403",
        "phone":"(818) 981-2377",
        "longitude":"-118.4672819",
        "latitude":"34.1542509",
        "state_name":"California",
        "brand":"DSW"
    },
    {
        "street":"40436 Winchester Rd Unit 5A",
        "city":"Temecula",
        "state":"CA",
        "zip":"92591",
        "phone":"(951) 348-3020",
        "longitude":"-117.150948",
        "latitude":"33.529585",
        "state_name":"California",
        "brand":"DSW"
    },
    {
        "street":"145 W Hillcrest Drive Suite 120",
        "city":"Thousand Oaks",
        "state":"CA",
        "zip":"91360",
        "phone":"(805) 719-5000",
        "longitude":"-118.8794692",
        "latitude":"34.1815811",
        "state_name":"California",
        "brand":"DSW"
    },
    {
        "street":"17502 Hawthorne Boulevard",
        "city":"Torrance",
        "state":"CA",
        "zip":"90504",
        "phone":"(310) 370-9918",
        "longitude":"-118.3508643",
        "latitude":"33.8717391",
        "state_name":"California",
        "brand":"DSW"
    },
    {
        "street":"151 Plaza Drive",
        "city":"Vallejo",
        "state":"CA",
        "zip":"94591",
        "phone":"(707) 652-6001",
        "longitude":"-122.21914918650816",
        "latitude":"38.13453221945283",
        "state_name":"California",
        "brand":"DSW"
    },
    {
        "street":"2753 E. Eastland Center Drive",
        "city":"West Covina",
        "state":"CA",
        "zip":"91791",
        "phone":"(626) 593-7466",
        "longitude":"-117.88561",
        "latitude":"34.0732381",
        "state_name":"California",
        "brand":"DSW"
    },
    {
        "street":"15600 East Briarwood Circle",
        "city":"Aurora",
        "state":"CO",
        "zip":"80016",
        "phone":"(303) 400-0236",
        "longitude":"-104.8058387",
        "latitude":"39.5916835",
        "state_name":"Colorado",
        "brand":"DSW"
    },
    {
        "street":"595 Flatiron Boulevard",
        "city":"Broomfield",
        "state":"CO",
        "zip":"80021",
        "phone":"(303) 466-3594",
        "longitude":"-105.130964",
        "latitude":"39.928561",
        "state_name":"Colorado",
        "brand":"DSW"
    },
    {
        "street":"7639 North Academy Boulevard",
        "city":"Colorado Springs",
        "state":"CO",
        "zip":"80920",
        "phone":"(719) 264-8007",
        "longitude":"-104.7973878",
        "latitude":"38.9424641",
        "state_name":"Colorado",
        "brand":"DSW"
    },
    {
        "street":"4100 East Mexico Avenue",
        "city":"Denver",
        "state":"CO",
        "zip":"80222",
        "phone":"(303) 758-1733",
        "longitude":"-104.9384904",
        "latitude":"39.6842631",
        "state_name":"Colorado",
        "brand":"DSW"
    },
    {
        "street":"4431 Corbett Drive",
        "city":"Fort Collins",
        "state":"CO",
        "zip":"80528",
        "phone":"(970) 223-2399",
        "longitude":"-105.027334",
        "latitude":"40.525085",
        "state_name":"Colorado",
        "brand":"DSW"
    },
    {
        "street":"180 Ken Pratt Boulevard",
        "city":"Longmont",
        "state":"CO",
        "zip":"80501",
        "phone":"(303) 702-5191",
        "longitude":"-105.095625",
        "latitude":"40.153798",
        "state_name":"Colorado",
        "brand":"DSW"
    },
    {
        "street":"9380 Sheridan Boulevard",
        "city":"Westminster",
        "state":"CO",
        "zip":"80031",
        "phone":"(303) 412-1224",
        "longitude":"-105.051134",
        "latitude":"39.867715",
        "state_name":"Colorado",
        "brand":"DSW"
    },
    {
        "street":"113 Mill Plain Road",
        "city":"Danbury",
        "state":"CT",
        "zip":"06811",
        "phone":"(203) 794-0074",
        "longitude":"-73.520853",
        "latitude":"41.3929855",
        "state_name":"Connecticut",
        "brand":"DSW"
    },
    {
        "street":"25 Hazard Ave.",
        "city":"Enfield",
        "state":"CT",
        "zip":"06082",
        "phone":"(860) 265-1172",
        "longitude":"-72.581174",
        "latitude":"41.991503",
        "state_name":"Connecticut",
        "brand":"DSW"
    },
    {
        "street":"696 Post Road",
        "city":"Fairfield",
        "state":"CT",
        "zip":"06824",
        "phone":"(475) 999-7000",
        "longitude":"-73.2472550868988",
        "latitude":"41.149564796497245",
        "state_name":"Connecticut",
        "brand":"DSW"
    },
    {
        "street":"1595 CT Route 71",
        "city":"Farmington",
        "state":"CT",
        "zip":"06032",
        "phone":"(860) 421-7020",
        "longitude":"-72.761025",
        "latitude":"41.7178166",
        "state_name":"Connecticut",
        "brand":"DSW"
    },
    {
        "street":"1919 Boston Post Road Suite 250",
        "city":"Guilford",
        "state":"CT",
        "zip":"06437",
        "phone":"(203) 738-7013",
        "longitude":"-72.7074218",
        "latitude":"41.3000682",
        "state_name":"Connecticut",
        "brand":"DSW"
    },
    {
        "street":"2100 Dixwell Avenue Store #240",
        "city":"Hamden",
        "state":"CT",
        "zip":"06541",
        "phone":"(203) 985-8241",
        "longitude":"-72.9203927",
        "latitude":"41.3708065",
        "state_name":"Connecticut",
        "brand":"DSW"
    },
    {
        "street":"110B Slater Street",
        "city":"Manchester",
        "state":"CT",
        "zip":"06040",
        "phone":"(860) 644-6200",
        "longitude":"-72.5358536",
        "latitude":"41.8071864",
        "state_name":"Connecticut",
        "brand":"DSW"
    },
    {
        "street":"538 Boston Post Road",
        "city":"Orange",
        "state":"CT",
        "zip":"06477",
        "phone":"(203) 795-4201",
        "longitude":"-73.016165",
        "latitude":"41.25246",
        "state_name":"Connecticut",
        "brand":"DSW"
    },
    {
        "street":"276 New Britain Avenue",
        "city":"Plainville",
        "state":"CT",
        "zip":"06062",
        "phone":"(860) 747-6900",
        "longitude":"-72.8410875",
        "latitude":"41.673356",
        "state_name":"Connecticut",
        "brand":"DSW"
    },
    {
        "street":"917 Hartford Turnpike",
        "city":"Waterford",
        "state":"CT",
        "zip":"06385",
        "phone":"(860) 437-9784",
        "longitude":"-72.14966",
        "latitude":"41.3822124",
        "state_name":"Connecticut",
        "brand":"DSW"
    },
    {
        "street":"2600 Fashion Center Blvd",
        "city":"Newark",
        "state":"DE",
        "zip":"19702",
        "phone":"(302) 317-5987",
        "longitude":"-75.647559",
        "latitude":"39.672947",
        "state_name":"Delaware",
        "brand":"DSW"
    },
    {
        "street":"375 East Altamonte Drive",
        "city":"Altamonte Springs",
        "state":"FL",
        "zip":"32701",
        "phone":"(407) 831-1152",
        "longitude":"-81.3803924",
        "latitude":"28.6649467",
        "state_name":"Florida",
        "brand":"DSW"
    },
    {
        "street":"19135 Biscayne Boulevard",
        "city":"Aventura",
        "state":"FL",
        "zip":"33180",
        "phone":"(305) 932-1991",
        "longitude":"-80.144967",
        "latitude":"25.952651",
        "state_name":"Florida",
        "brand":"DSW"
    },
    {
        "street":"9870 Glades Road",
        "city":"Boca Raton",
        "state":"FL",
        "zip":"33434",
        "phone":"(561) 483-1345",
        "longitude":"-80.2018701",
        "latitude":"26.3650635",
        "state_name":"Florida",
        "brand":"DSW"
    },
    {
        "street":"11335 Causeway Blvd",
        "city":"Brandon",
        "state":"FL",
        "zip":"33511",
        "phone":"(813) 681-8054",
        "longitude":"-82.32176900897818",
        "latitude":"27.921042047516206",
        "state_name":"Florida",
        "brand":"DSW"
    },
    {
        "street":"23668 US Hwy. 19 N. Unit 40",
        "city":"Clearwater",
        "state":"FL",
        "zip":"33765",
        "phone":"(727) 223-7308",
        "longitude":"-82.7323404409218",
        "latitude":"27.988631710648324",
        "state_name":"Florida",
        "brand":"DSW"
    },
    {
        "street":"4401 Lyons Road",
        "city":"Coconut Creek",
        "state":"FL",
        "zip":"33073",
        "phone":"(954) 975-8067",
        "longitude":"-80.187314",
        "latitude":"26.282564",
        "state_name":"Florida",
        "brand":"DSW"
    },
    {
        "street":"2112 South University Drive",
        "city":"Davie",
        "state":"FL",
        "zip":"33324",
        "phone":"(954) 472-0351",
        "longitude":"-80.2471854",
        "latitude":"26.0934627",
        "state_name":"Florida",
        "brand":"DSW"
    },
    {
        "street":"1115 Cornerstone Blvd. Suite I",
        "city":"Daytona Beach",
        "state":"FL",
        "zip":"32114",
        "phone":"(386) 317-7106",
        "longitude":"-81.0948259",
        "latitude":"29.2154119",
        "state_name":"Florida",
        "brand":"DSW"
    },
    {
        "street":"8050 Mediterranian Drive",
        "city":"Estero",
        "state":"FL",
        "zip":"33928",
        "phone":"(239) 948-6538",
        "longitude":"-81.806358",
        "latitude":"26.405461",
        "state_name":"Florida",
        "brand":"DSW"
    },
    {
        "street":"13711 South Tamiami Trail",
        "city":"Fort Myers",
        "state":"FL",
        "zip":"33912",
        "phone":"(239) 432-2765",
        "longitude":"-81.868477",
        "latitude":"26.543913",
        "state_name":"Florida",
        "brand":"DSW"
    },
    {
        "street":"3648 SW Archer RD",
        "city":"Gainesville",
        "state":"FL",
        "zip":"32608",
        "phone":"(352) 332-7086",
        "longitude":"-82.37874641342717",
        "latitude":"29.623371274902784",
        "state_name":"Florida",
        "brand":"DSW"
    },
    {
        "street":"4665 Town Crossing Drive",
        "city":"Jacksonville",
        "state":"FL",
        "zip":"32246",
        "phone":"(904) 620-9456",
        "longitude":"-81.526297",
        "latitude":"30.258657",
        "state_name":"Florida",
        "brand":"DSW"
    },
    {
        "street":"2571 West Osceola Parkway",
        "city":"Kissimmee",
        "state":"FL",
        "zip":"34741",
        "phone":"(407) 343-7449",
        "longitude":"-81.4302391",
        "latitude":"28.3429617",
        "state_name":"Florida",
        "brand":"DSW"
    },
    {
        "street":"5056 Airport Pulling Road",
        "city":"Naples",
        "state":"FL",
        "zip":"34105",
        "phone":"(239) 231-7847",
        "longitude":"-81.7659699",
        "latitude":"26.2100371",
        "state_name":"Florida",
        "brand":"DSW"
    },
    {
        "street":"4414 Southwest College Road",
        "city":"Ocala",
        "state":"FL",
        "zip":"34474",
        "phone":"(352) 237-1356",
        "longitude":"-82.1918749",
        "latitude":"29.1413068",
        "state_name":"Florida",
        "brand":"DSW"
    },
    {
        "street":"4021 Conroy Road",
        "city":"Orlando",
        "state":"FL",
        "zip":"32839",
        "phone":"(407) 903-0832",
        "longitude":"-81.427056",
        "latitude":"28.487822",
        "state_name":"Florida",
        "brand":"DSW"
    },
    {
        "street":"630 Southwest 145 Terrace",
        "city":"Pembroke Pines",
        "state":"FL",
        "zip":"33027",
        "phone":"(954) 431-7672",
        "longitude":"-80.33712381349181",
        "latitude":"26.002277946466897",
        "state_name":"Florida",
        "brand":"DSW"
    },
    {
        "street":"1650 Airport Blvd. Suite 350",
        "city":"Pensacola",
        "state":"FL",
        "zip":"32504",
        "phone":"(850) 512-1395",
        "longitude":"-87.208049",
        "latitude":"30.481837",
        "state_name":"Florida",
        "brand":"DSW"
    },
    {
        "street":"1441 Tamiami Trail",
        "city":"Port Charlotte",
        "state":"FL",
        "zip":"33948",
        "phone":"(941) 625-4688",
        "longitude":"-82.145389",
        "latitude":"27.009154",
        "state_name":"Florida",
        "brand":"DSW"
    },
    {
        "street":"10902 SW Village Pkwy",
        "city":"Port St. Lucie",
        "state":"FL",
        "zip":"34987",
        "phone":"(772) 402-0060",
        "longitude":"-80.4275815",
        "latitude":"27.2665026",
        "state_name":"Florida",
        "brand":"DSW"
    },
    {
        "street":"151 N. Cattlemen Road",
        "city":"Sarasota",
        "state":"FL",
        "zip":"34243",
        "phone":"(941) 702-7005",
        "longitude":"-82.4579196",
        "latitude":"27.3826437",
        "state_name":"Florida",
        "brand":"DSW"
    },
    {
        "street":"6999 Tyrone Square",
        "city":"St. Petersburg",
        "state":"FL",
        "zip":"33710",
        "phone":"(727) 362-6540",
        "longitude":"-82.734211",
        "latitude":"27.79495",
        "state_name":"Florida",
        "brand":"DSW"
    },
    {
        "street":"1302 Appalachee Parkway",
        "city":"Tallahassee",
        "state":"FL",
        "zip":"32301",
        "phone":"(850) 270-0041",
        "longitude":"-84.2606405",
        "latitude":"30.437583",
        "state_name":"Florida",
        "brand":"DSW"
    },
    {
        "street":"1855 Palm Beach Lakes Blvd",
        "city":"West Palm Beach",
        "state":"FL",
        "zip":"33401",
        "phone":"(561) 494-7186",
        "longitude":"-80.0896265",
        "latitude":"26.7219743",
        "state_name":"Florida",
        "brand":"DSW"
    },
    {
        "street":"501 N. Orlando Ave Unit 203",
        "city":"Winter Park",
        "state":"FL",
        "zip":"32789",
        "phone":"(407) 853-7279",
        "longitude":"-81.36795669794083",
        "latitude":"28.604989470606483",
        "state_name":"Florida",
        "brand":"DSW"
    },
    {
        "street":"7361 North Point Parkway",
        "city":"Alpharetta",
        "state":"GA",
        "zip":"30022",
        "phone":"(770) 998-7930",
        "longitude":"-84.3041088",
        "latitude":"34.0439836",
        "state_name":"Georgia",
        "brand":"DSW"
    },
    {
        "street":"2907 Washington Rd. Building 100",
        "city":"Augusta",
        "state":"GA",
        "zip":"30909",
        "phone":"(706) 993-3734",
        "longitude":"-82.0395135",
        "latitude":"33.5133265",
        "state_name":"Georgia",
        "brand":"DSW"
    },
    {
        "street":"1705 Mall of Georgia Blvd",
        "city":"Buford",
        "state":"GA",
        "zip":"30519",
        "phone":"(678) 804-8082",
        "longitude":"-83.9930986",
        "latitude":"34.0602493",
        "state_name":"Georgia",
        "brand":"DSW"
    },
    {
        "street":"410 Peachtree Parkway",
        "city":"Cumming",
        "state":"GA",
        "zip":"30041",
        "phone":"(678) 947-6180",
        "longitude":"-84.178928",
        "latitude":"34.1534142",
        "state_name":"Georgia",
        "brand":"DSW"
    },
    {
        "street":"4741 Ashford Dunwoody Road",
        "city":"Dunwoody",
        "state":"GA",
        "zip":"30338",
        "phone":"(770) 392-9880",
        "longitude":"-84.3353313",
        "latitude":"33.9334331",
        "state_name":"Georgia",
        "brand":"DSW"
    },
    {
        "street":"121 Pavillion Pkwy",
        "city":"Fayetteville",
        "state":"GA",
        "zip":"30214",
        "phone":"(678) 632-7883",
        "longitude":"-84.44158843684006",
        "latitude":"33.48188531127906",
        "state_name":"Georgia",
        "brand":"DSW"
    },
    {
        "street":"840 Ernest Barrett Parkway",
        "city":"Kennesaw",
        "state":"GA",
        "zip":"30144",
        "phone":"(678) 290-8100",
        "longitude":"-84.576622",
        "latitude":"34.0060744",
        "state_name":"Georgia",
        "brand":"DSW"
    },
    {
        "street":"1250 Scenic Highway",
        "city":"Lawrenceville",
        "state":"GA",
        "zip":"30045",
        "phone":"(770) 979-6610",
        "longitude":"-84.0033878",
        "latitude":"33.9004343",
        "state_name":"Georgia",
        "brand":"DSW"
    },
    {
        "street":"8110 Mall Parkway",
        "city":"Lithonia",
        "state":"GA",
        "zip":"30038",
        "phone":"(678) 526-8550",
        "longitude":"-84.093605",
        "latitude":"33.69397",
        "state_name":"Georgia",
        "brand":"DSW"
    },
    {
        "street":"5080 Riverside Drive",
        "city":"Macon",
        "state":"GA",
        "zip":"31210",
        "phone":"(478) 474-6228",
        "longitude":"-83.714894",
        "latitude":"32.9240879",
        "state_name":"Georgia",
        "brand":"DSW"
    },
    {
        "street":"1287 Johnson Ferry Rd Suite B",
        "city":"Marietta",
        "state":"GA",
        "zip":"30068",
        "phone":"(770) 694-7266",
        "longitude":"-84.42554827976227",
        "latitude":"33.97911889679457",
        "state_name":"Georgia",
        "brand":"DSW"
    },
    {
        "street":"346 Newnan Crossing Bypass",
        "city":"Newnan",
        "state":"GA",
        "zip":"30265",
        "phone":"(678) 423-8536",
        "longitude":"-84.7646985",
        "latitude":"33.390067",
        "state_name":"Georgia",
        "brand":"DSW"
    },
    {
        "street":"5131 Peachtree Parkway",
        "city":"Norcross",
        "state":"GA",
        "zip":"30092",
        "phone":"(770) 263-9224",
        "longitude":"-84.2158023",
        "latitude":"33.9826995",
        "state_name":"Georgia",
        "brand":"DSW"
    },
    {
        "street":"7804 Abercorn St Space #1",
        "city":"Savannah",
        "state":"GA",
        "zip":"31406",
        "phone":"(912) 417-7062",
        "longitude":"-81.1159276",
        "latitude":"32.0035006",
        "state_name":"Georgia",
        "brand":"DSW"
    },
    {
        "street":"4310 Lavista Rd Suite A 450",
        "city":"Tucker",
        "state":"GA",
        "zip":"30084",
        "phone":"(770) 462-7467",
        "longitude":"-84.2425176",
        "latitude":"33.8497903",
        "state_name":"Georgia",
        "brand":"DSW"
    },
    {
        "street":"8501 West Franklin Road",
        "city":"Boise",
        "state":"ID",
        "zip":"83709",
        "phone":"(208) 323-1201",
        "longitude":"-116.287332",
        "latitude":"43.603571",
        "state_name":"Idaho",
        "brand":"DSW"
    },
    {
        "street":"1820 South Randall Road",
        "city":"Algonquin",
        "state":"IL",
        "zip":"60102",
        "phone":"(847) 658-3895",
        "longitude":"-88.339754",
        "latitude":"42.150947",
        "state_name":"Illinois",
        "brand":"DSW"
    },
    {
        "street":"1500 E. Empire Street Space B3",
        "city":"Bloomington",
        "state":"IL",
        "zip":"61701",
        "phone":"(309) 606-7014",
        "longitude":"-88.957904",
        "latitude":"40.490801",
        "state_name":"Illinois",
        "brand":"DSW"
    },
    {
        "street":"635 East Boughton Road",
        "city":"Bolingbrook",
        "state":"IL",
        "zip":"60440",
        "phone":"(630) 783-0272",
        "longitude":"-88.040944",
        "latitude":"41.718046",
        "state_name":"Illinois",
        "brand":"DSW"
    },
    {
        "street":"9690 S. Western Ave. Space 9690",
        "city":"Evergreen Park",
        "state":"IL",
        "zip":"60805",
        "phone":"(708) 576-7244",
        "longitude":"-87.6844882",
        "latitude":"41.7163411",
        "state_name":"Illinois",
        "brand":"DSW"
    },
    {
        "street":"6601 N. Illinois",
        "city":"Fairview Heights",
        "state":"IL",
        "zip":"62208",
        "phone":"(618) 688-0044",
        "longitude":"-89.98742043972015",
        "latitude":"38.595933377657474",
        "state_name":"Illinois",
        "brand":"DSW"
    },
    {
        "street":"702 Commons Drive",
        "city":"Geneva",
        "state":"IL",
        "zip":"60134",
        "phone":"(630) 208-1915",
        "longitude":"-88.343681",
        "latitude":"41.895836",
        "state_name":"Illinois",
        "brand":"DSW"
    },
    {
        "street":"6971 Grand Ave.",
        "city":"Gurnee",
        "state":"IL",
        "zip":"60031",
        "phone":"(847) 693-4954",
        "longitude":"-87.9768902",
        "latitude":"42.3846972",
        "state_name":"Illinois",
        "brand":"DSW"
    },
    {
        "street":"2601 Plainfield Road Suite B",
        "city":"Joliet",
        "state":"IL",
        "zip":"60435",
        "phone":"(815) 733-4002",
        "longitude":"-88.15271705389029",
        "latitude":"41.574547914632035",
        "state_name":"Illinois",
        "brand":"DSW"
    },
    {
        "street":"20393 N. Rand Road Suite 106",
        "city":"Kildeer",
        "state":"IL",
        "zip":"60074",
        "phone":"(847) 786-7002",
        "longitude":"-88.047459",
        "latitude":"42.15994",
        "state_name":"Illinois",
        "brand":"DSW"
    },
    {
        "street":"3356 Shoppers Ave.",
        "city":"McHenry",
        "state":"IL",
        "zip":"60050",
        "phone":"(815) 322-4002",
        "longitude":"-88.263384",
        "latitude":"42.3665837",
        "state_name":"Illinois",
        "brand":"DSW"
    },
    {
        "street":"1037 N. Elmhurst Rd E101C",
        "city":"Mount Prospect",
        "state":"IL",
        "zip":"60056",
        "phone":"(224) 318-4086",
        "longitude":"-87.9345741463955",
        "latitude":"42.08467600412734",
        "state_name":"Illinois",
        "brand":"DSW"
    },
    {
        "street":"2515 West 75th Street",
        "city":"Naperville",
        "state":"IL",
        "zip":"60540",
        "phone":"(630) 357-8148",
        "longitude":"-88.197598",
        "latitude":"41.749053",
        "state_name":"Illinois",
        "brand":"DSW"
    },
    {
        "street":"4200 N Harlem Ave #1G",
        "city":"Norridge",
        "state":"IL",
        "zip":"60706",
        "phone":"(708) 716-7001",
        "longitude":"-87.80855958450621",
        "latitude":"41.95592532363261",
        "state_name":"Illinois",
        "brand":"DSW"
    },
    {
        "street":"181 Skokie Blvd",
        "city":"Northbrook",
        "state":"IL",
        "zip":"60062",
        "phone":"(224) 501-7018",
        "longitude":"-87.79792785644531",
        "latitude":"42.14971158928673",
        "state_name":"Illinois",
        "brand":"DSW"
    },
    {
        "street":"2155 West 22nd Street",
        "city":"Oak Brook",
        "state":"IL",
        "zip":"60523",
        "phone":"(630) 599-7158",
        "longitude":"-87.9676651",
        "latitude":"41.8452577",
        "state_name":"Illinois",
        "brand":"DSW"
    },
    {
        "street":"202 Orland Park Place",
        "city":"Orland Park",
        "state":"IL",
        "zip":"60462",
        "phone":"(708) 460-3168",
        "longitude":"-87.8508658",
        "latitude":"41.6114893",
        "state_name":"Illinois",
        "brand":"DSW"
    },
    {
        "street":"5201 W. War Memorial Drive",
        "city":"Peoria",
        "state":"IL",
        "zip":"61615",
        "phone":"(309) 691-2376",
        "longitude":"-89.674609",
        "latitude":"40.778587",
        "state_name":"Illinois",
        "brand":"DSW"
    },
    {
        "street":"7321 West Lake Street",
        "city":"River Forest",
        "state":"IL",
        "zip":"60305",
        "phone":"(708) 689-4146",
        "longitude":"-87.808136343956",
        "latitude":"41.887446595109786",
        "state_name":"Illinois",
        "brand":"DSW"
    },
    {
        "street":"6636 East State Street",
        "city":"Rockford",
        "state":"IL",
        "zip":"61108",
        "phone":"(815) 315-1063",
        "longitude":"-88.98676872253412",
        "latitude":"42.2701917404338",
        "state_name":"Illinois",
        "brand":"DSW"
    },
    {
        "street":"901 Perimeter Drive",
        "city":"Schaumburg",
        "state":"IL",
        "zip":"60173",
        "phone":"(847) 240-1594",
        "longitude":"-88.031603",
        "latitude":"42.045457",
        "state_name":"Illinois",
        "brand":"DSW"
    },
    {
        "street":"9601 Skokie Boulevard",
        "city":"Skokie",
        "state":"IL",
        "zip":"60077",
        "phone":"(847) 674-2772",
        "longitude":"-87.744932",
        "latitude":"42.055611",
        "state_name":"Illinois",
        "brand":"DSW"
    },
    {
        "street":"100 West Higgins Road",
        "city":"South Barrington",
        "state":"IL",
        "zip":"60010",
        "phone":"(847) 551-3335",
        "longitude":"-88.1873322",
        "latitude":"42.0745636",
        "state_name":"Illinois",
        "brand":"DSW"
    },
    {
        "street":"3175 S. Veteran Parkway",
        "city":"Springfield",
        "state":"IL",
        "zip":"62704",
        "phone":"(217) 717-4356",
        "longitude":"-89.7081543",
        "latitude":"39.7602985",
        "state_name":"Illinois",
        "brand":"DSW"
    },
    {
        "street":"413 North Milwaukee Avenue",
        "city":"Vernon Hills",
        "state":"IL",
        "zip":"60061",
        "phone":"(847) 549-9050",
        "longitude":"-87.9397303",
        "latitude":"42.2338899",
        "state_name":"Illinois",
        "brand":"DSW"
    },
    {
        "street":"2624 East 3rd Street",
        "city":"Bloomington",
        "state":"IN",
        "zip":"47401",
        "phone":"(812) 269-3526",
        "longitude":"-86.5002185",
        "latitude":"39.162722",
        "state_name":"Indiana",
        "brand":"DSW"
    },
    {
        "street":"14477 Clay Terrace Boulevard",
        "city":"Carmel",
        "state":"IN",
        "zip":"46032",
        "phone":"(317) 846-8410",
        "longitude":"-86.128581",
        "latitude":"39.998628",
        "state_name":"Indiana",
        "brand":"DSW"
    },
    {
        "street":"6401 E. Lloyd Expressway",
        "city":"Evansville",
        "state":"IN",
        "zip":"47715",
        "phone":"(812) 213-4106",
        "longitude":"-87.4733856",
        "latitude":"37.9757514",
        "state_name":"Indiana",
        "brand":"DSW"
    },
    {
        "street":"4310 Coldwater Road",
        "city":"Fort Wayne",
        "state":"IN",
        "zip":"46805",
        "phone":"(260) 440-7239",
        "longitude":"-85.1342038",
        "latitude":"41.1172203",
        "state_name":"Indiana",
        "brand":"DSW"
    },
    {
        "street":"723 US 31 North",
        "city":"Greenwood",
        "state":"IN",
        "zip":"46142",
        "phone":"(317) 889-2938",
        "longitude":"-86.118714",
        "latitude":"39.626786",
        "state_name":"Indiana",
        "brand":"DSW"
    },
    {
        "street":"8653 River Crossing BLVD",
        "city":"Indianapolis",
        "state":"IN",
        "zip":"46240",
        "phone":"(317) 570-1937",
        "longitude":"-86.10635241347502",
        "latitude":"39.91279647987015",
        "state_name":"Indiana",
        "brand":"DSW"
    },
    {
        "street":"2530 E. 79th Avenue Suite B",
        "city":"Merrillville",
        "state":"IN",
        "zip":"46410",
        "phone":"(219) 791-0446",
        "longitude":"-87.31234659325548",
        "latitude":"41.47334386797577",
        "state_name":"Indiana",
        "brand":"DSW"
    },
    {
        "street":"5620 Grape Road Suite 200",
        "city":"Mishawaka",
        "state":"IN",
        "zip":"46545",
        "phone":"(574) 207-7017",
        "longitude":"-86.1841876",
        "latitude":"41.7110079",
        "state_name":"Indiana",
        "brand":"DSW"
    },
    {
        "street":"14139 Town Center Boulevard",
        "city":"Noblesville",
        "state":"IN",
        "zip":"46060",
        "phone":"(317) 773-3753",
        "longitude":"-85.9325137",
        "latitude":"39.9938574",
        "state_name":"Indiana",
        "brand":"DSW"
    },
    {
        "street":"314 Metropolis Mile",
        "city":"Plainfield",
        "state":"IN",
        "zip":"46168",
        "phone":"(317) 838-8379",
        "longitude":"-86.358985",
        "latitude":"39.713046",
        "state_name":"Indiana",
        "brand":"DSW"
    },
    {
        "street":"131 US Highway 41",
        "city":"Schererville",
        "state":"IN",
        "zip":"46375",
        "phone":"(219) 515-3408",
        "longitude":"-87.4679303169251",
        "latitude":"41.52049918799569",
        "state_name":"Indiana",
        "brand":"DSW"
    },
    {
        "street":"4241 Elmore Ave.",
        "city":"Davenport",
        "state":"IA",
        "zip":"52807",
        "phone":"(563) 468-4318",
        "longitude":"-90.5235806107521",
        "latitude":"41.56446425588089",
        "state_name":"Iowa",
        "brand":"DSW"
    },
    {
        "street":"6905 Mills Civic Parkway",
        "city":"West Des Moines",
        "state":"IA",
        "zip":"50266",
        "phone":"(515) 457-9458",
        "longitude":"-93.802349",
        "latitude":"41.562641",
        "state_name":"Iowa",
        "brand":"DSW"
    },
    {
        "street":"12010 West 95th Street",
        "city":"Lenexa",
        "state":"KS",
        "zip":"66215",
        "phone":"(913) 310-0063",
        "longitude":"-94.7245323",
        "latitude":"38.9591949",
        "state_name":"Kansas",
        "brand":"DSW"
    },
    {
        "street":"12160 Blue Valley Parkway",
        "city":"Overland Park",
        "state":"KS",
        "zip":"66213",
        "phone":"(913) 338-0319",
        "longitude":"-94.676209",
        "latitude":"38.909727",
        "state_name":"Kansas",
        "brand":"DSW"
    },
    {
        "street":"1740 SW Wanamaker Rd Suite 1000",
        "city":"Topeka",
        "state":"KS",
        "zip":"66604",
        "phone":"(785) 414-7385",
        "longitude":"-95.7586197",
        "latitude":"39.0349164",
        "state_name":"Kansas",
        "brand":"DSW"
    },
    {
        "street":"2728 N. Greenwich Ct.",
        "city":"Wichita",
        "state":"KS",
        "zip":"67226",
        "phone":"(316) 226-7416",
        "longitude":"-97.203633",
        "latitude":"37.733138",
        "state_name":"Kansas",
        "brand":"DSW"
    },
    {
        "street":"2771 Towne Center Boulevard",
        "city":"Crestview Hills",
        "state":"KY",
        "zip":"41017",
        "phone":"(859) 331-5679",
        "longitude":"-84.576027",
        "latitude":"39.025299",
        "state_name":"Kentucky",
        "brand":"DSW"
    },
    {
        "street":"1958 Pavilion Way",
        "city":"Lexington",
        "state":"KY",
        "zip":"40509",
        "phone":"(859) 963-1969",
        "longitude":"-84.415374",
        "latitude":"38.023546",
        "state_name":"Kentucky",
        "brand":"DSW"
    },
    {
        "street":"9330 Mall of Louisiana Blvd.",
        "city":"Baton Rouge",
        "state":"LA",
        "zip":"70836",
        "phone":"(225) 769-0360",
        "longitude":"-91.081267",
        "latitude":"30.386998",
        "state_name":"Louisiana",
        "brand":"DSW"
    },
    {
        "street":"1126 S. Clearview Parkway",
        "city":"Harahan",
        "state":"LA",
        "zip":"70123",
        "phone":"(504) 208-5310",
        "longitude":"-90.18557399511332",
        "latitude":"29.96110435320704",
        "state_name":"Louisiana",
        "brand":"DSW"
    },
    {
        "street":"609 Settlers Trace Blvd.",
        "city":"Lafayette",
        "state":"LA",
        "zip":"70508",
        "phone":"(337) 416-7004",
        "longitude":"-92.0534419",
        "latitude":"30.1582938",
        "state_name":"Louisiana",
        "brand":"DSW"
    },
    {
        "street":"7463 Youree Drive",
        "city":"Shreveport",
        "state":"LA",
        "zip":"71105",
        "phone":"(318) 797-1058",
        "longitude":"-93.711691",
        "latitude":"32.438866",
        "state_name":"Louisiana",
        "brand":"DSW"
    },
    {
        "street":"198 Maine Mall Road",
        "city":"South Portland",
        "state":"ME",
        "zip":"04106",
        "phone":"(207) 775-5970",
        "longitude":"-70.33342",
        "latitude":"43.640621",
        "state_name":"Maine",
        "brand":"DSW"
    },
    {
        "street":"3484 Emmorton Road",
        "city":"Abingdon",
        "state":"MD",
        "zip":"21009",
        "phone":"(410) 569-3819",
        "longitude":"-76.3132317",
        "latitude":"39.4658659",
        "state_name":"Maryland",
        "brand":"DSW"
    },
    {
        "street":"2550 Solomons Island Road",
        "city":"Annapolis",
        "state":"MD",
        "zip":"21401",
        "phone":"(410) 224-2189",
        "longitude":"-76.544201",
        "latitude":"38.973681",
        "state_name":"Maryland",
        "brand":"DSW"
    },
    {
        "street":"10400 Old Georgetown Road",
        "city":"Bethesda",
        "state":"MD",
        "zip":"20814",
        "phone":"(301) 897-0360",
        "longitude":"-77.127369",
        "latitude":"39.025266",
        "state_name":"Maryland",
        "brand":"DSW"
    },
    {
        "street":"23415 Three Notch Road",
        "city":"California",
        "state":"MD",
        "zip":"20619",
        "phone":"(301) 880-8001",
        "longitude":"-76.532781",
        "latitude":"38.30877",
        "state_name":"Maryland",
        "brand":"DSW"
    },
    {
        "street":"1725 Ritchie Station Ct.",
        "city":"Capitol Heights",
        "state":"MD",
        "zip":"20743",
        "phone":"(240) 716-7103",
        "longitude":"-76.8537548",
        "latitude":"38.8676804",
        "state_name":"Maryland",
        "brand":"DSW"
    },
    {
        "street":"118 Shawan Road",
        "city":"Cockeysville",
        "state":"MD",
        "zip":"21030",
        "phone":"(410) 584-8010",
        "longitude":"-76.654361",
        "latitude":"39.497924",
        "state_name":"Maryland",
        "brand":"DSW"
    },
    {
        "street":"9051 Snowden Square Drive",
        "city":"Columbia",
        "state":"MD",
        "zip":"21045",
        "phone":"(410) 872-0029",
        "longitude":"-76.817477",
        "latitude":"39.182876",
        "state_name":"Maryland",
        "brand":"DSW"
    },
    {
        "street":"5500 Buckeystown Pike",
        "city":"Frederick",
        "state":"MD",
        "zip":"21703",
        "phone":"(301) 631-8426",
        "longitude":"-77.406961",
        "latitude":"39.3820149",
        "state_name":"Maryland",
        "brand":"DSW"
    },
    {
        "street":"1410 South Main Chapel Way",
        "city":"Gambrills",
        "state":"MD",
        "zip":"21054",
        "phone":"(443) 292-5074",
        "longitude":"-76.68694406747818",
        "latitude":"39.03460705490153",
        "state_name":"Maryland",
        "brand":"DSW"
    },
    {
        "street":"20900 Frederick Road",
        "city":"Germantown",
        "state":"MD",
        "zip":"20876",
        "phone":"(240) 686-1620",
        "longitude":"-77.24846769999999",
        "latitude":"39.19876338599949",
        "state_name":"Maryland",
        "brand":"DSW"
    },
    {
        "street":"17159 Cole Road",
        "city":"Hagerstown",
        "state":"MD",
        "zip":"21740",
        "phone":"(240) 329-4696",
        "longitude":"-77.7746462",
        "latitude":"39.6206118",
        "state_name":"Maryland",
        "brand":"DSW"
    },
    {
        "street":"3500 East West Highway Suite 1444",
        "city":"Hyattsville",
        "state":"MD",
        "zip":"20782",
        "phone":"(240) 495-7053",
        "longitude":"-76.957508",
        "latitude":"38.968381",
        "state_name":"Maryland",
        "brand":"DSW"
    },
    {
        "street":"14220 Baltimore Ave.",
        "city":"Laurel",
        "state":"MD",
        "zip":"20707",
        "phone":"(240) 547-0042",
        "longitude":"-76.8636021",
        "latitude":"39.0855848",
        "state_name":"Maryland",
        "brand":"DSW"
    },
    {
        "street":"5253 Campbell Blvd",
        "city":"Nottingham",
        "state":"MD",
        "zip":"21236",
        "phone":"(410) 648-2446",
        "longitude":"-76.45417870304101",
        "latitude":"39.36806605678861",
        "state_name":"Maryland",
        "brand":"DSW"
    },
    {
        "street":"10060 Reistertown Road",
        "city":"Owings Mills",
        "state":"MD",
        "zip":"21117",
        "phone":"(410) 202-8506",
        "longitude":"-76.7724047",
        "latitude":"39.4111183",
        "state_name":"Maryland",
        "brand":"DSW"
    },
    {
        "street":"8036 Ritchie Highway",
        "city":"Pasadena",
        "state":"MD",
        "zip":"21122",
        "phone":"(443) 410-7187",
        "longitude":"-76.5927455",
        "latitude":"39.1260323",
        "state_name":"Maryland",
        "brand":"DSW"
    },
    {
        "street":"8661 Colesville Road Space D105",
        "city":"Silver Spring",
        "state":"MD",
        "zip":"20910",
        "phone":"(301) 844-7733",
        "longitude":"-77.02590529444466",
        "latitude":"38.99676470540527",
        "state_name":"Maryland",
        "brand":"DSW"
    },
    {
        "street":"3014 Festival Way",
        "city":"Waldorf",
        "state":"MD",
        "zip":"20603",
        "phone":"(301) 638-9124",
        "longitude":"-76.9106593254652",
        "latitude":"38.627559579272315",
        "state_name":"Maryland",
        "brand":"DSW"
    },
    {
        "street":"402 Englar Road Suite A",
        "city":"Westminster",
        "state":"MD",
        "zip":"21157",
        "phone":"(443) 201-5000",
        "longitude":"-76.9891089",
        "latitude":"39.5859819",
        "state_name":"Maryland",
        "brand":"DSW"
    },
    {
        "street":"11160 Veirs Mill Road",
        "city":"Wheaton",
        "state":"MD",
        "zip":"20902",
        "phone":"(301) 949-7390",
        "longitude":"-77.0547609",
        "latitude":"39.0359293",
        "state_name":"Maryland",
        "brand":"DSW"
    },
    {
        "street":"385 Washington Street",
        "city":"Boston",
        "state":"MA",
        "zip":"02108",
        "phone":"(617) 556-0052",
        "longitude":"-71.05999946594233",
        "latitude":"42.35637953658267",
        "state_name":"Massachusetts",
        "brand":"DSW"
    },
    {
        "street":"250 Granite Street",
        "city":"Braintree",
        "state":"MA",
        "zip":"02184",
        "phone":"(781) 519-2763",
        "longitude":"-71.0238889",
        "latitude":"42.2219132",
        "state_name":"Massachusetts",
        "brand":"DSW"
    },
    {
        "street":"43 Middlesex Turnpike",
        "city":"Burlington",
        "state":"MA",
        "zip":"01803",
        "phone":"(781) 272-2459",
        "longitude":"-71.20933413505549",
        "latitude":"42.471163090740205",
        "state_name":"Massachusetts",
        "brand":"DSW"
    },
    {
        "street":"280 Providence Highway",
        "city":"Dedham",
        "state":"MA",
        "zip":"02026",
        "phone":"(781) 329-6310",
        "longitude":"-71.16707993065798",
        "latitude":"42.25378392357419",
        "state_name":"Massachusetts",
        "brand":"DSW"
    },
    {
        "street":"7 Mystic View Rd. Unit D1",
        "city":"Everett",
        "state":"MA",
        "zip":"02149",
        "phone":"(617) 487-7126",
        "longitude":"-71.0691511",
        "latitude":"42.3986657",
        "state_name":"Massachusetts",
        "brand":"DSW"
    },
    {
        "street":"1 Worcester Road",
        "city":"Framingham",
        "state":"MA",
        "zip":"01701",
        "phone":"(508) 270-0091",
        "longitude":"-71.3950851559639",
        "latitude":"42.304189856466444",
        "state_name":"Massachusetts",
        "brand":"DSW"
    },
    {
        "street":"50 Holyoke Street",
        "city":"Holyoke",
        "state":"MA",
        "zip":"01040",
        "phone":"(413) 552-0400",
        "longitude":"-72.641302",
        "latitude":"42.165724",
        "state_name":"Massachusetts",
        "brand":"DSW"
    },
    {
        "street":"1070 Route 132",
        "city":"Hyannis",
        "state":"MA",
        "zip":"02601",
        "phone":"(508) 815-4016",
        "longitude":"-70.3047953",
        "latitude":"41.6763722",
        "state_name":"Massachusetts",
        "brand":"DSW"
    },
    {
        "street":"747 Donald J. Lynch Boulevard",
        "city":"Marlborough",
        "state":"MA",
        "zip":"01752",
        "phone":"(508) 303-4962",
        "longitude":"-71.6179505",
        "latitude":"42.3526438",
        "state_name":"Massachusetts",
        "brand":"DSW"
    },
    {
        "street":"70 Worchester Providence Turnpike",
        "city":"Millbury",
        "state":"MA",
        "zip":"01527",
        "phone":"(774) 708-7000",
        "longitude":"-71.7797369",
        "latitude":"42.1973644",
        "state_name":"Massachusetts",
        "brand":"DSW"
    },
    {
        "street":"1360 South Washington Street",
        "city":"North Attleboro",
        "state":"MA",
        "zip":"02760",
        "phone":"(508) 699-1570",
        "longitude":"-71.345399",
        "latitude":"41.939789",
        "state_name":"Massachusetts",
        "brand":"DSW"
    },
    {
        "street":"210 Andover St.",
        "city":"Peabody",
        "state":"MA",
        "zip":"01960",
        "phone":"(978) 548-4390",
        "longitude":"-70.942287",
        "latitude":"42.539527",
        "state_name":"Massachusetts",
        "brand":"DSW"
    },
    {
        "street":"180 Colony Place Road",
        "city":"Plymouth",
        "state":"MA",
        "zip":"02360",
        "phone":"(508) 746-8958",
        "longitude":"-70.713078",
        "latitude":"41.953926",
        "state_name":"Massachusetts",
        "brand":"DSW"
    },
    {
        "street":"1160 Broadway",
        "city":"Saugus",
        "state":"MA",
        "zip":"01906",
        "phone":"(781) 231-1631",
        "longitude":"-71.0233279",
        "latitude":"42.4596468",
        "state_name":"Massachusetts",
        "brand":"DSW"
    },
    {
        "street":"1362 Park Street",
        "city":"Stoughton",
        "state":"MA",
        "zip":"02072",
        "phone":"(781) 344-5278",
        "longitude":"-71.0661337",
        "latitude":"42.1020241",
        "state_name":"Massachusetts",
        "brand":"DSW"
    },
    {
        "street":"2421 Cranberry Highway",
        "city":"Wareham",
        "state":"MA",
        "zip":"02571",
        "phone":"(508) 291-0147",
        "longitude":"-70.7453629",
        "latitude":"41.7763356",
        "state_name":"Massachusetts",
        "brand":"DSW"
    },
    {
        "street":"300 Mishawum Road Unit 130",
        "city":"Woburn",
        "state":"MA",
        "zip":"01801",
        "phone":"(978) 393-7026",
        "longitude":"-71.13277950323723",
        "latitude":"42.505922216946104",
        "state_name":"Massachusetts",
        "brand":"DSW"
    },
    {
        "street":"23171 W. Outer Drive",
        "city":"Allen Park",
        "state":"MI",
        "zip":"48101",
        "phone":"(313) 438-2087",
        "longitude":"-83.21051895618439",
        "latitude":"42.27911866691518",
        "state_name":"Michigan",
        "brand":"DSW"
    },
    {
        "street":"3665 Washtenaw Avenue",
        "city":"Ann Arbor",
        "state":"MI",
        "zip":"48104",
        "phone":"(734) 971-6359",
        "longitude":"-83.686767",
        "latitude":"42.258296",
        "state_name":"Michigan",
        "brand":"DSW"
    },
    {
        "street":"9570 Village Place Boulevard",
        "city":"Brighton",
        "state":"MI",
        "zip":"48116",
        "phone":"(810) 229-5585",
        "longitude":"-83.7526",
        "latitude":"42.507226",
        "state_name":"Michigan",
        "brand":"DSW"
    },
    {
        "street":"44590 Ford Road",
        "city":"Canton Township",
        "state":"MI",
        "zip":"48187",
        "phone":"(734) 254-1083",
        "longitude":"-83.4810464",
        "latitude":"42.3237842",
        "state_name":"Michigan",
        "brand":"DSW"
    },
    {
        "street":"50769 Waterside Dr",
        "city":"Chesterfield",
        "state":"MI",
        "zip":"48051",
        "phone":"(586) 221-7002",
        "longitude":"-82.8287677",
        "latitude":"42.6705037",
        "state_name":"Michigan",
        "brand":"DSW"
    },
    {
        "street":"30867 Orchard Lake Road",
        "city":"Farmington Hills",
        "state":"MI",
        "zip":"48334",
        "phone":"(248) 785-1003",
        "longitude":"-83.3617835",
        "latitude":"42.5235508",
        "state_name":"Michigan",
        "brand":"DSW"
    },
    {
        "street":"4135 Miller Rd",
        "city":"Flint",
        "state":"MI",
        "zip":"48507",
        "phone":"(810) 339-2003",
        "longitude":"-83.7551371",
        "latitude":"42.9804291",
        "state_name":"Michigan",
        "brand":"DSW"
    },
    {
        "street":"3635 28th Street S.E.",
        "city":"Grand Rapids",
        "state":"MI",
        "zip":"49512",
        "phone":"(616) 828-4668",
        "longitude":"-85.57775882209017",
        "latitude":"42.91543757054963",
        "state_name":"Michigan",
        "brand":"DSW"
    },
    {
        "street":"5110 West Main Street",
        "city":"Kalamazoo",
        "state":"MI",
        "zip":"49009",
        "phone":"(269) 344-3757",
        "longitude":"-85.651521",
        "latitude":"42.298051",
        "state_name":"Michigan",
        "brand":"DSW"
    },
    {
        "street":"2800 Town Center Boulevard",
        "city":"Lansing",
        "state":"MI",
        "zip":"48912",
        "phone":"(517) 316-7963",
        "longitude":"-84.517007",
        "latitude":"42.761958",
        "state_name":"Michigan",
        "brand":"DSW"
    },
    {
        "street":"43713 West Oaks Drive",
        "city":"Novi",
        "state":"MI",
        "zip":"48377",
        "phone":"(248) 349-0404",
        "longitude":"-83.480238",
        "latitude":"42.490051",
        "state_name":"Michigan",
        "brand":"DSW"
    },
    {
        "street":"4910 South Baldwin Road",
        "city":"Orion",
        "state":"MI",
        "zip":"48359",
        "phone":"(248) 393-0521",
        "longitude":"-83.311085",
        "latitude":"42.708387",
        "state_name":"Michigan",
        "brand":"DSW"
    },
    {
        "street":"2831 South Rochester Road",
        "city":"Rochester Hills",
        "state":"MI",
        "zip":"48307",
        "phone":"(248) 853-5257",
        "longitude":"-83.127923",
        "latitude":"42.638946",
        "state_name":"Michigan",
        "brand":"DSW"
    },
    {
        "street":"30777 Gratiot Avenue",
        "city":"Roseville",
        "state":"MI",
        "zip":"48066",
        "phone":"(586) 296-1684",
        "longitude":"-82.922922",
        "latitude":"42.522912",
        "state_name":"Michigan",
        "brand":"DSW"
    },
    {
        "street":"3433 Tittabawassee Rd",
        "city":"Saginaw",
        "state":"MI",
        "zip":"48604",
        "phone":"(989) 321-3773",
        "longitude":"-83.98404121398926",
        "latitude":"43.47918959875597",
        "state_name":"Michigan",
        "brand":"DSW"
    },
    {
        "street":"28700 Telegraph Road",
        "city":"Southfield",
        "state":"MI",
        "zip":"48034",
        "phone":"(248) 350-8900",
        "longitude":"-83.2823077",
        "latitude":"42.4992282",
        "state_name":"Michigan",
        "brand":"DSW"
    },
    {
        "street":"44925 Schoenherr Road",
        "city":"Sterling Heights",
        "state":"MI",
        "zip":"48313",
        "phone":"(586) 997-2711",
        "longitude":"-82.9955931",
        "latitude":"42.6260758",
        "state_name":"Michigan",
        "brand":"DSW"
    },
    {
        "street":"360 John R Road",
        "city":"Troy",
        "state":"MI",
        "zip":"48083",
        "phone":"(248) 307-1428",
        "longitude":"-83.10398807055223",
        "latitude":"42.53678900015358",
        "state_name":"Michigan",
        "brand":"DSW"
    },
    {
        "street":"8303 East 12 Mile Road",
        "city":"Warren",
        "state":"MI",
        "zip":"48093",
        "phone":"(586) 625-5006",
        "longitude":"-83.0251727",
        "latitude":"42.5083949",
        "state_name":"Michigan",
        "brand":"DSW"
    },
    {
        "street":"4830 Wilson Ave SW Suite 640",
        "city":"Wyoming",
        "state":"MI",
        "zip":"49418",
        "phone":"(616) 469-5016",
        "longitude":"-85.76124008003048",
        "latitude":"42.87696874493369",
        "state_name":"Michigan",
        "brand":"DSW"
    },
    {
        "street":"124 West Market Street",
        "city":"Bloomington",
        "state":"MN",
        "zip":"55425",
        "phone":"(952) 876-0991",
        "longitude":"-93.2437482",
        "latitude":"44.8551321",
        "state_name":"Minnesota",
        "brand":"DSW"
    },
    {
        "street":"14001 Aldrich Avenue",
        "city":"Burnsville",
        "state":"MN",
        "zip":"55337",
        "phone":"(952) 808-0811",
        "longitude":"-93.2861622",
        "latitude":"44.7494992",
        "state_name":"Minnesota",
        "brand":"DSW"
    },
    {
        "street":"1600 Miller Trunk Highway",
        "city":"Duluth",
        "state":"MN",
        "zip":"55811",
        "phone":"(218) 727-2474",
        "longitude":"-92.1573534",
        "latitude":"46.8040342",
        "state_name":"Minnesota",
        "brand":"DSW"
    },
    {
        "street":"1400 Central Park Commons Drive Suite 110",
        "city":"Eagan",
        "state":"MN",
        "zip":"55121",
        "phone":"(651) 404-6189",
        "longitude":"-93.1680373",
        "latitude":"44.8362997",
        "state_name":"Minnesota",
        "brand":"DSW"
    },
    {
        "street":"8251 Flying Cloud Drive Suite 1150",
        "city":"Eden Prairie",
        "state":"MN",
        "zip":"55344",
        "phone":"(612) 330-4795",
        "longitude":"-93.424306",
        "latitude":"44.855183",
        "state_name":"Minnesota",
        "brand":"DSW"
    },
    {
        "street":"11531 Fountains Drive North",
        "city":"Maple Grove",
        "state":"MN",
        "zip":"55369",
        "phone":"(763) 315-3701",
        "longitude":"-93.426859",
        "latitude":"45.090563",
        "state_name":"Minnesota",
        "brand":"DSW"
    },
    {
        "street":"1885 County Rd D East",
        "city":"Maplewood",
        "state":"MN",
        "zip":"55109",
        "phone":"(651) 228-4009",
        "longitude":"-93.022903",
        "latitude":"45.0364563",
        "state_name":"Minnesota",
        "brand":"DSW"
    },
    {
        "street":"50 25th Street",
        "city":"Rochester",
        "state":"MN",
        "zip":"55904",
        "phone":"(507) 252-6654",
        "longitude":"-92.4594922",
        "latitude":"43.9832489",
        "state_name":"Minnesota",
        "brand":"DSW"
    },
    {
        "street":"1595 Highway 36 West Suite 955",
        "city":"Roseville",
        "state":"MN",
        "zip":"55113",
        "phone":"(651) 633-9941",
        "longitude":"-93.1691426038742",
        "latitude":"45.01325037132393",
        "state_name":"Minnesota",
        "brand":"DSW"
    },
    {
        "street":"8236 Highway 7",
        "city":"Saint Louis Park",
        "state":"MN",
        "zip":"55426",
        "phone":"(952) 931-9077",
        "longitude":"-93.384185",
        "latitude":"44.936997",
        "state_name":"Minnesota",
        "brand":"DSW"
    },
    {
        "street":"4101 West Division Street Suite-H0015",
        "city":"St  Cloud",
        "state":"MN",
        "zip":"56301",
        "phone":"(320) 342-7402",
        "longitude":"-94.210395",
        "latitude":"45.55569",
        "state_name":"Minnesota",
        "brand":"DSW"
    },
    {
        "street":"9200 Hudson Road",
        "city":"Woodbury",
        "state":"MN",
        "zip":"55125",
        "phone":"(651) 738-0300",
        "longitude":"-92.9205345",
        "latitude":"44.9476386",
        "state_name":"Minnesota",
        "brand":"DSW"
    },
    {
        "street":"754 Mackenzie Lane",
        "city":"Flowood",
        "state":"MS",
        "zip":"39232",
        "phone":"(601) 919-2570",
        "longitude":"-90.0659791",
        "latitude":"32.3372896",
        "state_name":"Mississippi",
        "brand":"DSW"
    },
    {
        "street":"13920 Manchester Road",
        "city":"Ballwin",
        "state":"MO",
        "zip":"63011",
        "phone":"(636) 256-7463",
        "longitude":"-90.485121",
        "latitude":"38.595033",
        "state_name":"Missouri",
        "brand":"DSW"
    },
    {
        "street":"8502 Eager Road",
        "city":"Brentwood",
        "state":"MO",
        "zip":"63144",
        "phone":"(314) 450-8109",
        "longitude":"-90.340265",
        "latitude":"38.6274051",
        "state_name":"Missouri",
        "brand":"DSW"
    },
    {
        "street":"8679 North Stoddard Avenue",
        "city":"Kansas City",
        "state":"MO",
        "zip":"64153",
        "phone":"(816) 505-1940",
        "longitude":"-94.66454654932022",
        "latitude":"39.25135830520473",
        "state_name":"Missouri",
        "brand":"DSW"
    },
    {
        "street":"840 Northwest Blue Parkway",
        "city":"Lee's Summit",
        "state":"MO",
        "zip":"64086",
        "phone":"(816) 347-2659",
        "longitude":"-94.403059",
        "latitude":"38.928781",
        "state_name":"Missouri",
        "brand":"DSW"
    },
    {
        "street":"3333 South Glenstone Avenue Suite 120",
        "city":"Springfield",
        "state":"MO",
        "zip":"65804",
        "phone":"(417) 720-7262",
        "longitude":"-93.26416254043585",
        "latitude":"37.15293725219877",
        "state_name":"Missouri",
        "brand":"DSW"
    },
    {
        "street":"290 Mid Rivers Center",
        "city":"St. Peters",
        "state":"MO",
        "zip":"63376",
        "phone":"(636) 278-2214",
        "longitude":"-90.621303",
        "latitude":"38.793783",
        "state_name":"Missouri",
        "brand":"DSW"
    },
    {
        "street":"400 North 48th Street",
        "city":"Lincoln",
        "state":"NE",
        "zip":"68504",
        "phone":"(402) 417-7724",
        "longitude":"-96.6521832",
        "latitude":"40.8180876",
        "state_name":"Nebraska",
        "brand":"DSW"
    },
    {
        "street":"571 North Stephanie Street",
        "city":"Henderson",
        "state":"NV",
        "zip":"89014",
        "phone":"(702) 997-0667",
        "longitude":"-115.0481134",
        "latitude":"36.0606251",
        "state_name":"Nevada",
        "brand":"DSW"
    },
    {
        "street":"2100 North Rainbow Boulevard",
        "city":"Las Vegas",
        "state":"NV",
        "zip":"89108",
        "phone":"(702) 636-2060",
        "longitude":"-115.2388223",
        "latitude":"36.1976998",
        "state_name":"Nevada",
        "brand":"DSW"
    },
    {
        "street":"6659 South Virginia Street",
        "city":"Reno",
        "state":"NV",
        "zip":"89511",
        "phone":"(775) 852-9401",
        "longitude":"-119.7855029",
        "latitude":"39.466248",
        "state_name":"Nevada",
        "brand":"DSW"
    },
    {
        "street":"1051 S. Willow St.",
        "city":"Manchester",
        "state":"NH",
        "zip":"03103",
        "phone":"(603) 854-7012",
        "longitude":"-71.440481",
        "latitude":"42.9610599",
        "state_name":"New Hampshire",
        "brand":"DSW"
    },
    {
        "street":"270 Daniel Webster Highway",
        "city":"Nashua",
        "state":"NH",
        "zip":"03060",
        "phone":"(603) 891-2050",
        "longitude":"-71.4392985",
        "latitude":"42.7067789",
        "state_name":"New Hampshire",
        "brand":"DSW"
    },
    {
        "street":"290 South Broadway",
        "city":"Salem",
        "state":"NH",
        "zip":"03079",
        "phone":"(603) 890-3268",
        "longitude":"-71.2133295",
        "latitude":"42.7575418",
        "state_name":"New Hampshire",
        "brand":"DSW"
    },
    {
        "street":"72 Brick Plaza Space 29",
        "city":"Brick",
        "state":"NJ",
        "zip":"08723",
        "phone":"(732) 417-7107",
        "longitude":"-74.1423101",
        "latitude":"40.0589186",
        "state_name":"New Jersey",
        "brand":"DSW"
    },
    {
        "street":"300 Commons Way",
        "city":"Bridgewater",
        "state":"NJ",
        "zip":"08807",
        "phone":"(908) 698-0002",
        "longitude":"-74.62188184261322",
        "latitude":"40.59038858352128",
        "state_name":"New Jersey",
        "brand":"DSW"
    },
    {
        "street":"907 Haddonfield Road",
        "city":"Cherry Hill",
        "state":"NJ",
        "zip":"08002",
        "phone":"(856) 663-1690",
        "longitude":"-75.0346015",
        "latitude":"39.9265902",
        "state_name":"New Jersey",
        "brand":"DSW"
    },
    {
        "street":"2000 Clements Bridge",
        "city":"Deptford",
        "state":"NJ",
        "zip":"08096",
        "phone":"(856) 251-1703",
        "longitude":"-75.090756",
        "latitude":"39.841265",
        "state_name":"New Jersey",
        "brand":"DSW"
    },
    {
        "street":"300 NJ-18",
        "city":"East Brunswick",
        "state":"NJ",
        "zip":"08816",
        "phone":"(732) 837-7001",
        "longitude":"-74.39476271163937",
        "latitude":"40.456333163579444",
        "state_name":"New Jersey",
        "brand":"DSW"
    },
    {
        "street":"One American Dream Way B310",
        "city":"East Rutherford",
        "state":"NJ",
        "zip":"07073",
        "phone":"(201) 514-7407",
        "longitude":"-74.0698158",
        "latitude":"40.8091063",
        "state_name":"New Jersey",
        "brand":"DSW"
    },
    {
        "street":"4345 Route 9",
        "city":"Freehold",
        "state":"NJ",
        "zip":"07728",
        "phone":"(732) 431-1323",
        "longitude":"-74.29254",
        "latitude":"40.282497",
        "state_name":"New Jersey",
        "brand":"DSW"
    },
    {
        "street":"2103 Route 35",
        "city":"Holmdel",
        "state":"NJ",
        "zip":"07733",
        "phone":"(732) 837-7000",
        "longitude":"-74.142476",
        "latitude":"40.413527",
        "state_name":"New Jersey",
        "brand":"DSW"
    },
    {
        "street":"25 Ronson Road",
        "city":"Iselin",
        "state":"NJ",
        "zip":"08830",
        "phone":"(732) 750-1169",
        "longitude":"-74.317155",
        "latitude":"40.554708",
        "state_name":"New Jersey",
        "brand":"DSW"
    },
    {
        "street":"3371 Brunswick Pike",
        "city":"Lawrenceville",
        "state":"NJ",
        "zip":"08648",
        "phone":"(609) 951-9980",
        "longitude":"-74.683283",
        "latitude":"40.297111",
        "state_name":"New Jersey",
        "brand":"DSW"
    },
    {
        "street":"530 W. Mount Pleasant Ave.",
        "city":"Livingston",
        "state":"NJ",
        "zip":"07039",
        "phone":"(862) 245-5002",
        "longitude":"-74.347947",
        "latitude":"40.797662",
        "state_name":"New Jersey",
        "brand":"DSW"
    },
    {
        "street":"175 South Route 73",
        "city":"Marlton",
        "state":"NJ",
        "zip":"08053",
        "phone":"(856) 596-9644",
        "longitude":"-74.92658",
        "latitude":"39.889462",
        "state_name":"New Jersey",
        "brand":"DSW"
    },
    {
        "street":"225 Consumer Square",
        "city":"Mays Landing",
        "state":"NJ",
        "zip":"08330",
        "phone":"(609) 272-8300",
        "longitude":"-74.63066",
        "latitude":"39.45042",
        "state_name":"New Jersey",
        "brand":"DSW"
    },
    {
        "street":"64 Centerton Road",
        "city":"Mount Laurel",
        "state":"NJ",
        "zip":"08054",
        "phone":"(856) 234-5685",
        "longitude":"-74.9096164",
        "latitude":"39.9699537",
        "state_name":"New Jersey",
        "brand":"DSW"
    },
    {
        "street":"60 State Route 17 North",
        "city":"Paramus",
        "state":"NJ",
        "zip":"07652",
        "phone":"(201) 291-0505",
        "longitude":"-74.07135928049684",
        "latitude":"40.91645913629716",
        "state_name":"New Jersey",
        "brand":"DSW"
    },
    {
        "street":"44 Waterview Blvd",
        "city":"Parsippany",
        "state":"NJ",
        "zip":"07054",
        "phone":"(973) 348-4001",
        "longitude":"-74.4276637",
        "latitude":"40.8755602",
        "state_name":"New Jersey",
        "brand":"DSW"
    },
    {
        "street":"77 Interstate Shopping Center Unit 23",
        "city":"Ramsey",
        "state":"NJ",
        "zip":"07446",
        "phone":"(201) 669-3053",
        "longitude":"-74.13869167425709",
        "latitude":"41.0669937953015",
        "state_name":"New Jersey",
        "brand":"DSW"
    },
    {
        "street":"343 Mount Hope Ave",
        "city":"Rockaway",
        "state":"NJ",
        "zip":"07866",
        "phone":"(862) 305-7007",
        "longitude":"-74.561785",
        "latitude":"40.905727",
        "state_name":"New Jersey",
        "brand":"DSW"
    },
    {
        "street":"461 NJ Route 10 Space B-200",
        "city":"Roxbury Township",
        "state":"NJ",
        "zip":"07852",
        "phone":"(973) 957-4052",
        "longitude":"-74.6522453625797",
        "latitude":"40.8728832361899",
        "state_name":"New Jersey",
        "brand":"DSW"
    },
    {
        "street":"1366 Hooper Avenue",
        "city":"Toms River",
        "state":"NJ",
        "zip":"08753",
        "phone":"(732) 505-3598",
        "longitude":"-74.1764592",
        "latitude":"39.9906528",
        "state_name":"New Jersey",
        "brand":"DSW"
    },
    {
        "street":"2401 US-22",
        "city":"Union",
        "state":"NJ",
        "zip":"07083",
        "phone":"(609) 208-7021",
        "longitude":"-74.29639975702943",
        "latitude":"40.69249894780417",
        "state_name":"New Jersey",
        "brand":"DSW"
    },
    {
        "street":"1515 US Highway 22 West",
        "city":"Watchung",
        "state":"NJ",
        "zip":"07069",
        "phone":"(908) 756-6850",
        "longitude":"-74.4221439",
        "latitude":"40.6390632",
        "state_name":"New Jersey",
        "brand":"DSW"
    },
    {
        "street":"95 Route 23 South",
        "city":"Wayne",
        "state":"NJ",
        "zip":"07470",
        "phone":"(973) 256-1941",
        "longitude":"-74.254055",
        "latitude":"40.891937",
        "state_name":"New Jersey",
        "brand":"DSW"
    },
    {
        "street":"310 Rt 36 Unit 402",
        "city":"West Long Branch",
        "state":"NJ",
        "zip":"07764",
        "phone":"(732) 440-3509",
        "longitude":"-74.03617993937901",
        "latitude":"40.28990076553745",
        "state_name":"New Jersey",
        "brand":"DSW"
    },
    {
        "street":"2100 Louisiana Boulevard NE Suite 312",
        "city":"Albuquerque",
        "state":"NM",
        "zip":"87110",
        "phone":"(505) 871-6085",
        "longitude":"-106.5657983",
        "latitude":"35.0974114",
        "state_name":"New Mexico",
        "brand":"DSW"
    },
    {
        "street":"1 Crossgates Mall Road",
        "city":"Albany",
        "state":"NY",
        "zip":"12203",
        "phone":"(518) 218-0750",
        "longitude":"-73.8479898",
        "latitude":"42.6881165",
        "state_name":"New York",
        "brand":"DSW"
    },
    {
        "street":"3050 Sheridan Drive",
        "city":"Amherst",
        "state":"NY",
        "zip":"14226",
        "phone":"(716) 898-0381",
        "longitude":"-78.8198152",
        "latitude":"42.982229",
        "state_name":"New York",
        "brand":"DSW"
    },
    {
        "street":"2134 Bartow Ave.",
        "city":"Bronx",
        "state":"NY",
        "zip":"10475",
        "phone":"(347) 614-1490",
        "longitude":"-73.82527112960815",
        "latitude":"40.86716854167582",
        "state_name":"New York",
        "brand":"DSW"
    },
    {
        "street":"One Walden Galleria",
        "city":"Buffalo",
        "state":"NY",
        "zip":"14225",
        "phone":"(716) 684-7808",
        "longitude":"-78.7608818",
        "latitude":"42.9144991",
        "state_name":"New York",
        "brand":"DSW"
    },
    {
        "street":"357 Old Country Road",
        "city":"Carle Place",
        "state":"NY",
        "zip":"11514",
        "phone":"(516) 876-0204",
        "longitude":"-73.60396600000001",
        "latitude":"40.746079",
        "state_name":"New York",
        "brand":"DSW"
    },
    {
        "street":"1819 East Jericho Turnpike",
        "city":"Huntington",
        "state":"NY",
        "zip":"11743",
        "phone":"(631) 858-9120",
        "longitude":"-73.334661",
        "latitude":"40.837035",
        "state_name":"New York",
        "brand":"DSW"
    },
    {
        "street":"1200 Ulster Ave Space #350",
        "city":"Kingston",
        "state":"NY",
        "zip":"12401",
        "phone":"(845) 768-7000",
        "longitude":"-73.9876842",
        "latitude":"41.9648213",
        "state_name":"New York",
        "brand":"DSW"
    },
    {
        "street":"3190 Middle Country Road",
        "city":"Lake Grove",
        "state":"NY",
        "zip":"11755",
        "phone":"(631) 580-1973",
        "longitude":"-73.125775",
        "latitude":"40.8596258",
        "state_name":"New York",
        "brand":"DSW"
    },
    {
        "street":"221 Wade Road Extension Suite 113",
        "city":"Latham",
        "state":"NY",
        "zip":"12110",
        "phone":"(518) 413-7001",
        "longitude":"-73.76909444649165",
        "latitude":"42.7571857281138",
        "state_name":"New York",
        "brand":"DSW"
    },
    {
        "street":"345 Rockaway Turnpike",
        "city":"Lawrence",
        "state":"NY",
        "zip":"11559",
        "phone":"(516) 239-3018",
        "longitude":"-73.73758435249329",
        "latitude":"40.62630227748129",
        "state_name":"New York",
        "brand":"DSW"
    },
    {
        "street":"3503 Hempstead Turnpike",
        "city":"Levittown",
        "state":"NY",
        "zip":"11756",
        "phone":"(516) 520-1534",
        "longitude":"-73.506279",
        "latitude":"40.726318",
        "state_name":"New York",
        "brand":"DSW"
    },
    {
        "street":"1400 Northern Blvd.",
        "city":"Manhasset",
        "state":"NY",
        "zip":"11030",
        "phone":"(516) 504-3170",
        "longitude":"-73.6947098",
        "latitude":"40.7927413",
        "state_name":"New York",
        "brand":"DSW"
    },
    {
        "street":"1 Galleria Drive",
        "city":"Middletown",
        "state":"NY",
        "zip":"10941",
        "phone":"(845) 691-0000",
        "longitude":"-74.3697975",
        "latitude":"41.4532086",
        "state_name":"New York",
        "brand":"DSW"
    },
    {
        "street":"3091 E. Main Street",
        "city":"Mohegan Lake",
        "state":"NY",
        "zip":"10547",
        "phone":"(914) 529-7001",
        "longitude":"-73.870429",
        "latitude":"41.3098415",
        "state_name":"New York",
        "brand":"DSW"
    },
    {
        "street":"8555 Seneca Turnpike",
        "city":"New Hartford",
        "state":"NY",
        "zip":"13413",
        "phone":"(315) 939-1537",
        "longitude":"-75.3159248",
        "latitude":"43.0829394",
        "state_name":"New York",
        "brand":"DSW"
    },
    {
        "street":"60 Smithfield Blvd",
        "city":"Plattsburgh",
        "state":"NY",
        "zip":"12901",
        "phone":"(518) 314-0333",
        "longitude":"-73.4916871",
        "latitude":"44.7027028",
        "state_name":"New York",
        "brand":"DSW"
    },
    {
        "street":"429 Boston Post Road",
        "city":"Port Chester",
        "state":"NY",
        "zip":"10573",
        "phone":"(914) 908-5999",
        "longitude":"-73.67174421593865",
        "latitude":"40.99348334285166",
        "state_name":"New York",
        "brand":"DSW"
    },
    {
        "street":"2001 South Road",
        "city":"Poughkeepsie",
        "state":"NY",
        "zip":"12601",
        "phone":"(845) 298-1300",
        "longitude":"-73.9209723",
        "latitude":"41.6250588",
        "state_name":"New York",
        "brand":"DSW"
    },
    {
        "street":"1500 Old Country Road",
        "city":"Riverhead",
        "state":"NY",
        "zip":"11901",
        "phone":"(631) 830-4568",
        "longitude":"-72.69664585590357",
        "latitude":"40.92649994943646",
        "state_name":"New York",
        "brand":"DSW"
    },
    {
        "street":"720 Jefferson Road",
        "city":"Rochester",
        "state":"NY",
        "zip":"14623",
        "phone":"(585) 424-2260",
        "longitude":"-77.62371093034744",
        "latitude":"43.08853783381593",
        "state_name":"New York",
        "brand":"DSW"
    },
    {
        "street":"2485 Richmond Avenue",
        "city":"Staten Island",
        "state":"NY",
        "zip":"10314",
        "phone":"(718) 477-1092",
        "longitude":"-74.1672042",
        "latitude":"40.5871747",
        "state_name":"New York",
        "brand":"DSW"
    },
    {
        "street":"425 Jericho Turnpike",
        "city":"Syosset",
        "state":"NY",
        "zip":"11791",
        "phone":"(516) 864-4630",
        "longitude":"-73.4999897",
        "latitude":"40.8109556",
        "state_name":"New York",
        "brand":"DSW"
    },
    {
        "street":"9773 Destiny USA Drive",
        "city":"Syracuse",
        "state":"NY",
        "zip":"13204",
        "phone":"(315) 428-8980",
        "longitude":"-76.172535",
        "latitude":"43.069631",
        "state_name":"New York",
        "brand":"DSW"
    },
    {
        "street":"2429 Vestal Parkway East",
        "city":"Vestal",
        "state":"NY",
        "zip":"13850",
        "phone":"(607) 238-2652",
        "longitude":"-76.01008996367455",
        "latitude":"42.097907960377796",
        "state_name":"New York",
        "brand":"DSW"
    },
    {
        "street":"30 Square Drive",
        "city":"Victor",
        "state":"NY",
        "zip":"14564",
        "phone":"(585) 598-4158",
        "longitude":"-77.44139313697815",
        "latitude":"43.03388605832508",
        "state_name":"New York",
        "brand":"DSW"
    },
    {
        "street":"771 W. Montauk Highway",
        "city":"West Babylon",
        "state":"NY",
        "zip":"11704",
        "phone":"(631) 526-6001",
        "longitude":"-73.34854146834914",
        "latitude":"40.68687594159601",
        "state_name":"New York",
        "brand":"DSW"
    },
    {
        "street":"3721 Palisades Center Drive",
        "city":"West Nyack",
        "state":"NY",
        "zip":"10994",
        "phone":"(845) 727-7907",
        "longitude":"-73.954288",
        "latitude":"41.09717",
        "state_name":"New York",
        "brand":"DSW"
    },
    {
        "street":"367 Tarrytown Road",
        "city":"White Plains",
        "state":"NY",
        "zip":"10607",
        "phone":"(914) 615-7001",
        "longitude":"-73.79612892866135",
        "latitude":"41.0419059400099",
        "state_name":"New York",
        "brand":"DSW"
    },
    {
        "street":"2500 Central Park Avenue",
        "city":"Yonkers",
        "state":"NY",
        "zip":"10710",
        "phone":"(914) 771-8001",
        "longitude":"-73.827203",
        "latitude":"40.981993",
        "state_name":"New York",
        "brand":"DSW"
    },
    {
        "street":"4 South Tunnel Road",
        "city":"Asheville",
        "state":"NC",
        "zip":"28805",
        "phone":"(828) 575-5918",
        "longitude":"-82.5236744",
        "latitude":"35.5831998",
        "state_name":"North Carolina",
        "brand":"DSW"
    },
    {
        "street":"427 Crossroads Boulevard",
        "city":"Cary",
        "state":"NC",
        "zip":"27511",
        "phone":"(919) 858-8850",
        "longitude":"-78.7354423",
        "latitude":"35.7608589",
        "state_name":"North Carolina",
        "brand":"DSW"
    },
    {
        "street":"9551 South Boulevard",
        "city":"Charlotte",
        "state":"NC",
        "zip":"28273",
        "phone":"(704) 665-5548",
        "longitude":"-80.87686090674589",
        "latitude":"35.10659008593954",
        "state_name":"North Carolina",
        "brand":"DSW"
    },
    {
        "street":"8088 Concord Mills Boulevard",
        "city":"Concord",
        "state":"NC",
        "zip":"28027",
        "phone":"(704) 665-5306",
        "longitude":"-80.71344673633575",
        "latitude":"35.37246041003667",
        "state_name":"North Carolina",
        "brand":"DSW"
    },
    {
        "street":"3615 Witherspoon Boulevard",
        "city":"Durham",
        "state":"NC",
        "zip":"27707",
        "phone":"(919) 493-9280",
        "longitude":"-78.988409",
        "latitude":"35.949313",
        "state_name":"North Carolina",
        "brand":"DSW"
    },
    {
        "street":"2720 Freedom Parkway Dr.",
        "city":"Fayetteville",
        "state":"NC",
        "zip":"28314",
        "phone":"(910) 427-7080",
        "longitude":"-78.9686835",
        "latitude":"35.0577989",
        "state_name":"North Carolina",
        "brand":"DSW"
    },
    {
        "street":"3350 West Friendly Avenue",
        "city":"Greensboro",
        "state":"NC",
        "zip":"27410",
        "phone":"(336) 852-1565",
        "longitude":"-79.8399853",
        "latitude":"36.0879291",
        "state_name":"North Carolina",
        "brand":"DSW"
    },
    {
        "street":"216 Grand Hill Place",
        "city":"Holly Springs",
        "state":"NC",
        "zip":"27540",
        "phone":"(919) 355-7060",
        "longitude":"-78.8463445",
        "latitude":"35.6653886",
        "state_name":"North Carolina",
        "brand":"DSW"
    },
    {
        "street":"10015 E. Independence Blvd.",
        "city":"Matthews",
        "state":"NC",
        "zip":"28105",
        "phone":"(704) 321-8165",
        "longitude":"-80.7079535722732",
        "latitude":"35.13201806787896",
        "state_name":"North Carolina",
        "brand":"DSW"
    },
    {
        "street":"4436 13th Avenue SW",
        "city":"Fargo",
        "state":"ND",
        "zip":"58103",
        "phone":"(701) 281-3925",
        "longitude":"-96.8598586",
        "latitude":"46.8595229",
        "state_name":"North Dakota",
        "brand":"DSW"
    },
    {
        "street":"3889 Medina Road",
        "city":"Akron",
        "state":"OH",
        "zip":"44333",
        "phone":"(330) 666-1702",
        "longitude":"-81.63931735581963",
        "latitude":"41.13859028342412",
        "state_name":"Ohio",
        "brand":"DSW"
    },
    {
        "street":"2720 Towne Drive",
        "city":"Beavercreek",
        "state":"OH",
        "zip":"45431",
        "phone":"(937) 320-0708",
        "longitude":"-84.049298",
        "latitude":"39.768377",
        "state_name":"Ohio",
        "brand":"DSW"
    },
    {
        "street":"1280 -A Doral Drive",
        "city":"Boardman",
        "state":"OH",
        "zip":"44514",
        "phone":"(330) 787-0261",
        "longitude":"-80.631005",
        "latitude":"41.029858",
        "state_name":"Ohio",
        "brand":"DSW"
    },
    {
        "street":"5508 Dressler Road",
        "city":"Canton",
        "state":"OH",
        "zip":"44720",
        "phone":"(330) 244-2592",
        "longitude":"-81.429035",
        "latitude":"40.861061",
        "state_name":"Ohio",
        "brand":"DSW"
    },
    {
        "street":"2700 Miamisburg-Centerville Rd",
        "city":"Dayton",
        "state":"OH",
        "zip":"45459",
        "phone":"(937) 312-0235",
        "longitude":"-84.2223715",
        "latitude":"39.6348466",
        "state_name":"Ohio",
        "brand":"DSW"
    },
    {
        "street":"1484 Spring Meadows Drive",
        "city":"Holland",
        "state":"OH",
        "zip":"43528",
        "phone":"(567) 742-8001",
        "longitude":"-83.7004555",
        "latitude":"41.6147533",
        "state_name":"Ohio",
        "brand":"DSW"
    },
    {
        "street":"7291 Mentor Ave.",
        "city":"Mentor",
        "state":"OH",
        "zip":"44060",
        "phone":"(440) 510-3925",
        "longitude":"-81.3806676864624",
        "latitude":"41.65162730529134",
        "state_name":"Ohio",
        "brand":"DSW"
    },
    {
        "street":"25877 Brookpark Road",
        "city":"North Olmsted",
        "state":"OH",
        "zip":"44070",
        "phone":"(440) 801-1141",
        "longitude":"-81.910031",
        "latitude":"41.416668",
        "state_name":"Ohio",
        "brand":"DSW"
    },
    {
        "street":"489 East Kemper Road",
        "city":"Springdale",
        "state":"OH",
        "zip":"45246",
        "phone":"(513) 671-4390",
        "longitude":"-84.4621042",
        "latitude":"39.2846607",
        "state_name":"Ohio",
        "brand":"DSW"
    },
    {
        "street":"18315 SouthPark Center",
        "city":"Strongsville",
        "state":"OH",
        "zip":"44136",
        "phone":"(440) 742-7078",
        "longitude":"-81.82049220802583",
        "latitude":"41.30828126356849",
        "state_name":"Ohio",
        "brand":"DSW"
    },
    {
        "street":"5001 Monroe Street",
        "city":"Toledo",
        "state":"OH",
        "zip":"43623",
        "phone":"(419) 472-1706",
        "longitude":"-83.639371",
        "latitude":"41.692812",
        "state_name":"Ohio",
        "brand":"DSW"
    },
    {
        "street":"4039 Richmond Road",
        "city":"Warrensville Heights",
        "state":"OH",
        "zip":"44122",
        "phone":"(216) 593-3400",
        "longitude":"-81.494018",
        "latitude":"41.446998",
        "state_name":"Ohio",
        "brand":"DSW"
    },
    {
        "street":"291 Crocker Park Boulevard",
        "city":"Westlake",
        "state":"OH",
        "zip":"44145",
        "phone":"(440) 250-0249",
        "longitude":"-81.953556",
        "latitude":"41.4590174",
        "state_name":"Ohio",
        "brand":"DSW"
    },
    {
        "street":"2020 24th Ave. N.W.",
        "city":"Norman",
        "state":"OK",
        "zip":"73069",
        "phone":"(405) 217-4768",
        "longitude":"-97.4831712",
        "latitude":"35.2435989",
        "state_name":"Oklahoma",
        "brand":"DSW"
    },
    {
        "street":"13840 North Pennsylvania Avenue",
        "city":"Oklahoma City",
        "state":"OK",
        "zip":"73134",
        "phone":"(405) 936-9081",
        "longitude":"-97.546582",
        "latitude":"35.611393",
        "state_name":"Oklahoma",
        "brand":"DSW"
    },
    {
        "street":"8506 East 71st Street South",
        "city":"Tulsa",
        "state":"OK",
        "zip":"74133",
        "phone":"(918) 615-2138",
        "longitude":"-95.881857",
        "latitude":"36.060003",
        "state_name":"Oklahoma",
        "brand":"DSW"
    },
    {
        "street":"8905 SW Cascade Avenue Suite 110",
        "city":"Beaverton",
        "state":"OR",
        "zip":"97005",
        "phone":"(503) 639-7130",
        "longitude":"-122.78650722455426",
        "latitude":"45.45553664085404",
        "state_name":"Oregon",
        "brand":"DSW"
    },
    {
        "street":"160 Oakway Road Suite 300",
        "city":"Eugene",
        "state":"OR",
        "zip":"97401",
        "phone":"(541) 343-2037",
        "longitude":"-123.079324",
        "latitude":"44.064412",
        "state_name":"Oregon",
        "brand":"DSW"
    },
    {
        "street":"2453 Northwest 185th Avenue",
        "city":"Hillsboro",
        "state":"OR",
        "zip":"97124",
        "phone":"(503) 531-0637",
        "longitude":"-122.8696379",
        "latitude":"45.5377123",
        "state_name":"Oregon",
        "brand":"DSW"
    },
    {
        "street":"831 Lancaster Drive NE Suite 177",
        "city":"Salem",
        "state":"OR",
        "zip":"97301",
        "phone":"(971) 718-5427",
        "longitude":"-122.9871349",
        "latitude":"44.9416132",
        "state_name":"Oregon",
        "brand":"DSW"
    },
    {
        "street":"16920 South West 72nd Ave",
        "city":"Tigard",
        "state":"OR",
        "zip":"97224",
        "phone":"(503) 639-7130",
        "longitude":"-122.74801009386577",
        "latitude":"45.397810441196235",
        "state_name":"Oregon",
        "brand":"DSW"
    },
    {
        "street":"3439 Capital City Mall Drive",
        "city":"Camp Hill",
        "state":"PA",
        "zip":"17011",
        "phone":"(717) 303-5483",
        "longitude":"-76.9322427",
        "latitude":"40.2224493",
        "state_name":"Pennsylvania",
        "brand":"DSW"
    },
    {
        "street":"120 Market St",
        "city":"Collegeville",
        "state":"PA",
        "zip":"19426",
        "phone":"(484) 854-7000",
        "longitude":"-75.4794018",
        "latitude":"40.1667084",
        "state_name":"Pennsylvania",
        "brand":"DSW"
    },
    {
        "street":"56 Quarry Road",
        "city":"Downingtown",
        "state":"PA",
        "zip":"19335",
        "phone":"(610) 873-4728",
        "longitude":"-75.675775",
        "latitude":"40.016329",
        "state_name":"Pennsylvania",
        "brand":"DSW"
    },
    {
        "street":"2088 Interchange Road",
        "city":"Erie",
        "state":"PA",
        "zip":"16565",
        "phone":"(814) 866-5944",
        "longitude":"-80.1041566736107",
        "latitude":"42.06929813354333",
        "state_name":"Pennsylvania",
        "brand":"DSW"
    },
    {
        "street":"200 Town Centre Drive",
        "city":"Glen Mills",
        "state":"PA",
        "zip":"19342",
        "phone":"(610) 459-8054",
        "longitude":"-75.52744388580322",
        "latitude":"39.88334493517929",
        "state_name":"Pennsylvania",
        "brand":"DSW"
    },
    {
        "street":"520 East Waterfront Drive",
        "city":"Homestead",
        "state":"PA",
        "zip":"15120",
        "phone":"(412) 464-5190",
        "longitude":"-79.9064773",
        "latitude":"40.4117923",
        "state_name":"Pennsylvania",
        "brand":"DSW"
    },
    {
        "street":"640 West Dekalb Pike",
        "city":"King of Prussia",
        "state":"PA",
        "zip":"19406",
        "phone":"(610) 265-5961",
        "longitude":"-75.384269",
        "latitude":"40.090283",
        "state_name":"Pennsylvania",
        "brand":"DSW"
    },
    {
        "street":"940 Plaza Blvd.",
        "city":"Lancaster",
        "state":"PA",
        "zip":"17601",
        "phone":"(717) 826-0152",
        "longitude":"-76.34482026100159",
        "latitude":"40.066359767575406",
        "state_name":"Pennsylvania",
        "brand":"DSW"
    },
    {
        "street":"2426 East Lincoln Highway",
        "city":"Langhorne",
        "state":"PA",
        "zip":"19047",
        "phone":"(267) 202-4346",
        "longitude":"-74.871639",
        "latitude":"40.18173",
        "state_name":"Pennsylvania",
        "brand":"DSW"
    },
    {
        "street":"4100 William Penn Highway",
        "city":"Monroeville",
        "state":"PA",
        "zip":"15146",
        "phone":"(412) 374-9118",
        "longitude":"-79.7651635",
        "latitude":"40.4374796",
        "state_name":"Pennsylvania",
        "brand":"DSW"
    },
    {
        "street":"5031 Shoppes Boulevard",
        "city":"Moosic",
        "state":"PA",
        "zip":"18507",
        "phone":"(570) 941-0970",
        "longitude":"-75.67461",
        "latitude":"41.36089",
        "state_name":"Pennsylvania",
        "brand":"DSW"
    },
    {
        "street":"782 Bethlehem Pike Suite A",
        "city":"North Wales",
        "state":"PA",
        "zip":"19454",
        "phone":"(267) 653-7000",
        "longitude":"-75.2441899",
        "latitude":"40.2394579",
        "state_name":"Pennsylvania",
        "brand":"DSW"
    },
    {
        "street":"2320 Chemical Road",
        "city":"Plymouth Meeting",
        "state":"PA",
        "zip":"19462",
        "phone":"(610) 941-3663",
        "longitude":"-75.293299",
        "latitude":"40.103685",
        "state_name":"Pennsylvania",
        "brand":"DSW"
    },
    {
        "street":"400 South State Road",
        "city":"Springfield",
        "state":"PA",
        "zip":"19064",
        "phone":"(610) 690-7313",
        "longitude":"-75.3570662",
        "latitude":"39.9382698",
        "state_name":"Pennsylvania",
        "brand":"DSW"
    },
    {
        "street":"761 Easton Road",
        "city":"Warrington",
        "state":"PA",
        "zip":"18976",
        "phone":"(215) 343-6358",
        "longitude":"-75.1365883",
        "latitude":"40.2328077",
        "state_name":"Pennsylvania",
        "brand":"DSW"
    },
    {
        "street":"3638 Welsh Road",
        "city":"Willow Grove",
        "state":"PA",
        "zip":"19090",
        "phone":"(215) 657-9722",
        "longitude":"-75.1370108",
        "latitude":"40.1523812",
        "state_name":"Pennsylvania",
        "brand":"DSW"
    },
    {
        "street":"80 E. Wynnewood Road Suite #1",
        "city":"Wynnewood",
        "state":"PA",
        "zip":"19096",
        "phone":"(484) 297-7930",
        "longitude":"-75.27139753103262",
        "latitude":"40.00170623577218",
        "state_name":"Pennsylvania",
        "brand":"DSW"
    },
    {
        "street":"1101 Woodland Road Suite 1000",
        "city":"Wyomissing",
        "state":"PA",
        "zip":"19610",
        "phone":"(484) 334-8300",
        "longitude":"-75.97374102822437",
        "latitude":"40.34170455595178",
        "state_name":"Pennsylvania",
        "brand":"DSW"
    },
    {
        "street":"610 Town Center Drive",
        "city":"York",
        "state":"PA",
        "zip":"17408",
        "phone":"(717) 850-9349",
        "longitude":"-76.7715606",
        "latitude":"39.9701805",
        "state_name":"Pennsylvania",
        "brand":"DSW"
    },
    {
        "street":"1307 W. Main Rd. Unit 6A",
        "city":"Middletown",
        "state":"RI",
        "zip":"02842",
        "phone":"(401) 859-7001",
        "longitude":"-71.29095517790984",
        "latitude":"41.53415097661205",
        "state_name":"Rhode Island",
        "brand":"DSW"
    },
    {
        "street":"142 Providence Place",
        "city":"Providence",
        "state":"RI",
        "zip":"02903",
        "phone":"(401) 400-8415",
        "longitude":"-71.415534",
        "latitude":"41.8287862",
        "state_name":"Rhode Island",
        "brand":"DSW"
    },
    {
        "street":"1350 Bald Hill Road",
        "city":"Warwick",
        "state":"RI",
        "zip":"02886",
        "phone":"(401) 826-7624",
        "longitude":"-71.4912092",
        "latitude":"41.7016624",
        "state_name":"Rhode Island",
        "brand":"DSW"
    },
    {
        "street":"320 Harbison Blvd.",
        "city":"Columbia",
        "state":"SC",
        "zip":"29212",
        "phone":"(803) 454-9710",
        "longitude":"-81.15489006042475",
        "latitude":"34.07281303761326",
        "state_name":"South Carolina",
        "brand":"DSW"
    },
    {
        "street":"822 Woods Crossing",
        "city":"Greenville",
        "state":"SC",
        "zip":"29607",
        "phone":"(864) 990-0711",
        "longitude":"-82.3376852273941",
        "latitude":"34.84804804848706",
        "state_name":"South Carolina",
        "brand":"DSW"
    },
    {
        "street":"1122 Bowman Rd.",
        "city":"Mount Pleasant",
        "state":"SC",
        "zip":"29464",
        "phone":"(843) 375-7002",
        "longitude":"-79.85229388954929",
        "latitude":"32.812098735020506",
        "state_name":"South Carolina",
        "brand":"DSW"
    },
    {
        "street":"2340 S. Lorraine Place",
        "city":"Sioux Falls",
        "state":"SD",
        "zip":"57106",
        "phone":"(605) 740-7311",
        "longitude":"-96.7821632",
        "latitude":"43.5244334",
        "state_name":"South Dakota",
        "brand":"DSW"
    },
    {
        "street":"2220 Hamilton Place Boulevard Suite 102",
        "city":"Chattanooga",
        "state":"TN",
        "zip":"37421",
        "phone":"(423) 296-6662",
        "longitude":"-85.1536939",
        "latitude":"35.0402347",
        "state_name":"Tennessee",
        "brand":"DSW"
    },
    {
        "street":"2000 Mallory Lane Suite 260",
        "city":"Franklin",
        "state":"TN",
        "zip":"37067",
        "phone":"(615) 905-7025",
        "longitude":"-86.81502853372956",
        "latitude":"35.94995782521434",
        "state_name":"Tennessee",
        "brand":"DSW"
    },
    {
        "street":"7712 Highway 72",
        "city":"Germantown",
        "state":"TN",
        "zip":"38138",
        "phone":"(901) 755-2204",
        "longitude":"-89.805859",
        "latitude":"35.092723",
        "state_name":"Tennessee",
        "brand":"DSW"
    },
    {
        "street":"11020 Parkside Drive",
        "city":"Knoxville",
        "state":"TN",
        "zip":"37934",
        "phone":"(865) 761-7157",
        "longitude":"-84.14946377277374",
        "latitude":"35.900192447087164",
        "state_name":"Tennessee",
        "brand":"DSW"
    },
    {
        "street":"2130 Gallatin Pike North",
        "city":"Madison",
        "state":"TN",
        "zip":"37115",
        "phone":"(615) 855-1336",
        "longitude":"-86.693456",
        "latitude":"36.3062059",
        "state_name":"Tennessee",
        "brand":"DSW"
    },
    {
        "street":"8055 Giacosa Pl Suite 101",
        "city":"Memphis",
        "state":"TN",
        "zip":"38133",
        "phone":"(901) 425-7177",
        "longitude":"-89.79459039384841",
        "latitude":"35.19709595557607",
        "state_name":"Tennessee",
        "brand":"DSW"
    },
    {
        "street":"560 N Thompson LN",
        "city":"Murfreesboro",
        "state":"TN",
        "zip":"37129",
        "phone":"(615) 544-8072",
        "longitude":"-86.42943470439015",
        "latitude":"35.85730885669113",
        "state_name":"Tennessee",
        "brand":"DSW"
    },
    {
        "street":"6722 Charlotte Pike",
        "city":"Nashville",
        "state":"TN",
        "zip":"37209",
        "phone":"(615) 354-5907",
        "longitude":"-86.888858",
        "latitude":"36.137926",
        "state_name":"Tennessee",
        "brand":"DSW"
    },
    {
        "street":"937 Watters Creek Boulevard",
        "city":"Allen",
        "state":"TX",
        "zip":"75013",
        "phone":"(972) 390-8109",
        "longitude":"-96.6836234",
        "latitude":"33.0870727",
        "state_name":"Texas",
        "brand":"DSW"
    },
    {
        "street":"3811 South Cooper Street",
        "city":"Arlington",
        "state":"TX",
        "zip":"76015",
        "phone":"(817) 557-1077",
        "longitude":"-97.1275916",
        "latitude":"32.6784485",
        "state_name":"Texas",
        "brand":"DSW"
    },
    {
        "street":"10515 North Mopac Expressway",
        "city":"Austin",
        "state":"TX",
        "zip":"78759",
        "phone":"(512) 372-8256",
        "longitude":"-97.731993",
        "latitude":"30.390612",
        "state_name":"Texas",
        "brand":"DSW"
    },
    {
        "street":"374 E FM 1382",
        "city":"Cedar Hill",
        "state":"TX",
        "zip":"75104",
        "phone":"(469) 575-5337",
        "longitude":"-96.9388653",
        "latitude":"32.5919825",
        "state_name":"Texas",
        "brand":"DSW"
    },
    {
        "street":"5001 183A Toll Road Suite C2100",
        "city":"Cedar Park",
        "state":"TX",
        "zip":"78613",
        "phone":"(512) 690-5005",
        "longitude":"-97.8192182",
        "latitude":"30.5360829",
        "state_name":"Texas",
        "brand":"DSW"
    },
    {
        "street":"2026 Texas Avenue S",
        "city":"College Station",
        "state":"TX",
        "zip":"77840",
        "phone":"(979) 985-5823",
        "longitude":"-96.31645739078522",
        "latitude":"30.61116339898015",
        "state_name":"Texas",
        "brand":"DSW"
    },
    {
        "street":"227 South Loop 336 W",
        "city":"Conroe",
        "state":"TX",
        "zip":"77304",
        "phone":"(936) 235-7091",
        "longitude":"-95.46094857022216",
        "latitude":"30.276320992755238",
        "state_name":"Texas",
        "brand":"DSW"
    },
    {
        "street":"4938 South Staples St.",
        "city":"Corpus Christi",
        "state":"TX",
        "zip":"78411",
        "phone":"(361) 356-4058",
        "longitude":"-97.36795842647558",
        "latitude":"27.70837665003446",
        "state_name":"Texas",
        "brand":"DSW"
    },
    {
        "street":"1800 S Loop 288 Suite B1",
        "city":"Denton",
        "state":"TX",
        "zip":"76205",
        "phone":"(940) 703-7292",
        "longitude":"-97.0989759",
        "latitude":"33.1950863",
        "state_name":"Texas",
        "brand":"DSW"
    },
    {
        "street":"1331 George Dieter Drive",
        "city":"El Paso",
        "state":"TX",
        "zip":"79936",
        "phone":"(915) 595-5908",
        "longitude":"-106.3040525",
        "latitude":"31.7259379",
        "state_name":"Texas",
        "brand":"DSW"
    },
    {
        "street":"2921 RIO GRANDE BLVD STE 100",
        "city":"Euless",
        "state":"TX",
        "zip":"76039",
        "phone":"(817) 409-5000",
        "longitude":"-97.10468888282776",
        "latitude":"32.87913666094525",
        "state_name":"Texas",
        "brand":"DSW"
    },
    {
        "street":"3333 Preston Road",
        "city":"Frisco",
        "state":"TX",
        "zip":"75034",
        "phone":"(972) 668-4510",
        "longitude":"-96.81310057640076",
        "latitude":"33.1071623676336",
        "state_name":"Texas",
        "brand":"DSW"
    },
    {
        "street":"601 Town Center Boulevard",
        "city":"Garland",
        "state":"TX",
        "zip":"75040",
        "phone":"(972) 530-3323",
        "longitude":"-96.610998",
        "latitude":"32.952312",
        "state_name":"Texas",
        "brand":"DSW"
    },
    {
        "street":"3188 Justin Road",
        "city":"Highland Village",
        "state":"TX",
        "zip":"75077",
        "phone":"(469) 702-7070",
        "longitude":"-97.08237290382385",
        "latitude":"33.07463234459394",
        "state_name":"Texas",
        "brand":"DSW"
    },
    {
        "street":"19657 Highway 59 North",
        "city":"Humble",
        "state":"TX",
        "zip":"77338",
        "phone":"(281) 446-0406",
        "longitude":"-95.2724047",
        "latitude":"30.0040443",
        "state_name":"Texas",
        "brand":"DSW"
    },
    {
        "street":"852 Northeast Mall Blvd",
        "city":"Hurst",
        "state":"TX",
        "zip":"76053",
        "phone":"(817) 590-9723",
        "longitude":"-97.199933",
        "latitude":"32.824961",
        "state_name":"Texas",
        "brand":"DSW"
    },
    {
        "street":"24600 Katy Fwy Suite 300",
        "city":"Katy",
        "state":"TX",
        "zip":"77494",
        "phone":"(832) 913-7050",
        "longitude":"-95.79423",
        "latitude":"29.7878265",
        "state_name":"Texas",
        "brand":"DSW"
    },
    {
        "street":"420 East Round Grove Road",
        "city":"Lewisville",
        "state":"TX",
        "zip":"75067",
        "phone":"(972) 459-0902",
        "longitude":"-96.980747",
        "latitude":"33.002715",
        "state_name":"Texas",
        "brand":"DSW"
    },
    {
        "street":"6072 Marsha Sharp Freeway",
        "city":"Lubbock",
        "state":"TX",
        "zip":"79407",
        "phone":"(806) 771-9717",
        "longitude":"-101.95472896099096",
        "latitude":"33.54719805519676",
        "state_name":"Texas",
        "brand":"DSW"
    },
    {
        "street":"400 E Expressway 83",
        "city":"McAllen",
        "state":"TX",
        "zip":"78503",
        "phone":"(956) 616-5678",
        "longitude":"-98.2182970318945",
        "latitude":"26.185727668818206",
        "state_name":"Texas",
        "brand":"DSW"
    },
    {
        "street":"2709 North Mesquite Drive",
        "city":"Mesquite",
        "state":"TX",
        "zip":"75150",
        "phone":"(214) 613-3694",
        "longitude":"-96.629813",
        "latitude":"32.803133",
        "state_name":"Texas",
        "brand":"DSW"
    },
    {
        "street":"3137 Silverlake Village Drive",
        "city":"Pearland",
        "state":"TX",
        "zip":"77584",
        "phone":"(713) 340-1932",
        "longitude":"-95.3855",
        "latitude":"29.551768",
        "state_name":"Texas",
        "brand":"DSW"
    },
    {
        "street":"801 West 15th Street",
        "city":"Plano",
        "state":"TX",
        "zip":"75075",
        "phone":"(972) 633-1341",
        "longitude":"-96.7153022",
        "latitude":"33.0207128",
        "state_name":"Texas",
        "brand":"DSW"
    },
    {
        "street":"901 South Preston Road",
        "city":"Prosper",
        "state":"TX",
        "zip":"75078",
        "phone":"(214) 305-7000",
        "longitude":"-96.795147",
        "latitude":"33.2259548",
        "state_name":"Texas",
        "brand":"DSW"
    },
    {
        "street":"201 University Oaks Blvd Suite 200",
        "city":"Round Rock",
        "state":"TX",
        "zip":"78665",
        "phone":"(512) 862-5000",
        "longitude":"-97.6880576",
        "latitude":"30.5552061",
        "state_name":"Texas",
        "brand":"DSW"
    },
    {
        "street":"19075 Interstate Highway 45 N",
        "city":"Shenandoah",
        "state":"TX",
        "zip":"77385",
        "phone":"(936) 271-1990",
        "longitude":"-95.4498798",
        "latitude":"30.1816932",
        "state_name":"Texas",
        "brand":"DSW"
    },
    {
        "street":"1435 East Southlake Boulevard",
        "city":"Southlake",
        "state":"TX",
        "zip":"76092",
        "phone":"(817) 421-7400",
        "longitude":"-97.13042199611664",
        "latitude":"32.93894012275925",
        "state_name":"Texas",
        "brand":"DSW"
    },
    {
        "street":"6545 N. Grand Parkway W. Suite 116",
        "city":"Spring",
        "state":"TX",
        "zip":"77389",
        "phone":"(832) 637-1002",
        "longitude":"-95.5192768",
        "latitude":"30.0879766",
        "state_name":"Texas",
        "brand":"DSW"
    },
    {
        "street":"2745 Town Center Boulevard",
        "city":"Sugar Land",
        "state":"TX",
        "zip":"77479",
        "phone":"(281) 277-3524",
        "longitude":"-95.620726",
        "latitude":"29.592208",
        "state_name":"Texas",
        "brand":"DSW"
    },
    {
        "street":"5207 Brodie Lane",
        "city":"Sunset Valley",
        "state":"TX",
        "zip":"78745",
        "phone":"(512) 891-6777",
        "longitude":"-97.8151001",
        "latitude":"30.2307284",
        "state_name":"Texas",
        "brand":"DSW"
    },
    {
        "street":"8950 S. Broadway Avenue",
        "city":"Tyler",
        "state":"TX",
        "zip":"75703",
        "phone":"(903) 253-0746",
        "longitude":"-95.30239999294281",
        "latitude":"32.25138086501595",
        "state_name":"Texas",
        "brand":"DSW"
    },
    {
        "street":"4633 S. Jack Kultgen Expressway Unit 105",
        "city":"Waco",
        "state":"TX",
        "zip":"76711",
        "phone":"(254) 218-7101",
        "longitude":"-97.1501111",
        "latitude":"31.4996249",
        "state_name":"Texas",
        "brand":"DSW"
    },
    {
        "street":"1429 West Bay Area Boulevard",
        "city":"Webster",
        "state":"TX",
        "zip":"77598",
        "phone":"(713) 893-0818",
        "longitude":"-95.14569139999999",
        "latitude":"29.5387948",
        "state_name":"Texas",
        "brand":"DSW"
    },
    {
        "street":"1132 East Fort Union Boulevard",
        "city":"Midvale",
        "state":"UT",
        "zip":"84047",
        "phone":"(801) 562-4492",
        "longitude":"-111.8603598",
        "latitude":"40.6229769",
        "state_name":"Utah",
        "brand":"DSW"
    },
    {
        "street":"10401 South State Street",
        "city":"Sandy",
        "state":"UT",
        "zip":"84070",
        "phone":"(801) 571-1956",
        "longitude":"-111.8887234",
        "latitude":"40.5623628",
        "state_name":"Utah",
        "brand":"DSW"
    },
    {
        "street":"7670 Richmond Hwy",
        "city":"Alexandria",
        "state":"VA",
        "zip":"22306",
        "phone":"(703) 775-7000",
        "longitude":"-77.0862121",
        "latitude":"38.7509789",
        "state_name":"Virginia",
        "brand":"DSW"
    },
    {
        "street":"1301 South Joyce Street",
        "city":"Arlington",
        "state":"VA",
        "zip":"22202",
        "phone":"(703) 412-0818",
        "longitude":"-77.063314",
        "latitude":"38.863196",
        "state_name":"Virginia",
        "brand":"DSW"
    },
    {
        "street":"780 Twentyninth Place Court",
        "city":"Charlottesville",
        "state":"VA",
        "zip":"22901",
        "phone":"(434) 326-0066",
        "longitude":"-78.478809",
        "latitude":"38.0781445",
        "state_name":"Virginia",
        "brand":"DSW"
    },
    {
        "street":"1412 Greenbrier Parkway",
        "city":"Chesapeake",
        "state":"VA",
        "zip":"23320",
        "phone":"(757) 361-5807",
        "longitude":"-76.234492",
        "latitude":"36.77624",
        "state_name":"Virginia",
        "brand":"DSW"
    },
    {
        "street":"5518 Leesburg Pike",
        "city":"Falls Church",
        "state":"VA",
        "zip":"22041",
        "phone":"(703) 933-8522",
        "longitude":"-77.1217532",
        "latitude":"38.8479322",
        "state_name":"Virginia",
        "brand":"DSW"
    },
    {
        "street":"1751 Carl D. Silver Parkway",
        "city":"Fredericksburg",
        "state":"VA",
        "zip":"22401",
        "phone":"(540) 548-2919",
        "longitude":"-77.508206",
        "latitude":"38.307085",
        "state_name":"Virginia",
        "brand":"DSW"
    },
    {
        "street":"13201 Gateway Center Drive",
        "city":"Gainesville",
        "state":"VA",
        "zip":"20155",
        "phone":"(571) 248-6405",
        "longitude":"-77.6043594",
        "latitude":"38.7945534",
        "state_name":"Virginia",
        "brand":"DSW"
    },
    {
        "street":"9880 West Broad Street",
        "city":"Glen Allen",
        "state":"VA",
        "zip":"23060",
        "phone":"(804) 290-4244",
        "longitude":"-77.566558",
        "latitude":"37.644868",
        "state_name":"Virginia",
        "brand":"DSW"
    },
    {
        "street":"1079A Edwards Ferry Road, NE",
        "city":"Leesburg",
        "state":"VA",
        "zip":"20176",
        "phone":"(571) 510-7218",
        "longitude":"-77.5326339",
        "latitude":"39.1126379",
        "state_name":"Virginia",
        "brand":"DSW"
    },
    {
        "street":"1300 Huguenot Road",
        "city":"Midlothian",
        "state":"VA",
        "zip":"23113",
        "phone":"(804) 379-3479",
        "longitude":"-77.615251",
        "latitude":"37.509196",
        "state_name":"Virginia",
        "brand":"DSW"
    },
    {
        "street":"12080 Jefferson Ave Suite 400",
        "city":"Newport News",
        "state":"VA",
        "zip":"23606",
        "phone":"(757) 847-5172",
        "longitude":"-76.4898727",
        "latitude":"37.1029298",
        "state_name":"Virginia",
        "brand":"DSW"
    },
    {
        "street":"1601 Willow Lawn Dr Store No. 408",
        "city":"Richmond",
        "state":"VA",
        "zip":"23230",
        "phone":"(804) 292-7332",
        "longitude":"-77.49831765890121",
        "latitude":"37.581916515686885",
        "state_name":"Virginia",
        "brand":"DSW"
    },
    {
        "street":"1920 Valley View Blvd NW",
        "city":"Roanoke",
        "state":"VA",
        "zip":"24012",
        "phone":"(540) 795-7143",
        "longitude":"-79.962169",
        "latitude":"37.306352",
        "state_name":"Virginia",
        "brand":"DSW"
    },
    {
        "street":"6644 Loisdale Road",
        "city":"Springfield",
        "state":"VA",
        "zip":"22150",
        "phone":"(703) 924-5475",
        "longitude":"-77.1797612",
        "latitude":"38.7735517",
        "state_name":"Virginia",
        "brand":"DSW"
    },
    {
        "street":"1011 University Blvd, Suite 140 College Dr & Hampton Roads Pkwy",
        "city":"Suffolk",
        "state":"VA",
        "zip":"23435",
        "phone":"(757) 347-7001",
        "longitude":"-76.4204278",
        "latitude":"36.8741694",
        "state_name":"Virginia",
        "brand":"DSW"
    },
    {
        "street":"8389 Leesburg Pike",
        "city":"Vienna",
        "state":"VA",
        "zip":"22182",
        "phone":"(703) 356-0972",
        "longitude":"-77.237231",
        "latitude":"38.922208",
        "state_name":"Virginia",
        "brand":"DSW"
    },
    {
        "street":"4588 Virginia Beach Blvd Suite #102",
        "city":"Virginia Beach",
        "state":"VA",
        "zip":"23462",
        "phone":"(757) 324-7025",
        "longitude":"-76.13390431877133",
        "latitude":"36.84565965684264",
        "state_name":"Virginia",
        "brand":"DSW"
    },
    {
        "street":"15001 Potomac Town Place Suite 120",
        "city":"Woodbridge",
        "state":"VA",
        "zip":"22192",
        "phone":"(703) 565-2237",
        "longitude":"-77.28749369092844",
        "latitude":"38.629127179510476",
        "state_name":"Virginia",
        "brand":"DSW"
    },
    {
        "street":"1824 South 320th",
        "city":"Federal Way",
        "state":"WA",
        "zip":"98003",
        "phone":"(253) 529-1857",
        "longitude":"-122.309701",
        "latitude":"47.316932",
        "state_name":"Washington",
        "brand":"DSW"
    },
    {
        "street":"1321 N. Columbia Center Blvd Suite 855",
        "city":"Kennewick",
        "state":"WA",
        "zip":"99336",
        "phone":"(509) 591-0396",
        "longitude":"-119.2264605",
        "latitude":"46.2238171",
        "state_name":"Washington",
        "brand":"DSW"
    },
    {
        "street":"19225 Alderwood Mall Parkway Suite 110",
        "city":"Lynnwood",
        "state":"WA",
        "zip":"98036",
        "phone":"(425) 673-9080",
        "longitude":"-122.26984420555725",
        "latitude":"47.82413744196156",
        "state_name":"Washington",
        "brand":"DSW"
    },
    {
        "street":"2915 Harrison Ave NW",
        "city":"Olympia",
        "state":"WA",
        "zip":"98502",
        "phone":"(360) 704-5620",
        "longitude":"-122.93831527233124",
        "latitude":"47.04565821014818",
        "state_name":"Washington",
        "brand":"DSW"
    },
    {
        "street":"3500 S. Meridian St. Suite 115",
        "city":"Puyallup",
        "state":"WA",
        "zip":"98373",
        "phone":"(253) 848-1822",
        "longitude":"-122.2962208",
        "latitude":"47.1569917",
        "state_name":"Washington",
        "brand":"DSW"
    },
    {
        "street":"17158 Redmond Way",
        "city":"Redmond",
        "state":"WA",
        "zip":"98052",
        "phone":"(425) 861-9658",
        "longitude":"-122.1116266",
        "latitude":"47.6716706",
        "state_name":"Washington",
        "brand":"DSW"
    },
    {
        "street":"11467 Pacific Crest Place NW Suite C105",
        "city":"Silverdale",
        "state":"WA",
        "zip":"98383",
        "phone":"(360) 214-7016",
        "longitude":"-122.6962266",
        "latitude":"47.6640266",
        "state_name":"Washington",
        "brand":"DSW"
    },
    {
        "street":"4727 North Division Street",
        "city":"Spokane",
        "state":"WA",
        "zip":"99207",
        "phone":"(509) 489-3458",
        "longitude":"-117.412847",
        "latitude":"47.701812",
        "state_name":"Washington",
        "brand":"DSW"
    },
    {
        "street":"3100 14th Street NW",
        "city":"Washington",
        "state":"DC",
        "zip":"20010",
        "phone":"(202) 688-2758",
        "longitude":"-77.0343913",
        "latitude":"38.9287917",
        "state_name":null,
        "brand":"DSW"
    },
    {
        "street":"4435 W Wisconsin Ave",
        "city":"Appleton",
        "state":"WI",
        "zip":"54913",
        "phone":"(920) 733-7422",
        "longitude":"-88.47454405291747",
        "latitude":"44.27148080310059",
        "state_name":"Wisconsin",
        "brand":"DSW"
    },
    {
        "street":"800 Willard Drive",
        "city":"Ashwaubenon",
        "state":"WI",
        "zip":"54304",
        "phone":"(920) 405-9940",
        "longitude":"-88.061408",
        "latitude":"44.487264",
        "state_name":"Wisconsin",
        "brand":"DSW"
    },
    {
        "street":"17300 W. Bluemound Road Suite 300",
        "city":"Brookfield",
        "state":"WI",
        "zip":"53045",
        "phone":"(262) 393-7000",
        "longitude":"-88.1288253",
        "latitude":"43.0378416",
        "state_name":"Wisconsin",
        "brand":"DSW"
    },
    {
        "street":"4076 Commonwealth Ave.",
        "city":"Eau Claire",
        "state":"WI",
        "zip":"54701",
        "phone":"(715) 318-4478",
        "longitude":"-91.4331187",
        "latitude":"44.773247",
        "state_name":"Wisconsin",
        "brand":"DSW"
    },
    {
        "street":"5050 S 74th Street",
        "city":"Greenfield",
        "state":"WI",
        "zip":"53220",
        "phone":"(414) 377-4060",
        "longitude":"-88.00470006073054",
        "latitude":"42.95323884292534",
        "state_name":"Wisconsin",
        "brand":"DSW"
    },
    {
        "street":"2173 Zeier Rd.",
        "city":"Madison",
        "state":"WI",
        "zip":"53704",
        "phone":"(608) 807-0053",
        "longitude":"-89.3014132976532",
        "latitude":"43.12839652413582",
        "state_name":"Wisconsin",
        "brand":"DSW"
    },
    {
        "street":"1700 Deming Way Suite 102",
        "city":"Middleton",
        "state":"WI",
        "zip":"53562",
        "phone":"(608) 440-7643",
        "longitude":"-89.5274674288534",
        "latitude":"43.09271138096363",
        "state_name":"Wisconsin",
        "brand":"DSW"
    },
    {
        "street":"2406 S Greenbay Road",
        "city":"Racine",
        "state":"WI",
        "zip":"53406",
        "phone":"(262) 456-3334",
        "longitude":"-87.85532981157303",
        "latitude":"42.702851507331616",
        "state_name":"Wisconsin",
        "brand":"DSW"
    },
    {
        "street":"11500 Burleigh Street",
        "city":"Wauwatosa",
        "state":"WI",
        "zip":"53222",
        "phone":"(414) 208-4480",
        "longitude":"-88.05652634389787",
        "latitude":"43.07968335267696",
        "state_name":"Wisconsin",
        "brand":"DSW"
    }
]