store_id,street,city,state,zip,phone,latitude,longitude,state_name
1334,5890 Trussville Crossings Blvd,Birmingham,AL,35235,(205) 661-3181,33.64502,-86.62655,Alabama
1335,70 Oxford Exchange Blvd,Oxford,AL,36203,(256) 832-1290,33.61004,-85.78258,Alabama
1338,10200 Eastern Shore Blvd,Spanish Fort,AL,36527,(251) 625-4025,30.66569,-87.84887,Alabama
1590,1241 Point Malard Parkway Bldg A,Decatur,AL,35601,(256) 301-4519,34.55864540590934,-86.96923623967285,Alabama
1652,2718 Legends Parkway,Prattville,AL,36066,(334) 285-1505,32.45868,-86.39959,Alabama
1725,100 S Colonial Drive Ste 1800,Alabaster,AL,35007,(205) 663-2389,33.22675071857488,-86.80479218531951,Alabama
2193,4925 Promenade Parkway,Bessemer,AL,35022,(205) 428-3437,33.33326,-86.98717,Alabama
1005,3500 Ross Clark Cir Ste 800,Dothan,AL,36303,(334) 678-1288,31.24595044661211,-85.4236142796234,Alabama
1053,6275 University Dr NW 35,Huntsville,AL,35806,(256) 922-0218,34.74547,-86.6826,Alabama
1115,2510 Berryhill Rd,Montgomery,AL,36117,(334) 244-7063,32.35955,-86.16277,Alabama
1127,3780 Riverchase Village Ste 3,Hoover,AL,35244,(205) 682-9556,33.37759452798141,-86.8006103214264,Alabama
1128,5025 Hwy 280 Ste 105,Birmingham,AL,35242,(205) 437-0254,33.42023,-86.68991,Alabama
2425,1320 McFarland Blvd E Bldg 600,Tuscaloosa,AL,35404,(205) 535-3067,33.20029131262517,-87.5251199772461,Alabama
3017,7765 Airport Blvd Ste 901,Mobile,AL,36608,(251) 287-9131,30.6813045,-88.22381159999998,Alabama
2462,1244 Cullman Shopping Center N,Cullman,AL,35055,(256) 841-3536,34.183232,-86.850267,Alabama
2471,7360 US Hwy 431 Ste 1,Albertville,AL,35950,(256) 660-3817,34.27916932739943,-86.20558638570554,Alabama
3102,107 Cox Creek Pkwy S.,Florence,AL,35630,(256) 712-3866,34.8296185,-87.62795460000001,Alabama
1096,2750 Carl T Jones Dr SE Ste 1,Huntsville,AL,35802,(256) 213-9773,34.67268588472247,-86.54122568122864,Alabama
2722,2498 S McKenzie St,Foley,AL,36535,(251) 677-6059,30.3794,-87.6832,Alabama
0634,3980-J Airport Blvd,Mobile,AL,36608,(251) 343-2227,30.67712808806718,-88.15163696231843,Alabama
3288,2805 DR John Haynes DR.,PELL CITY,AL,35125,(205) 473-3645,33.605083,-86.2774736,Alabama
3178,2495 Enterprise Dr,OPELIKA,AL,36801,(334) 363-3161,32.6206437,-85.40915669999998,Alabama
2093,1200 North Muldoon Road,Anchorage,AK,99506,(907) 333-7387,61.23099,-149.74189,Alaska
2130,601 E Dimond Blvd,Anchorage,AK,99515,(907) 522-7387,61.14548,-149.87076,Alaska
1864,4380 N. Miller Road,Scottsdale,AZ,85251,(480) 429-4519,33.49939,-111.91753,Arizona
1891,3699 Highway 95,#540,86442,Bullhead City,(928) 763-2829,35.05031,-114.58899,
0131,10825 N Tatum Blvd,Phoenix,AZ,85028,(480) 367-9680,33.58422,-111.97779,Arizona
0132,17035 N 7th Ave,Phoenix,AZ,85023,(602) 375-7939,33.64191,-112.08228,Arizona
0133,2901 W Agua Fria Fwy,Phoenix,AZ,85027,(623) 492-9045,33.66807,-112.12185,Arizona
0135,1733 S Stapley Drive,Mesa,AZ,85204,(480) 539-8552,33.38201,-111.80608,Arizona
0137,7727 E Broadway Blvd,Tucson,AZ,85710,(520) 290-0776,32.22217,-110.82624,Arizona
0145,277 N Walker Rd,Prescott,AZ,86301,(928) 776-9636,34.5475375,-112.39915009999999,Arizona
0154,6932 E Hampton Ave,Mesa,AZ,85209,(480) 830-7282,33.39035,-111.68148,Arizona
0157,7290 W Bell Rd,Glendale,AZ,85308,(623) 334-3600,33.63831,-112.21561,Arizona
0164,4740 E Grant Rd,Tucson,AZ,85712,(520) 322-5080,32.24927,-110.8915,Arizona
1714,986 N. Mission Parkway,Casa Grande,AZ,85194,(520) 426-1901,32.88223641966211,-111.67755705158999,Arizona
1809,21032 S. Ellsworth Loop Rd.,Queen Creek,AZ,85142,(480) 888-1815,33.2539,-111.63465,Arizona
1900,857 N Val Vista Dr Suite 106,Gilbert,AZ,85234,(480) 503-0934,33.36576925557652,-111.7545986105896,Arizona
1902,5601 Highway 95 N,Lake Havasu City,AZ,86404,(928) 764-2500,34.56663,-114.36321,Arizona
1908,3850 W River Rd,Tucson,AZ,85741,(520) 742-1296,32.31798,-111.04354,Arizona
2136,3260 Stockton Hill Rd,Kingman,AZ,86409,(928) 681-4815,35.22034,-114.03498,Arizona
2215,2356 W State Rt 89A,Sedona,AZ,86336,(928) 282-8572,34.864904,-111.801452,Arizona
2256,1140 W. Elliot Rd.,Tempe,AZ,85284,(480) 755-3324,33.35055,-111.95682,Arizona
1263,1121 S Plaza Way,Flagstaff,AZ,86001,(928) 213-1737,35.18929,-111.66149,Arizona
1265,1900 E Rio Salado Pkwy,Tempe,AZ,85281,(480) 303-7262,33.4295,-111.90458,Arizona
1267,25372 N Lake Pleasant,Peoria,AZ,85383,(623) 362-8067,33.71419,-112.27145,Arizona
1268,466 S Watson Road,Buckeye,AZ,85326,(623) 327-1444,33.44255,-112.55669,Arizona
1269,2475 E Baseline Road,Phoenix,AZ,85042,(602) 232-1090,33.37771,-112.02898,Arizona
1003,10625 N Oracle Rd,Oro Valley,AZ,85737,(520) 797-0008,32.40014328771036,-110.95846469444274,Arizona
1004,1175 W Irvington Rd,Tucson,AZ,85714,(520) 573-6652,32.16326,-110.98858,Arizona
1017,2840 W Chandler Blvd,Chandler,AZ,85224,(480) 782-7727,33.30595,-111.89083,Arizona
1036,1949 E Camelback Rd,Phoenix,AZ,85016,(602) 248-8809,33.50737,-112.04006,Arizona
1039,21001 N Tatum Blvd,Phoenix,AZ,85050,(480) 513-4262,33.67753,-111.97729,Arizona
1040,13764 W Bell Rd,Surprise,AZ,85374,(623) 546-8500,33.64039,-112.35456,Arizona
1041,9960 N 91st Ave,Peoria,AZ,85345,(623) 486-8700,33.57513,-112.25503,Arizona
1082,1561 N Dysart Rd,Avondale,AZ,85323,(623) 547-0889,33.4599,-112.3409,Arizona
1099,10405 N 31st Ave.,Phoenix,AZ,85051,(602) 331-0131,33.58061,-112.12545,Arizona
1120,1745 W Bethany Home Rd,Phoenix,AZ,85015,(602) 841-2507,33.52407,-112.09721,Arizona
1191,2860 E Germann Road,Chandler,AZ,85249,(480) 722-1358,33.2812744,-111.79143850000003,Arizona
1196,4374 N Oracle Rd,Tucson,AZ,85705,(520) 407-0146,32.28629,-110.97809,Arizona
1231,1460 S Yuma Palms Pkwy,Yuma,AZ,85365,(928) 329-7291,32.70114,-114.60316,Arizona
3016,6426 S McClintock Drive,Tempe,AZ,85283,(480) 282-9016,33.3628984,-111.91275139999999,Arizona
2474,4609 Ray Rd.,Phoenix,AZ,85044,(480) 718-6882,33.3197311,-111.98406640000002,Arizona
2558,32633 N Scottsdale Rd,Scottsdale,AZ,85266,(480) 477-5222,33.7816064,-111.92575190000002,Arizona
2582,7090 N. Oracle Rd.,Tucson,AZ,85704,(520) 809-6008,32.3353723,-110.97580490000001,Arizona
2506,400 E Highway 260,Ste C,85541,Payson,(928) 474-4015,34.2437039,-111.32289400000002,
2363,3695 E. Broadway Blvd,Tucson,AZ,85716,(520) 917-1654,32.2216767,-110.91386590000002,Arizona
2464,3939 S Arizona Ave,Chandler,AZ,85248,(480) 281-5506,33.24943823754704,-111.83814515288697,Arizona
2603,20945 N Pima Rd Ste 107,SCOTTSDALE,AZ,85255,(480) 281-5745,33.6761368,-111.88880690000002,Arizona
1712,555 S. Cotton Lane,Goodyear,AZ,85338,(623) 882-1355,33.44346,-112.4268,Arizona
3131,18761 S Nogales Hwy,Green Valley,AZ,85614,(520) 989-5897,31.9131848,-110.97672779999999,Arizona
1066,6632 E McKellips Rd,Mesa,AZ,85215,(480) 325-4578,33.45187,-111.68795,Arizona
1145,5707 W Northern Ave,Glendale,AZ,85301,(623) 931-6743,33.55308,-112.18197,Arizona
1190,4920 S Power Rd,Mesa,AZ,85212,(480) 279-3860,33.32507,-111.68705,Arizona
1266,1858 S Signal Butte Rd,Mesa,AZ,85209,(480) 358-0948,33.38143,-111.60073,Arizona
1270,7077 E Mayo Blvd Ste 140,Phoenix,AZ,85054,(480) 419-1478,33.6537606,-111.92839759999998,Arizona
0130,16257 N Scottsdale Rd,Scottsdale,AZ,85254,(480) 607-1038,33.63556,-111.92531,Arizona
0147,10030 N 90th St,Scottsdale,AZ,85258,(480) 391-1647,33.57743,-111.88595,Arizona
2604,,Anthem,US,AZ,(623) 476-4719,33.8651346,-112.13910929999997,
2135,4267 E Highway 90,Sierra Vista,AZ,85635,(520) 439-2820,31.55468,-110.25352,Arizona
3234,13410 N Prasada Pkwy,SURPRISE,AZ,85388,(623) 336-6060,33.60692096167155,-112.4148573087372,Arizona
1293,650 Elsinger Blvd,Conway,AR,72032,(501) 548-6083,35.08751835317738,-92.41132918965758,Arkansas
1562,2203 Promenade Blvd Ste 204,Rogers,AR,72758,(479) 631-4018,36.30783145825407,-94.1735673610687,Arkansas
1563,1430 Higdon Ferry Rd,Hot Springs,AR,71913,(501) 318-6108,34.46814,-93.0717,Arkansas
2723,20460 Interstate 30 N,Benton,AR,72019,(501) 575-3194,34.606612,-92.539902,Arkansas
1119,3585 N Shiloh Dr,Fayetteville,AR,72703,(479) 571-4697,36.12322,-94.14533,Arkansas
2459,4164 E. McCain Blvd.,North Little Rock,AR,72117,(501) 725-3827,34.7895547,-92.22402970000002,Arkansas
2331,4900 Rogers Ave. Ste 102A,Fort Smith,AR,72903,(479) 221-9462,35.3660802,-94.37753269999996,Arkansas
2509,2708 W Kings Hwy,Paragould,AR,72450,(870) 573-3096,36.05952795811402,-90.52228129496763,Arkansas
2710,3009 E Highland Dr #A,Jonesboro,AR,72401,(870) 819-4541,35.8197573,-90.66837399999997,Arkansas
2198,3093 E. Main Street,Russellville,AR,72802,(479) 498-2369,35.27784,-93.094,Arkansas
0516,11400 Financial Centre Pkwy,Little Rock,AR,72211,(501) 225-8863,34.7469,-92.40066,Arkansas
1854,21311 Victory Blvd.,Canoga Park,CA,91303,(818) 704-6560,34.18851,-118.59535,California
0128,2828 Campus Pkwy,Riverside,CA,92507,(951) 653-8482,33.93789,-117.28111,California
0129,25290 Madison Ave,Murrieta,CA,92562,(951) 696-9847,33.55545,-117.19556,California
1291,23602 El Toro Rd,Lake Forest,CA,92630,(949) 768-6373,33.61953,-117.70087,California
1310,19059 Golden Valley Road,Santa Clarita,CA,91387,(661) 250-8204,34.3935,-118.46879,California
1311,2685 W. Hillcrest Drive,Thousand Oaks,CA,91320,(805) 499-3767,34.18914,-118.93509,California
1316,730 South Sepulveda Blvd,El Segundo,CA,90245,(310) 333-0602,33.9059,-118.39596,California
1319,2465 E Imperial Hwy,Brea,CA,92821,(714) 256-0205,33.91295,-117.86723,California
1320,2350 S Azusa Ave,West Covina,CA,91792,(626) 964-8013,34.03346,-117.9135,California
1341,12483 Limonite Ave,Mira Loma,CA,91752,(951) 685-1927,33.97524,-117.55505,California
1361,8215 Laguna Blvd,Elk Grove,CA,95758,(916) 691-3700,38.42194,-121.4047,California
1362,29227 Central Ave,Lake Elsinore,CA,92532,(951) 245-0267,33.69735,-117.33158,California
1398,865 Colusa Ave,Yuba City,CA,95991,(530) 822-0623,39.14178,-121.62935,California
1399,2771 Florida Ave W,Hemet,CA,92545,(951) 925-8400,33.74737,-117.00104,California
0140,3396 Murphy Canyon Rd,San Diego,CA,92123,(858) 571-0300,32.80641,-117.11592,California
1416,3520 S El Camino Real,San Mateo,CA,94403,(650) 577-9010,37.53539,-122.29687,California
1418,607 Coleman Ave,San Jose,CA,95110,(408) 920-0316,37.34108,-121.90863,California
1419,1621 E Monte Vista Ave Ste B,Vacaville,CA,95688,(707) 469-9066,38.36803,-121.96302,California
0142,865 Jackman St,El Cajon,CA,92020,(619) 442-0600,32.80687,-116.97337,California
0143,3610 Rosecrans St,San Diego,CA,92110,(619) 523-4177,32.75045,-117.20587,California
1452,7600 Edinger Ave,Huntington Beach,CA,92647,(714) 842-5253,33.73009,-117.99538,California
1453,10900 W Jefferson Blvd,Culver City,CA,90230,(310) 390-5120,33.99768,-118.39542,California
1454,288 N 12th Ave,Hanford,CA,93230,(559) 587-0286,36.32506,-119.67287,California
1455,615 Herndon,Clovis,CA,93612,(559) 299-0120,36.8384643,-119.7256596,California
1498,1840 Main Ct,Chula Vista,CA,91911,(619) 397-0605,32.59375,-117.03475,California
1566,15618 Whittwood Ln,Whittier,CA,90603,(562) 902-0358,33.94464,-117.99692,California
1575,2440 E Charleston Rd,Mountain View,CA,94043,(650) 968-1034,37.42099,-122.09604,California
1600,920 Groveland Lane,Lincoln,CA,95648,(916) 543-6411,38.87176,-121.30297,California
1601,261 Spreckels Ave,Manteca,CA,95336,(209) 823-5676,37.79521,-121.19801,California
1614,1530 Froom Ranch way,San Luis Obispo,CA,93405,(805) 544-0191,35.25126,-120.68988,California
1624,34900 Monterey Ave,Palm Desert,CA,92211,(760) 324-3059,33.78279,-116.38805,California
1691,1225 Industrial Road,San Carlos,CA,94070,(650) 632-1605,37.50118,-122.24551,California
1695,185 Curtner Avenue,San Jose,CA,95125,(408) 275-0386,37.30079,-121.86545,California
1700,1336 Hilltop Dr,Redding,CA,96003,(530) 223-1890,40.5889,-122.35822,California
1701,1196 W Olive Ave,Merced,CA,95348,(209) 722-0844,37.31853,-120.48953,California
1708,2741 El Camino Real,Tustin,CA,92782,(714) 731-1106,33.72701,-117.79421,California
1733,19011 Bear Valley Road,Apple Valley,CA,92308,(760) 240-8119,34.47103,-117.24509,California
1738,4120-B E 4th Street,Ontario,CA,91764,(909) 484-5502,34.07722,-117.56327,California
1796,6348 Foothill Blvd,Tujunga,CA,91042,(818) 951-0916,34.24174,-118.26992,California
1812,2375 Iron Point Road,Folsom,CA,95630,(916) 986-9151,38.64419,-121.12383,California
0060,5879 Lone Tree Way,Antioch,CA,94531,(925) 755-8504,37.96385,-121.73371,California
0061,1700 Willow Pass Rd,Concord,CA,94520,(925) 687-7199,37.97284,-122.04023,California
0063,315 Gellert Blvd,Daly City,CA,94015,(650) 997-0395,37.6677,-122.46867,California
0070,175 Ranch Dr,Milpitas,CA,95035,(408) 956-1044,37.42864,-121.91991,California
1912,26532 Towne Center Dr,Foothill Ranch,CA,92610,(949) 461-7968,33.67854,-117.66943,California
1970,415 N. Escondido Blvd,Escondido,CA,92025,(760) 737-8527,33.12318,-117.08822,California
1975,3900 Sisk Road,Modesto,CA,95356,(209) 543-9176,37.69587,-121.06559,California
2179,2851 Eastland Center Dr Ste FSU9,West Covina,CA,91791,(626) 331-2753,34.07351,-117.88296,California
2195,330 S. La Cienega Blvd,Los Angeles,CA,90048,(310) 358-0252,34.07262,-118.37616,California
2196,2530 Las Posas Rd,Camarillo,CA,93010,(805) 384-8401,34.23714,-119.03609,California
2218,1131 Sanguinetti Rd,Sonora,CA,95370,(209) 533-4786,37.97201,-120.36406,California
2222,1265 W. Henderson Ave.,Porterville,CA,93257,(559) 791-1542,36.0798,-119.04724,California
2223,1380 Fitzgerald Drive,Pinole,CA,94564,(510) 964-3564,37.98653,-122.31006,California
2237,6081 Florin Rd.,Sacramento,CA,95823,(916) 421-8036,38.49645,-121.43106,California
2242,5353 Almaden Expressway,San Jose,CA,95118,(408) 978-8941,37.25234911603126,-121.87708516798392,California
2252,745 W Huntington Dr,Monrovia,CA,91016,(626) 357-5615,34.14119,-118.01529,California
2258,9835 Chapman Ave.,Garden Grove,CA,92841,(714) 591-1115,33.78896,-117.96004,California
2280,8852 Washington Blvd,Pico Rivera,CA,90660,(562) 566-4029,33.98382,-118.10283,California
0047,575 Rohnert Park Expy W,Rohnert Park,CA,94928,(707) 586-1891,38.34894,-122.72348,California
0049,10830 Olson Dr,Rancho Cordova,CA,95670,(916) 851-1813,38.59342,-121.28462,California
0050,1738 Watt Ave,Sacramento,CA,95825,(916) 973-8391,38.59745,-121.38288,California
0052,6434 Sunrise Blvd,Citrus Heights,CA,95610,(916) 729-2866,38.68351,-121.27087,California
0053,3641 Truxel Rd,Sacramento,CA,95834,(916) 928-0314,38.63431,-121.50576,California
0054,2705 E Bidwell St,Folsom,CA,95630,(916) 984-4748,38.65639,-121.1257,California
0055,15555 E 14th St  Ste 603,San Leandro,CA,94578,(510) 317-1880,37.70238,-122.12458,California
0056,4655 Century Blvd,Pittsburg,CA,94565,(925) 706-9975,38.0062848,-121.83646529999999,California
0059,6960 Amador Plaza Rd,Dublin,CA,94568,(925) 803-8370,37.70595,-121.92829,California
0126,573 North Mckinley St,Corona,CA,92879,(951) 340-0501,33.89158,-117.51857,California
0127,595 E Hospitality Ln,San Bernardino,CA,92408,(909) 383-1055,34.06575,-117.27233,California
0100,24965 Pico Canyon Rd,Stevenson Ranch,CA,91381,(661) 260-3990,34.38205,-118.57278,California
0101,3855-59 Sepulveda Blvd,Torrance,CA,90505,(310) 316-9047,33.82576,-118.35328,California
0102,26761 Aliso Creek Rd,Aliso Viejo,CA,92656,(949) 643-2285,33.57416,-117.72535,California
0103,5766 Lindero Canyon Rd,Westlake Village,CA,91362,(818) 865-8626,34.15342,-118.7953,California
0105,2568 W Commonwealth Ave,Alhambra,CA,91803,(626) 284-3390,34.08784,-118.15134,California
1081,4240 S Mooney Blvd,Visalia,CA,93277,(559) 625-0299,36.29226,-119.31357,California
0109,3347 E Foothill Blvd,Pasadena,CA,91107,(626) 351-8434,34.15014,-118.08099,California
1092,13001 Peyton Dr,Chino Hills,CA,91709,(909) 627-4849,34.01631,-117.74579,California
0110,450 Cochran St,Simi Valley,CA,93065,(805) 306-1912,34.28149,-118.78874,California
0112,7631 Carson Blvd.,Long Beach,CA,90808,(562) 938-8056,33.8253,-118.08346,California
1142,1935 N Campus Ave,Upland,CA,91784,(909) 981-4139,34.13341,-117.63969,California
1143,39523 S 10th St West,Palmdale,CA,93551,(661) 947-8900,34.60086,-118.14781,California
1144,4840 Telephone Rd,Ventura,CA,93003,(805) 650-9191,34.26295,-119.22861,California
1157,9896 Mission Gorge Rd,Santee,CA,92071,(619) 448-1921,32.84132,-116.98132,California
1158,8657 Villa La Jolla Dr,La Jolla,CA,92037,(858) 535-9175,32.86506,-117.23211,California
0116,1301 E. Gladstone,Glendora,CA,91740,(909) 599-7012,34.11394,-117.83781,California
1161,620 West 17th St,Costa Mesa,CA,92627,(949) 764-9277,33.6362,-117.92437,California
1162,15042 Summit Ave,Fontana,CA,92336,(909) 463-2900,34.14938,-117.47298,California
1163,10940 Foothill Blvd,Rancho Cucamonga,CA,91730,(909) 481-8700,34.10661,-117.56505,California
1164,2477 Naglee Rd,Tracy,CA,95304,(209) 836-6080,37.75618,-121.46459,California
1187,8331 La Palma Ave,Buena Park,CA,90620,(714) 739-2100,33.84679,-117.98774,California
1188,10520 Trinity Pkwy,Stockton,CA,95219,(209) 474-9748,38.05034,-121.37484,California
1198,32413 Hwy 79,Temecula,CA,92592,(951) 302-1209,33.48062138614648,-117.0924005568695,California
1217,3420 Marron,Oceanside,CA,92056,(760) 729-4546,33.17946,-117.29737,California
1227,30515 Avenida De Las Flores,Rancho Santa Margarita,CA,92688,(949) 766-7746,33.63903476196542,-117.600533958683,California
1228,1411 S Harbor Blvd,Fullerton,CA,92832,(714) 992-5116,33.85683,-117.92436,California
0123,11945 Central Ave,Chino,CA,91710,(909) 628-6665,34.03648,-117.68939,California
1230,79375 Hwy 111,La Quinta,CA,92253,(760) 771-4058,33.70591642030658,-116.27928389797819,California
2357,471-2 College Blvd,Oceanside,CA,92057,(760) 666-6321,33.2444504,-117.2909201,California
2324,4550 W Pico Blvd.,Los Angeles,CA,90019,(323) 602-0874,34.0484357,-118.33544340000003,California
2293,19320 Nordhoff Way,Northridge,CA,91324,(818) 739-0729,34.2353419,-118.55511580000001,California
2244,1775 S Alameda St.,Compton,CA,90220,(424) 296-6078,33.8780179,-118.21767840000001,California
2402,2141 Rose Ave,Oxnard,CA,93036,(805) 288-8495,34.22079799999999,-119.15883969999999,California
2398,4253 Genesee Ave,San Diego,CA,92117,(858) 300-6501,32.8204995,-117.18241390000003,California
2422,2760 W 120th Street,Hawthorne,CA,90250,(323) 336-9567,33.9217467,-118.3229685,California
2465,3530 Rosemead Blvd,Rosemead,CA,91770,(626) 537-2302,34.0725712,-118.0729131,California
2304,1660 Garnet Ave.,San Diego,CA,92109,(858) 202-5269,32.8001555,-117.23961910000003,California
2443,2180 N Imperial Ave,El Centro,CA,92243,(760) 679-5131,32.8169806,-115.56999080000003,California
2442,7888 Van Nuys Blvd Ste 1,Van Nuys,CA,91402,(818) 742-1758,34.2151809,-118.4458841,California
2399,2730 Pacific Coast Highway,Torrance,CA,90505,(310) 602-7898,33.79228390446889,-118.33429171349184,California
2532,401 Kenilworth Drive,Petaluma,CA,94952,(707) 775-6389,38.2453134,-122.62751249999997,California
2400,5450 Crossing Dr,Rocklin,CA,95677,(916) 251-3474,38.801763,-121.202229,California
2449,1660 Camino De La Reina,Suite D,92108,San Diego,(619) 471-1914,32.7709444,-117.1490695,
2553,44425 Town Center Way Ste A,Palm Desert,CA,92260,(760) 469-5320,33.72735878587453,-116.39929420608212,California
2528,13720 Riverside Drive,Sherman Oaks,CA,91423,(818) 742-1753,34.1569161,-118.43189540000003,California
0072,6755 Camino Arroyo Bldg 5,Gilroy,CA,95020,(408) 848-1383,37.00091,-121.54996,California
0073,490 River St,Santa Cruz,CA,95060,(831) 429-2780,36.98255,-122.02961,California
0074,1265 N Davis Rd,Salinas,CA,93907,(831) 775-0318,36.70223,-121.66779,California
0076,2306 S Bradley Rd,Santa Maria,CA,93455,(805) 348-1075,34.91823,-120.41952,California
0081,2100 McHenry Ave,Modesto,CA,95350,(209) 574-0441,37.67424,-120.99224,California
0082,3220 W Shaw Ave,Fresno,CA,93711,(559) 277-2220,36.80991,-119.84926,California
0083,470 Shaw Ave,Clovis,CA,93612,(559) 297-9514,36.80729,-119.70432,California
0084,2661 Oswell St,Bakersfield,CA,93306,(661) 873-1092,35.39381,-118.9488,California
0086,4100 Ming Ave,Bakersfield,CA,93309,(661) 834-1044,35.34053,-119.04855,California
0087,12624 Amargosa Rd,Victorville,CA,92392,(760) 955-1030,34.47935,-117.34086,California
0090,17940 Newhope St,Fountain Valley,CA,92708,(714) 241-0317,33.70291,-117.9345,California
0094,44551 Valley Central Way,Lancaster,CA,93536,(661) 942-7330,34.69271,-118.17208,California
0096,2550 Cherry Ave,Signal Hill,CA,90755,(562) 988-0832,33.80339,-118.16666,California
0098,5521 Mirage St,Yorba Linda,CA,92887,(714) 637-8088,33.87492,-117.74575,California
0099,33963 Doheny Park Rd,San Juan Capistrano,CA,92675,(949) 443-5336,33.46891,-117.67539,California
2294,1954 Santa Rosa Ave,Santa Rosa,CA,95407,(707) 596-5412,38.4204228,-122.71351859999999,California
2267,12341 Seal Beach Blvd,Seal Beach,CA,90740,(562) 340-0669,33.783228,-118.07369499999999,California
2373,17651 Colima Rd,City of Industry,CA,91748,(626) 923-1303,33.991795,-117.91999399999997,California
2572,7090 Holister Ave Bldg B Ste 1,Goleta,CA,93117,(805) 979-4824,34.4307518,-119.874189,California
2487,7512 N. Blackstone Ave,Fresno,CA,93720,(559) 490-7081,36.8451361,-119.78616420000003,California
2410,30131 Haun Road,Menifee,CA,92586,(951) 246-6383,33.6705584,-117.17573930000003,California
2493,1500 E Village Way,Ste 2380,92865,Orange,(714) 923-4037,33.83001152089603,-117.837447569767,
3052,5601 Calloway Drive Suite 100,Bakersfield,CA,93312,(661) 695-3000,35.4115503,-119.11008040000002,California
2475,2891 Ygnacio Valley Rd,Walnut Creek,CA,94598,(925) 278-5176,37.92550431056248,-122.01608094683536,California
2719,1580 Gateway Blvd,Fairfield,CA,94533,(707) 430-0334,38.2619355,-122.05823680000003,California
2552,,Huntington Beach,US,CA,(714) 274-6601,33.6719941,-117.95338770000001,
2497,877 East H Street,Chula Vista,CA,91910,(619) 210-1106,32.6376926,-117.0241335,California
3073,11805 Willow Creek Dr,Auburn,CA,95603,(530) 217-6131,38.9382192,-121.09936540000001,California
2789,3871 N Lakewood Blvd,Long Beach,CA,90808,(562) 384-4955,33.828373,-118.14268420000002,California
1762,38147 47th St. E,Palmdale,CA,93552,(661) 533-9148,34.57388,-118.04507,California
2715,2860 DUBLIN BLVD,Dublin,CA,94568,(925) 241-2960,37.7053278,-121.85402299999998,California
3101,500 W Stuart Ave Unit C1,REDLANDS,CA,92374,(909) 283-7220,34.0596253,-117.18781460000002,California
2466,8226 Delta Shores Circle South,SACRAMENTO,CA,95832,(916) 629-0082,38.46522,-121.49346,California
1184,10363 Fairway Dr,Roseville,CA,95678,(916) 774-8205,38.79008,-121.28511,California
1229,12126 Lakewood Blvd,Downey,CA,90242,(562) 803-1607,33.9261,-118.13084,California
1314,2237 Park Avenue,Tustin,CA,92782,(714) 258-8564,33.70048,-117.82883,California
1340,39410 Argonaut Way,Fremont,CA,94538,(510) 790-1459,37.54283,-121.98581,California
1380,5601 Ramon Rd E,Palm Springs,CA,92264,(760) 325-9711,33.81578,-116.49057,California
0144,1034 N El Camino Real,Encinitas,CA,92024,(760) 436-1220,33.06512,-117.26659,California
1569,21848 Valley Blvd,City of Industry,CA,91789,(909) 594-5043,34.02719,-117.83386,California
2421,19370 Goldenwest St #101,Huntington Beach,CA,92648,(714) 274-4894,33.6811726,-118.0045867,California
2529,222 N. Milpas St.,Santa Barbara,CA,93103,(805) 979-4529,34.4241558,-119.6823627,California
2581,5999 Madison Avenue,Carmichael,CA,95608,(916) 621-2212,38.6609252,-121.32527829999998,California
2732,,Encino,US,CA,(818) 742-1820,34.1598235,-118.5068867,
0071,850 W Hamilton Ave,Campbell,CA,95008,(408) 374-9321,37.29348,-121.96428,California
0075,2020 California Ave,Sand City,CA,93955,(831) 392-0150,36.61961,-121.84308,California
0097,2140 E 17th St,Santa Ana,CA,92705,(714) 480-0620,33.75982,-117.83615,California
2279,12741 Towne Center Dr,Cerritos,CA,90703,(562) 263-2414,33.8709121,-118.05935820000002,California
2278,2019 Forest Ave,Chico,CA,95928,(530) 961-9188,39.7255803,-121.80023110000002,California
3180,2675 Geary Blvd,SAN FRANCISCO,CA,94118,(415) 633-9905,37.78212580253925,-122.44537478755798,California
3250,952 Admiral Callaghan Ln,VALLEJO,CA,94591,(707) 563-2039,38.1335933,-122.2208487,California
3251,300 S Highland Springs Ave,Ste 9,92220,Banning,(951) 797-5675,33.9246289,-116.9449412,
3117,260 E Harney Lane,Lodi,CA,95240,(209) 371-0215,38.1002,-121.268029,California
3226,2153 W Florida Ave,HEMET,CA,92545,(951) 484-4953,33.7445037,-117.013314,California
1855,2435 Prairie Center Parkway,Brighton,CO,80601,(303) 637-9232,39.95079,-104.782,Colorado
1309,1715 Rocky Mountain Ave,Loveland,CO,80538,(970) 278-9178,40.41191,-105.00235,Colorado
1343,16575 Washington St,Broomfield,CO,80020,(303) 255-0644,39.99515,-104.9782,Colorado
1421,7350 S Gartrell Rd,Aurora,CO,80016,(303) 400-4778,39.56872,-104.71724,Colorado
1457,8500 W Crestline Ave,Littleton,CO,80123,(303) 948-6364,39.61797,-105.09193,Colorado
1458,10460 Town Center Dr,Westminster,CO,80021,(303) 466-2834,39.88785,-105.07566,Colorado
1787,4300 E Alameda,Glendale,CO,80246,(303) 399-0880,39.71029,-104.9375,Colorado
1893,16086 Jackson Creek Pky,Monument,CO,80132,(719) 484-0235,39.06635,-104.850321,Colorado
1915,1850 30th street,Boulder,CO,80301,(303) 449-0201,40.01992,-105.25365,Colorado
0220,8695 S Park Meadows Center Dr,Littleton,CO,80124,(303) 799-3575,39.5620998,-104.87895170000002,Colorado
0228,3540 Youngfield St,Wheat Ridge,CO,80033,(303) 424-0123,39.76516,-105.14005,Colorado
0229,8222 S University Blvd.,Littleton,CO,80122,(303) 220-0215,39.56807,-104.95924,Colorado
0230,160 Wadsworth Blvd,Lakewood,CO,80226,(303) 232-0858,39.71942,-105.0802,Colorado
0231,2780 S Colorado Blvd,Denver,CO,80222,(303) 756-4199,39.66574,-104.94055,Colorado
0232,571 N Academy Blvd,Colorado Springs,CO,80909,(719) 570-1313,38.84246,-104.75732,Colorado
0233,7680 N Academy Blvd,Colorado Springs,CO,80920,(719) 531-7870,38.94341,-104.80026,Colorado
0236,4230 N Fwy Rd,Pueblo,CO,81008,(719) 595-9000,38.3129841,-104.6126803,Colorado
0251,4432 S College Ave,Fort Collins,CO,80525,(970) 223-9020,40.5255,-105.07695,Colorado
0252,5285 Wadsworth Byp,Arvada,CO,80002,(303) 456-1114,39.79272,-105.08061,Colorado
0253,10600 Melody Dr,Northglenn,CO,80234,(720) 929-9459,39.88757,-104.99323,Colorado
1002,2160 Southgate Rd,Colorado Springs,CO,80906,(719) 447-0622,38.80144,-104.8176,Colorado
1014,2833 35th Ave,Greeley,CO,80634,(970) 330-3790,40.38916,-104.73696,Colorado
1015,402 Center Dr,Superior,CO,80027,(303) 543-6060,39.95758,-105.1702,Colorado
1032,5520 S Parker Rd,Aurora,CO,80015,(303) 690-4697,39.61561,-104.81689,Colorado
1071,11183 A S Parker Rd,Parker,CO,80134,(720) 851-7790,39.51170459895776,-104.76493206375426,Colorado
1072,40 S Abilene St,Aurora,CO,80012,(720) 859-8122,39.7156,-104.82626,Colorado
1084,8440 S Kipling Pkwy,Littleton,CO,80127,(720) 922-8335,39.56293,-105.10984,Colorado
1124,2965 N New Center Pt,Colorado Springs,CO,80922,(719) 637-3308,38.875327,-104.71741420000001,Colorado
1183,4654 Milestone Ln,Castle Rock,CO,80104,(720) 733-6282,39.40861,-104.86342,Colorado
1199,7505 E 35th Ave Bldg 3 Ste 3,Denver,CO,80238,(303) 393-9156,39.76607873944953,-104.90033920299379,Colorado
3041,3720 River Point Pkwy,Sheridan,CO,80110,(303) 214-4071,39.64836933814804,-105.00786164047548,Colorado
2725,14265 Orchard Pkwy Ste 100,Westminster,CO,80023,(303) 242-3868,39.9574963,-104.99385860000001,Colorado
3040,9291 S Broadway,HIGHLANDS RANCH,CO,80129,(303) 214-0866,39.5467422,-104.99406929999998,Colorado
1130,1125 S Hover Rd,Longmont,CO,80501,(303) 702-9526,40.1456,-105.13084,Colorado
0249,2428 F Rd,Grand Junction,CO,81505,(970) 255-9305,39.09600054705591,-108.60307920768736,Colorado
2609,5900 S University Blvd Unit C3,GREENWOOD VILLAGE,CO,80121,(303) 357-3854,39.60942319999999,-104.9596029,Colorado
1856,10 Hazard Avenue,Enfield,CT,06082,(860) 253-0169,41.99003,-72.58332,Connecticut
1867,288 West Ave,Stamford,CT,06902,(203) 353-9807,41.04322,-73.55835,Connecticut
1572,5 Main Street,East Hartford,CT,06118,(860) 895-1816,41.72944,-72.61885,Connecticut
1800,351 N. Frontage Road,New London,CT,06320,(860) 440-3321,41.36985,-72.11812,Connecticut
1938,400 Universal Drive North,North Haven,CT,06473,(203) 234-2065,41.35684,-72.87195,Connecticut
1173,525 Connecticut Ave,Norwalk,CT,06854,(203) 854-1772,41.09783,-73.44424,Connecticut
1176,1520 Pleasant Valley Rd,Manchester,CT,06042,(860) 644-2366,41.80329,-72.5583,Connecticut
2392,,Meriden,US,CT,(203) 427-4931,41.50665,-72.80716089999999,
0729,278 New Britain Ave,Plainville,CT,06062,(860) 747-9399,41.67507,-72.84291,Connecticut
0733,475 Bank St,Waterbury,CT,06708,(203) 596-9997,41.54989,-73.04343,Connecticut
2286,55 Boston Post Road,Orange,CT,06477,(203) 937-2749,41.279559,-72.98829660000001,Connecticut
2718,267 Berlin Turnpike,Berlin,CT,06037,(860) 259-9020,41.6426608812095,-72.73328607990112,Connecticut
1097,1390 N DuPont Hwy,Dover,DE,19901,(302) 736-5260,39.19116,-75.54452,Delaware
1103,3010 Brandywine Pkwy,Wilmington,DE,19803,(302) 475-0618,39.83333,-75.53346,Delaware
1220,1291 Churchmans Rd,Newark,DE,19713,(302) 266-6170,39.69176,-75.66675,Delaware
2329,26680 Centerview Drive,Millsboro,DE,19966,(302) 648-3089,38.5711805,-75.2847246,Delaware
2776,19563 COASTAL HWY UNIT 5,REHOBOTH BEACH,DE,19971,(302) 260-7306,38.7205578,-75.115992,Delaware
2452,2480 Market St. NE Bldg 11,Washington,DC,20018,(202) 499-3880,38.920678,-76.952415,
1848,9515 Crosshill Blvd,Ste 113,32222,Jacksonville,(904) 777-8688,30.19812,-81.82345,
1850,19530 Cochran Boulevard,Port Charlotte,FL,33948,(941) 613-0100,27.01431,-82.13323,Florida
1325,3232 E. Colonial Drive,Orlando,FL,32803,(407) 895-6576,28.55335,-81.34214,Florida
1336,34940 Emerald Coast Pkwy,Destin,FL,32541,(850) 650-3145,30.38883,-86.42412,Florida
1339,849 E 23rd St,Panama City,FL,32405,(850) 522-4122,30.18954,-85.64674,Florida
1411,3301 Southwest 22nd Street,Coral Gables,FL,33145,(305) 448-4403,25.75013,-80.24863,Florida
1412,3101 N Miami Ave,Suite 110,33127,Miami,(305) 573-8026,25.81112,-80.19774,
1438,13141 City Station Dr Unit 1,Jacksonville,FL,32218,(904) 696-0289,30.47612328756504,-81.64268157539368,Florida
1441,10540 SW Village Parkway,Port St Lucie,FL,34953,(772) 345-2370,27.27933,-80.43626,Florida
1526,16514 SW 88th Street,Miami,FL,33196,(305) 388-7800,25.68594,-80.4006,Florida
1609,6001 Wesley Grove Blvd.,Wesley Chapel,FL,33544,(813) 994-7010,28.24402,-82.35156,Florida
1654,7850 West Commercial Blvd,Lauderhill,FL,33351,(954) 749-1555,26.19371,-80.2554,Florida
1680,3077 Daniels Road,Winter Garden,FL,34787,(407) 905-9955,28.52565,-81.58506,Florida
1683,534 North US Highway 441,Lady Lake,FL,32159,(352) 205-7196,28.931147,-81.934359,Florida
1707,6590 20th Street,Vero Beach,FL,32966,(772) 562-2234,27.63917,-80.46305,Florida
1740,6248 Commerce Palms Drive,Tampa,FL,33647,(813) 558-8160,28.11506,-82.37871,Florida
1741,11665 W Hillsborough Ave,Tampa,FL,33635,(813) 891-6371,28.01739,-82.61889,Florida
1742,2500 Posner Blvd,Davenport,FL,33837,(863) 420-4285,28.23255,-81.64975,Florida
1793,4735 Highway 90,Pace,FL,32571,(850) 994-4363,30.600908,-87.125095,Florida
1834,1819 NE Pine Island Road,Cape Coral,FL,33909,(239) 242-0141,26.67036,-81.9359,Florida
3163,2661 S Woodland Blvd,Deland,FL,32720,(386) 626-2364,28.9814165,-81.29676899999998,Florida
1921,9371 Ben C. Pratt Parkway,Fort Myers,FL,33966,(239) 274-0363,26.60916,-81.81112,Florida
1922,1345 Wendy Ct,Spring Hill,FL,34607,(352) 683-9893,28.45339,-82.63093,Florida
2046,300 N. Congress Ave.,Lake Park,FL,33403,(561) 844-8830,26.79929,-80.08503,Florida
2113,510 Linton Boulevard,Delray Beach,FL,33444,(561) 330-3760,26.43971,-80.07819,Florida
2183,1700 N. Federal Highway,Fort Lauderdale,FL,33305,(954) 563-0143,26.14942,-80.11899,Florida
2205,10401 US 441,Leesburg,FL,34788,(352) 314-2537,28.82527,-81.7848,Florida
2283,1919 Wells Road,Orange Park,FL,32073,(904) 579-2362,30.18873,-81.73692,Florida
0295,4425 14th St West,Bradenton,FL,34207,(941) 753-2201,27.45981,-82.57532,Florida
0297,10261 River Marsh Dr Unit 143,Jacksonville,FL,32246,(904) 997-1335,30.26142,-81.52648,Florida
0300,8801 Southside Blvd Ste 3,Jacksonville,FL,32256,(904) 519-8878,30.1994,-81.55013,Florida
0303,3736 SW Archer Rd,Gainesville,FL,32608,(352) 380-0112,29.6209,-82.37957,Florida
0304,3500 SW College Rd,Ocala,FL,34474,(352) 237-0700,29.15557,-82.17965,Florida
0305,380 S State Rd 434,Altamonte Springs,FL,32714,(407) 682-7220,28.65768,-81.41949,Florida
0306,4510 S US Highway 17-92,Casselberry,FL,32707,(407) 331-8991,28.67047,-81.34042,Florida
0307,6134 E Colonial Dr,Orlando,FL,32807,(407) 658-7710,28.5609,-81.30549,Florida
0308,4550 W Lake Mary Blvd,Lake Mary,FL,32746,(407) 804-1901,28.75726,-81.35531,Florida
0309,8219 S John Young Pkwy,Orlando,FL,32819,(407) 351-2336,28.4458,-81.42744,Florida
0310,731 N Alafaya Trail,Orlando,FL,32828,(407) 275-0799,28.55603,-81.20683,Florida
0311,1900 W International Speedway Blvd,Daytona Beach,FL,32114,(386) 254-7555,29.19164,-81.07423,Florida
0313,1800 Evans Rd,Melbourne,FL,32904,(321) 722-3190,28.08296,-80.65436,Florida
0315,26277 US Hwy 19 N,Clearwater,FL,33761,(727) 799-3311,28.01115,-82.73148,Florida
0317,,St Petersburg,US,FL,(727) 343-7900,27.80975,-82.75333,
0318,1051 Brandon Blvd West,Brandon,FL,33511,(813) 689-4814,27.9376,-82.3003,Florida
0319,12835 Citrus Plaza Dr,Tampa,FL,33625,(813) 926-7488,28.06391,-82.57561,Florida
0320,11331 Causeway Blvd,Brandon,FL,33511,(813) 689-3378,27.92314,-82.32185,Florida
0321,1540 N Dale Mabry Hwy,Tampa,FL,33607,(813) 875-9721,27.95643,-82.50566,Florida
0322,2920 Little Rd,Trinity,FL,34655,(727) 375-9973,28.20416,-82.66437,Florida
0326,3220 Capital Circle NE,Tallahassee,FL,32308,(850) 297-1500,30.49574,-84.24705,Florida
0332,5013 S Cleveland Ave,Fort Myers,FL,33907,(239) 277-9890,26.58741,-81.87179,Florida
0334,9585 W Colonial Dr,Ocoee,FL,34761,(407) 297-8110,28.55186,-81.51835,Florida
0335,20861 State Rd 7,Boca Raton,FL,33428,(561) 470-8085,26.36488,-80.20463,Florida
0339,2435 NW Federal Hwy,Stuart,FL,34994,(772) 692-8609,27.23092,-80.26668,Florida
0343,11950 Pines Blvd,Pembroke Pines,FL,33026,(954) 441-7005,26.00765,-80.30787,Florida
0345,4101 Oakwood Blvd,Hollywood,FL,33020,(954) 920-7658,26.04675,-80.16,Florida
0347,12051 W Sunrise Blvd,Plantation,FL,33323,(954) 916-8771,26.14587,-80.30936,Florida
0349,4151 Turtle Creek Dr,Coral Springs,FL,33067,(954) 753-0740,26.28019,-80.20491,Florida
0352,13621 S Dixie Hwy,Miami,FL,33176,(305) 253-5943,25.6426,-80.33458,Florida
0354,21095 Biscayne Blvd,Aventura,FL,33180,(305) 682-8858,25.97121,-80.14339,Florida
0356,14025 SW 88th St,Miami,FL,33186,(305) 382-9911,25.68524,-80.42169,Florida
1255,8006 Mediterranean Dr,Bldg 13,33928,Estero,(239) 948-3581,26.4085,-81.80914,
1037,6251 N Davis Hwy,Pensacola,FL,32504,(850) 476-7375,30.48736,-87.22299,Florida
1054,1115 Vidina Place,Oviedo,FL,32765,(407) 365-1029,28.65506,-81.23739,Florida
1085,10500 Ulmerton Rd Ste 308,Largo,FL,33771,(727) 518-2600,27.89077217948579,-82.78515764351653,Florida
1086,531 N State Rd #7,Royal Palm Beach,FL,33411,(561) 793-2858,26.686717,-80.20389169999999,Florida
1141,2625 Gulf To Bay,Clearwater,FL,33759,(727) 725-3755,27.96048,-82.72886,Florida
1169,7777 Dr Martin Luther King St,St Petersburg,FL,33702,(727) 577-9935,27.8439035,-82.64418649999999,Florida
2397,1779 US Highway 1 S,St Augustine,FL,32084,(904) 495-0785,29.872669,-81.32283799999999,Florida
2406,15500 Panama City Beach Pkwy #340,Panama City Beach,FL,32413,(850) 238-3245,30.219502,-85.86404160000001,Florida
2405,6370 W Indiantown Road,Jupiter,FL,33458,(561) 972-5920,26.934374,-80.13648639999997,Florida
2430,1759 Apalachee Pkwy,Tallahassee,FL,32301,(850) 688-1002,30.4344243,-84.25549039999999,Florida
2236,919 Lakeland Park Center Dr Unit 380,Lakeland,FL,33809,(863) 279-3923,28.087923,-81.969176,Florida
2424,1875 Palm Beach Lakes Blvd.,#A09,33401,West Palm Beach,(561) 223-4106,26.7203711,-80.08851870000001,
2440,8302 S Dixie Hwy,Miami,FL,33143,(305) 714-8948,25.6943509,-80.30185069999999,Florida
2454,601 Centerview Blvd.,Kissimmee,FL,34741,(407) 452-5569,28.3384813,-81.41560240000001,Florida
2483,7161 Lake Andrew Dr. Building A,Viera,FL,32940,(321) 482-5913,28.2452361,-80.72973990000003,Florida
2361,24005 US Highway 27,Lake Wales,FL,33853,(863) 855-9297,27.9588764,-81.62115749999998,Florida
2352,211 West Alexander Street,Suite A,33563,Plant City,(813) 703-6961,27.9871917,-82.12410729999999,
3008,13100 Tamiami Trail East Unit,Naples,FL,34114,(239) 207-3639,26.0608164,-81.69720899999999,Florida
3020,1410 NE 23rd St,Pompano Beach,FL,33062,(954) 283-2668,26.2574091,-80.10426819999998,Florida
3055,2415 Tarpon Bay Blvd Unit 2,Naples,FL,34119,(239) 249-5278,26.2701692,-81.73961120000001,Florida
2770,2755 E Irlo Bronson Memorial H,KISSIMMEE,FL,34744,(407) 452-5938,28.266835,-81.331583,Florida
2790,3313 Lithia Pinecrest Rd.,Valrico,FL,33596,(813) 262-9912,27.8959948,-82.24397049999999,Florida
2482,1956 3rd St S,Jacksonville Beach,FL,32250,(904) 853-2135,30.2878662,-81.39160429999998,Florida
2720,3667 Wedgewood LN,The Villages,FL,32162,(352) 561-3125,28.9285163,-82.01172959999997,Florida
2761,11700 San Jose Blvd  STE 19,JACKSONVILLE,FL,32223,(904) 831-3466,30.1598951,-81.63398769999998,Florida
1682,5270 East Highway 100,Palm Coast,FL,32164,(386) 437-7131,29.47763689502273,-81.2147692486572,Florida
2780,3130 Tampa Rd,Oldsmar,FL,34677,(727) 431-1991,28.0523501,-82.69915420000001,Florida
3098,11926 Narcoossee Rd,ORLANDO,FL,32832,(407) 362-9765,28.3923047,-81.2444056,Florida
2523,4119 NW 16th Blvd.,Gainesville,FL,32605,(352) 327-9546,29.6728871,-82.3865265,Florida
2771,6701 22nd Ave N,ST PETERSBURG,FL,33710,(727) 826-7047,27.7911776,-82.73010110000001,Florida
2204,225 NW Commons Loop ,Lake City,FL,32055,(386) 752-3064,30.18161,-82.6634,Florida
0299,356 Monument Rd,Jacksonville,FL,32225,(904) 724-4600,30.32739,-81.54803,Florida
0324,2255 Pine Ridge Rd,Naples,FL,34109,(239) 598-9889,26.21325,-81.77144,Florida
0336,335 N Congress Ave,Boynton Beach,FL,33426,(561) 738-4966,26.5286,-80.09062,Florida
0348,8241 W Flagler St Ste 101,Miami,FL,33144,(786) 275-8300,25.76977,-80.33,Florida
3175,6591 S Tamiami Trail,Sarasota,FL,34231,(941) 536-2988,27.2596634,-82.51982149999998,Florida
0338,,West Palm Beach,US,FL,,null,null,
3097,9918 LYONS RD UNIT 200,BOYNTON BEACH,FL,33472,(561) 396-2157,26.528704,-80.18789,Florida
2706,5350 Donald Ross Rd,PALM BEACH GARDENS,FL,33418,(561) 515-1663,26.8829299,-80.11082650000003,Florida
1356,3630 Peachtree Pkwy,Suwanee,GA,30024,(770) 814-8723,34.07112,-84.16796,Georgia
1442,1700 Norman Dr Ste 200,Valdosta,GA,31601,(229) 244-0856,30.84182,-83.31871,Georgia
1571,1801 Howell Mill Rd NW Ste 30,Atlanta,GA,30318,(404) 352-9746,33.80339884883636,-84.41136325886077,Georgia
1731,150 Glynn Isle,Brunswick,GA,31525,(912) 262-0198,31.20175,-81.48148,Georgia
1756,5873 Spout Springs Road,Flowery Branch,GA,30542,(770) 967-6664,34.1774,-83.91169,Georgia
1757,2701 W Hwy 54,Peachtree City,GA,30269,(770) 631-5729,33.39737,-84.5988,Georgia
1759,916 Loganville Hwy Bldg 1700,Bethlehem,GA,30620,(770) 307-4856,33.94115096389261,-83.74758820311888,Georgia
1760,4056 Atlanta Highway,Loganville,GA,30052,(678) 639-1960,33.84628,-83.91166,Georgia
2111,6050 Peachtree Pkwy,Norcross,GA,30092,(770) 300-0926,33.95167,-84.23224,Georgia
2169,4155 Austell Rd,Austell,GA,30106,(678) 945-1081,33.85148,-84.60412,Georgia
0221,11132 Abercorn St,Savannah,GA,31419,(912) 925-1116,31.98198,-81.14307,Georgia
0273,1705 Mall of Georgia Blvd 50,Buford,GA,30519,(678) 482-7449,34.06067,-83.99386,Georgia
0275,650 Ponce De Leon Ave NE,Atlanta,GA,30308,(404) 872-2363,33.77596846596425,-84.36602746494293,Georgia
0276,2940 Chapel Hill Rd,Douglasville,GA,30135,(770) 942-3326,33.72588,-84.73572,Georgia
0278,1072 Bullsboro Dr,Newnan,GA,30265,(770) 251-8086,33.39758,-84.74096,Georgia
0279,1370 Dogwood Dr SE,Conyers,GA,30013,(770) 922-1772,33.65059,-83.99895,Georgia
0280,875 Lawrenceville-Suwanee Rd,Lawrenceville,GA,30043,(770) 995-2449,33.97085,-84.01691,Georgia
0281,101 Pavilion Pkwy,Fayetteville,GA,30214,(770) 719-4444,33.4804,-84.43879,Georgia
0283,3803 Venture Dr,Duluth,GA,30096,(770) 813-8400,33.95321,-84.13698,Georgia
0284,2150 Paxton Dr SW,Lilburn,GA,30047,(770) 985-0469,33.83686,-84.07566,Georgia
0285,4023 Lavista Rd,Tucker,GA,30084,(770) 414-5126,33.84642,-84.25256,Georgia
0286,1285 Johnson Ferry Rd,Marietta,GA,30068,(770) 971-3010,33.9788955,-84.42492820000001,Georgia
0287,3221 Peachtree Rd NE,Atlanta,GA,30305,(404) 266-0402,33.84236,-84.37343,Georgia
0289,6370 North Point Pkwy,Alpharetta,GA,30022,(770) 343-8511,34.04618,-84.29159,Georgia
0290,128 Perimeter Center W,Atlanta,GA,30346,(770) 481-0043,33.92779,-84.34497,Georgia
0291,2540 Cumberland Blvd,Smyrna,GA,30080,(770) 432-8250,33.88823,-84.47506,Georgia
0292,842 Dawsonville Hwy,Gainesville,GA,30501,(770) 503-1964,34.298522,-83.854579,Georgia
0294,1591 Bradley Park Dr #A,Columbus,GA,31904,(706) 323-6788,32.53488075370944,-84.97063398811338,Georgia
1259,3335 Cobb Parkway NW Ste 500,Acworth,GA,30101,(770) 529-0748,34.03337292363501,-84.68271659126282,Georgia
1038,2730 Watson Blvd,Warner Robins,GA,31093,(478) 971-3700,32.61883,-83.67480660000001,Georgia
1048,625 Crossville Rd Ste 134,Roswell,GA,30075,(678) 352-8138,34.05962581462194,-84.38020304470513,Georgia
1049,1020 Market Place Blvd,Cumming,GA,30041,(678) 513-1689,34.18073,-84.12935,Georgia
1074,1950 Jonesboro Rd,McDonough,GA,30253,(678) 583-0287,33.46557,-84.2202,Georgia
1075,4794 Jimmy Lee Smith Pkwy Ste 108,Hiram,GA,30141,(678) 567-0583,33.886151,-84.746319,Georgia
1129,3665 Marketplace Blvd,East Point,GA,30344,(404) 344-0773,33.657561168242,-84.50327600265501,Georgia
2396,262 Pooler Pkwy,Pooler,GA,31322,(912) 988-4072,32.14158514887705,-81.25144481163943,Georgia
2560,1625 N Expressway,Griffin,GA,30223,(770) 229-7122,33.2755467,-84.29369170000001,Georgia
2439,5080 Riverside Drive,Suite 601,31201,Macon,(478) 257-3981,32.9249452,-83.71518850000001,
2351,1821 E. Victory Dr. Bldg B,Savannah,GA,31404,(912) 436-3040,32.0442344,-81.07195819999998,Georgia
2123,1791 Oconee Connector Suite 130,Athens,GA,30606,(706) 395-0670,33.9161877,-83.44632309999997,Georgia
2395,2709-11 Dawson Rd.,Albany,GA,31707,(229) 352-3209,31.6160159,-84.21943779999998,Georgia
2348,1929 Scenic Highway N,Snellville,GA,30078,(770) 225-0382,33.8728111,-84.01427849999999,Georgia
2731,145 Forest Blvd  Ste 300,Dawsonville,GA,30534,(706) 216-2625,34.351323,-84.04518,Georgia
3122,1970 N Columbia St Suite 3,MILLEDGEVILLE,GA,31061,(478) 387-7402,33.1060916,-83.25456750000001,Georgia
2749,51 N Morningside Dr,CARTERSVILLE,GA,30121,(678) 719-3021,34.1686999,-84.7868125,Georgia
1029,142 Woodstock Square Ave,Woodstock,GA,30189,(678) 445-2741,34.08403,-84.54393,Georgia
2700,863 W Oglethorpe Hwy Ste 106,Hinesville,GA,31313,(912) 255-6012,31.8187765,-81.60057,Georgia
1258,1810 Cumming Highway Ste 12,Canton,GA,30114,(770) 704-7400,34.23664988243043,-84.45878597395779,Georgia
0282,860 Cobb Place Blvd NW,Kennesaw,GA,30144,(770) 424-5226,34.01162,-84.57151,Georgia
0288,1986 Mount Zion Rd,Morrow,GA,30260,(770) 478-0860,33.56428,-84.32564,Georgia
0293,225 Robert C Daniel Jr Pkwy,Augusta,GA,30909,(706) 738-0414,33.49129,-82.07912,Georgia
3259,1307 S Peterson Ave,Ste E,31533,DOUGLAS,(912) 493-6055,31.49149161409635,-82.85273392540894,
3144,1310 West Walnut Ave,Suite #3,30720,Dalton,(706) 459-3687,34.760787,-84.993582,
2180,95-660 Lanikuhana Ave,Mililani,HI,96789,(808) 489-9231,21.453844,-158.004731,Hawaii
3047,500 N Nimitz Hwy,HONOLULU,HI,96817,(808) 664-4281,21.315135,-157.8683214,Hawaii
3046,91-5431 Kapolei Pkwy. #1701,KAPOLEI,HI,96707,(808) 638-4883,21.33367199877186,-158.0520685237732,Hawaii
1363,2410 S 25th E,Idaho Falls,ID,83404,(208) 542-9636,43.47712,-111.98458,Idaho
1933,130 N Milwaukee St,Boise,ID,83704,(208) 377-9748,43.60615,-116.28079,Idaho
0383,1220 Eagle Rd N,Meridian,ID,83642,(208) 884-0611,43.61583,-116.3545,Idaho
1042,1505 Blue Lakes Blvd N,Twin Falls,ID,83301,(208) 732-6121,42.59149,-114.46028,Idaho
2435,16925 N Market Place Blvd.,Nampa,ID,83687,(208) 546-3444,43.6118135,-116.59375549999999,Idaho
3078,1880 Hurley Dr,POCATELLO,ID,83202,(208) 244-3986,42.9096088,-112.45921140000002,Idaho
1853,5801 Belleville Crossing Street,Belleville,IL,62226,(618) 222-1634,38.5255,-90.03605,Illinois
1881,1511 State Route 50 N,Bourbonnais,IL,60914,(815) 932-0025,41.16531,-87.85121,Illinois
1882,208 River road,East Peoria,IL,61611,(309) 698-5425,40.68134,-89.58978,Illinois
1884,3111 111th St,Naperville,IL,60564,(630) 416-4864,41.68079,-88.20026,Illinois
1888,5243 State Route 251,Peru,IL,61354,(815) 220-1276,41.36991,-89.1257,Illinois
1371,428 Randall Rd,South Elgin,IL,60177,(847) 488-1732,41.98326,-88.34074,Illinois
1372,2590 N. Sutton Rd,Hoffman Estates,IL,60192,(847) 645-3366,42.07148,-88.19005,Illinois
1373,,Kildeer,US,IL,(847) 438-3404,42.16034,-88.04926,
1375,24 Countryside Plaza,Countryside,IL,60525,(708) 579-5948,41.78317,-87.86867,Illinois
1376,63 Rice Lake Square,Wheaton,IL,60189,(630) 462-7345,41.8302703,-88.10030949999998,Illinois
1377,3370 Shoppers Drive,McHenry,IL,60050,(815) 578-1530,42.36782,-88.26663,Illinois
1553,1460 Koester Dr,Forsyth,IL,62535,(217) 876-1392,39.91371,-88.95473,Illinois
1640,350 5th Street,Oswego,IL,60543,(630) 554-1272,41.70678,-88.30162,Illinois
1641,7340 West 191st Street,Tinley Park,IL,60487,(815) 464-3041,41.54396,-87.79539,Illinois
1656,21430 Wolf Rd.,Mokena,IL,60448,(815) 464-4979,41.50253,-87.88802,Illinois
1658,1101 South Canal Street,Chicago,IL,60607,(312) 588-0138,41.86826,-87.63919,Illinois
1805,2512 Sycamore Road,DeKalb,IL,60115,(815) 758-6193,41.954,-88.72112,Illinois
2044,101 E Euclid Ave.,Mt Prospect,IL,60056,(847) 870-1636,42.0875,-87.9348,Illinois
2147,700 N Milwaukee Ave,Vernon Hills,IL,60061,(847) 816-6251,42.23899,-87.94496,Illinois
2186,3210 E Lynn Blvd,Sterling,IL,61081,(815) 564-0147,41.80986,-89.65997,Illinois
2219,104 Dettro Dr,Mattoon,IL,61938,(217) 234-7800,39.48311,-88.33213,Illinois
0256,1570 W US Highway 50,O Fallon,IL,62269,(618) 624-4484,38.594753,-89.956339,Illinois
0420,500 Broadview Village Square,Broadview,IL,60155,(708) 344-2951,41.85311,-87.85209,Illinois
0421,162 S Gary Ave,Bloomingdale,IL,60108,(630) 307-8833,41.94796,-88.12055,Illinois
0422,2153 75th St,Darien,IL,60561,(630) 271-1223,41.75129,-87.99877,Illinois
0425,9277 W 159th St,Orland Hills,IL,60477,(708) 460-1116,41.60028,-87.84705,Illinois
0426,976 N Route 59,Aurora,IL,60504,(630) 851-1310,41.7721,-88.20588,Illinois
0427,2221 Oakton Ave,Evanston,IL,60202,(847) 328-1814,42.02805,-87.70776,Illinois
0428,2665 N Elston Ave.,Chicago,IL,60647,(773) 342-1300,41.93056,-87.68447,Illinois
0431,291 Skokie Blvd,Northbrook,IL,60062,(847) 562-0922,42.14743,-87.79801,Illinois
0432,4975 Cal Sag Rd,Crestwood,IL,60445,(708) 396-2900,41.65596,-87.74316,Illinois
0434,2775 Plainfield Rd,Joliet,IL,60435,(815) 439-7100,41.57814,-88.15962,Illinois
0435,140 N Barrington Rd,Schaumburg,IL,60194,(847) 798-1217,42.0274,-88.14464,Illinois
0436,6405 Grand Ave,Gurnee,IL,60031,(847) 855-7811,42.38341,-87.962,Illinois
0477,4465 US Rte 14,Crystal Lake,IL,60014,(815) 479-8059,42.2223864416081,-88.28542742858883,Illinois
0479,130 Junction Dr,Glen Carbon,IL,62034,(618) 692-9930,38.77491,-89.95504,Illinois
0491,2017 N Prospect Ave,Champaign,IL,61822,(217) 351-9244,40.14057,-88.25786,Illinois
0493,6320 E State St,Rockford,IL,61108,(815) 397-7880,42.2674,-88.99332,Illinois
0494,5001 Big Hollow Rd,Peoria,IL,61615,(309) 691-9144,40.74818,-89.63814,Illinois
0495,3183 S Veterans Pkwy,Springfield,IL,62704,(217) 698-3091,39.75967,-89.70646,Illinois
1262,8287 W Golf Rd,Niles,IL,60714,(847) 966-0867,42.05468,-87.8315,Illinois
1102,159 N Weber Rd,Bolingbrook,IL,60490,(630) 771-9777,41.69937,-88.12412,Illinois
1136,1550 Butterfield Rd,Downers Grove,IL,60515,(630) 627-0193,41.83351,-88.02623,Illinois
1139,5485 Touhy Ave,Skokie,IL,60077,(847) 674-4654,42.01185,-87.765,Illinois
1181,1440 E Golf Rd,Schaumburg,IL,60173,(847) 413-0982,42.05053,-88.04303,Illinois
1189,1526 West Lane Rd,Machesney Park,IL,61115,(815) 654-1766,42.3657,-89.01429,Illinois
2579,1511 Waukegan Rd,Glenview,IL,60025,(847) 904-1556,42.0827102,-87.79826630000002,Illinois
2458,4146 South Pulaski Road,Chicago,IL,60632,(773) 299-9611,41.81818529582018,-87.72421634788515,Illinois
2525,3736 N Halsted St,Chicago,IL,60613,(773) 289-5352,41.950423,-87.65013399999998,Illinois
2526,4640 W Irving Park Rd.,Chicago,IL,60641,(773) 272-9119,41.955453,-87.74417499999998,Illinois
2310,2603 West 95th Street,Evergreen Park,IL,60805,(708) 459-9112,41.7208739,-87.68802470000003,Illinois
2524,5210 N Broadway St.,Chicago,IL,60640,(773) 250-0201,41.976581,-87.65991029999998,Illinois
2554,3319 N Ashland Ave.,Chicago,IL,60657,(773) 289-5494,41.9420268,-87.66870510000001,Illinois
2262,1415 N. Kingsbury St.,Chicago,IL,60642,(312) 279-2026,41.9066519,-87.65061609999998,Illinois
2349,4160 10th Street Drive,Moline,IL,61265,(309) 517-2308,41.469816,-90.522982,Illinois
1659,985 Erica Lane,Yorkville,IL,60560,(630) 553-2117,41.66354,-88.46432,Illinois
2602,106 N. Maple Ave,Oak Park,IL,60301,(708) 622-9486,41.8874603,-87.80358810000001,Illinois
3057,1606 Empire St,Bloomington,IL,61701,(309) 585-3961,40.4883386,-88.95632109999997,Illinois
0423,7730 S Cicero Ave,Burbank,IL,60459,(708) 346-9500,41.75208,-87.74155,Illinois
0429,1512 S Randall Rd,Geneva,IL,60134,(630) 232-6467,41.87337,-88.34048,Illinois
0476,,Chicago,US,IL,(773) 836-7578,41.92356,-87.79202,
2332,4824 Lincoln Hwy.,Matteson,IL,60443,(708) 300-3108,41.5062579,-87.73299930000002,Illinois
3262,20393 North Rand Road SUITE 102,Kildeer,IL,60074,(847) 719-8295,42.1621333,-88.0477489,Illinois
3153,1995 National Blvd Ste 100,GALESBURG,IL,61401,(309) 343-3185,40.9728546,-90.38110469999998,Illinois
3274,2534 N Narragansett Ave,CHICAGO,IL,60639,(773) 295-9288,41.9254379,-87.78560540000001,Illinois
1841,10035 Lima Road,Ft Wayne,IN,46818,(260) 489-0870,41.17444,-85.16604,Indiana
1374,711 US Hwy 41,Schererville,IN,46375,(219) 864-0411,41.51175,-87.46945,Indiana
1430,1290 E Ireland Rd,Bldg E,46614,South Bend,(574) 231-9380,41.62912,-86.2327,
1473,17180 Mercantile Blvd,Noblesville,IN,46060,(317) 770-0301,40.03803,-85.9917,Indiana
1475,5750 West 86th Street,Indianapolis,IN,46278,(317) 802-9025,39.9091,-86.26453,Indiana
1476,3680 S US Hwy 41,Terre Haute,IN,47802,(812) 235-9010,39.41516,-87.41648,Indiana
1718,1020 Veterans Pkwy,Ste 900,47129,Clarksville,(812) 285-1905,38.32539,-85.76706,
1944,10697 East US Highway 36,Avon,IN,46123,(317) 209-9461,39.76355,-86.36172,Indiana
0437,2881 E US Highway 30,Merrillville,IN,46410,(219) 942-5598,41.469986,-87.299965,Indiana
0502,215 N Burkhardt Rd,Evansville,IN,47715,(812) 476-6462,37.97899,-87.47394,Indiana
0503,240 N Gates Dr,Bloomington,IN,47404,(812) 334-9780,39.16792,-86.57622,Indiana
0504,14720 Greyhound Plaza,Carmel,IN,46032,(317) 815-9568,40.00219,-86.12902,Indiana
0505,4216 S Scatterfield Rd,Anderson,IN,46013,(765) 643-5799,40.07259,-85.65272,Indiana
0506,3450 N Morrison Rd,Muncie,IN,47304,(765) 286-0878,40.22244,-85.44267,Indiana
0507,4540 Grape Rd,Mishawaka,IN,46545,(574) 243-5525,41.7009,-86.18745,Indiana
0508,3500 IN-38,Lafayette,IN,47905,(765) 447-3306,40.4004422,-86.8535639,Indiana
0509,2677 E Main St,Plainfield,IN,46168,(317) 837-9138,39.7158,-86.36069,Indiana
0510,5151 E 82nd St,Castleton,IN,46250,(317) 579-0590,39.90462,-86.07946,Indiana
0514,9749 E Washington St,Indianapolis,IN,46229,(317) 898-3197,39.77462,-85.9955,Indiana
1009,1760 Apple Glen Blvd,Fort Wayne,IN,46804,(260) 436-7323,41.06938,-85.19978,Indiana
1065,7801 US Hwy 31 S,Indianapolis,IN,46227,(317) 865-3509,39.65309490000001,-86.13597820000001,Indiana
2446,205 County Road 6 E Ste Z,Elkhart,IN,46514,(574) 584-7665,41.72443119777428,-85.98165566931152,Indiana
2350,122 Dunes Plaza,Michigan City,IN,46360,(219) 221-4131,41.67862179999999,-86.89755600000001,Indiana
2311,640 W 300N,Warsaw,IN,46582,(574) 269-7511,41.279959,-85.855171,Indiana
2211,4014 S Western Ave,Marion,IN,46953,(765) 206-3307,40.52070550000001,-85.6734017,Indiana
3061,2211 Barrett Dr,Greenfield,IN,46140,(317) 468-7614,39.8189068,-85.76834350000001,Indiana
1840,10260 Maysville Road,Ft Wayne,IN,46835,(260) 486-6151,41.12916,-85.0121,Indiana
3060,1080 N Morton St,Franklin,IN,46131-5526,(317) 494-4189,39.480534,-86.06406820000001,Indiana
2511,399 Grand Valley Blvd.,Martinsville,IN,46151,(765) 341-2213,39.4166461,-86.40807459999996,Indiana
3235,150 Silhavy Rd,Suite 110,46383,VALPARAISO,(219) 707-4233,41.46729939999999,-87.0276781,
3160,1367 S. Reed Rd,Kokomo,IN,46902,(765) 252-2727,40.4676419,-86.1080576,Indiana
1345,1506 Flammang Dr,Waterloo,IA,50702,(319) 287-4027,42.45993,-92.32752,Iowa
1451,5001 Sergeant Rd #150,Sioux City,IA,51106,(712) 266-0965,42.4472279610987,-96.33940237693787,Iowa
1678,5050 SE 14th St,Des Moines,IA,50320,(515) 256-0691,41.53786,-93.59689,Iowa
1702,1300 John F  Kennedy Rd,Dubuque,IA,52002,(563) 557-8001,42.49583,-90.71998,Iowa
1943,815 McDermott Street,Council Bluffs,IA,51501,(712) 366-8060,41.21982,-95.83635,Iowa
0271,5235 Elmore Ave,Davenport,IA,52807,(563) 355-8050,41.57378,-90.52858,Iowa
1132,1715 SE Delaware Ave,Ankeny,IA,50021,(515) 289-0667,41.71213,-93.58118,Iowa
1133,11101 University Ave Ste B,Clive,IA,50325,(515) 221-2295,41.60048,-93.77051,Iowa
2753,1451 Coral Ridge Ave #1900,Coralville,IA,52241,(319) 499-4879,41.690327,-91.60528310000001,Iowa
3108,3825 Westdale Pkwy SW,Cedar Rapids,IA,52404,(319) 720-3110,41.9546999,-91.72102949999999,Iowa
1346,4810 First Avenue NE,Cedar Rapids,IA,52402,(319) 447-2509,42.0255,-91.62179,Iowa
3216,301 South 16th St  Suite 102,AMES,IA,50010,(515) 735-3225,42.0083722,-93.6125694,Iowa
0240,5810 Antioch Rd,Merriam,KS,66202,(913) 384-4445,39.02396,-94.6892,Kansas
0241,15255 W 119th St,Olathe,KS,66062,(913) 393-4111,38.91191,-94.76478,Kansas
0242,15200 Shawnee Mission Pkwy,Shawnee Mission,KS,66217,(913) 248-9300,39.01024,-94.7626,Kansas
0244,2020 SW Westport Dr,Topeka,KS,66604,(785) 272-3323,39.0305,-95.75723,Kansas
0245,3615 N Rock Rd,Wichita,KS,67226,(316) 630-8026,37.74949,-97.24632,Kansas
0246,533 S Tracy St,Wichita,KS,67209,(316) 944-0470,37.67558,-97.39441,Kansas
2383,805 S Seth Child Rd,Manhattan,KS,66502,(785) 560-3185,39.172283,-96.60223099999996,Kansas
2473,2727 Iowa St.,Suite E,66046,Lawrence,(785) 312-3009,38.933418,-95.262426,
2370,11739 East Kellogg Dr.,Wichita,KS,67207,(316) 361-5174,37.6792132,-97.20172009999999,Kansas
2752,4820 Bauer Farm Drive,LAWRENCE,KS,66049,(785) 592-6400,38.97242790000001,-95.30522529999996,Kansas
2413,7738 State Avenue,Kansas City,KS,66112,(913) 998-7741,39.1164518,-94.75995649999999,Kansas
0237,11501 Metcalf Ave,Overland Park,KS,66210,(913) 338-5544,38.91662,-94.66617,Kansas
1545,310 East Brannon Road,Nicholasville,KY,40356,(859) 271-8170,37.95753,-84.54171,Kentucky
0653,2929 James Sanders Blvd Ste F,Paducah,KY,42001,(270) 575-9300,37.0731,-88.68357,Kentucky
0656,1945 Pavillion Way,Lexington,KY,40509,(859) 543-1188,38.0225,-84.4172,Kentucky
0672,1060 Hansel Ave,Florence,KY,41042,(859) 525-9215,39.02026,-84.63195,Kentucky
1968,5241 Frederica St,Owensboro,KY,42301,(270) 688-0412,37.71278,-87.12646,Kentucky
2184,2175 Lantern Ridge Drive,Richmond,KY,40475,(859) 623-3124,37.73782,-84.32768,Kentucky
1117,3580 S Hurstbourne Pkwy,Louisville,KY,40299,(502) 495-0213,38.19632,-85.60363,Kentucky
1168,10308 Westport Rd,Louisville,KY,40241,(502) 326-0271,38.29291,-85.5609,Kentucky
1177,4601 Outer Loop Rd,Louisville,KY,40219,(502) 969-8206,38.13936,-85.67333,Kentucky
2389,2300 Gary Farms Blvd Ste 600,Bowling Green,KY,42104,(270) 495-2259,36.9593639,-86.4296766,Kentucky
2344,156 Pavilion Parkway,Newport,KY,41071,(859) 814-0052,39.0908282,-84.47707889999998,Kentucky
2384,479 River Hill Drive,Ashland,KY,41101,(606) 744-2261,38.4846927,-82.66094099999998,Kentucky
2760,4813 Fort Campbell Blvd,HOPKINSVILLE,KY,42240,(270) 987-3480,36.8159933,-87.47166270000002,Kentucky
3240,1820 N Dixie Ave.,ELIZABETHTOWN,KY,42701,(270) 370-3756,37.7363511,-85.8891156,Kentucky
1878,1653 Millerville Rd,Baton Rouge,LA,70816,(225) 275-4858,30.44556,-91.02447,Louisiana
1879,4429 Pecanland Mall Dr,Monroe,LA,71201,(318) 325-7125,32.49894332849322,-92.06737572698364,Louisiana
1350,1743 Martin Luther King Jr Blvd,Houma,LA,70360,(985) 876-5426,29.61204,-90.75498,Louisiana
1414,7061 Youree Dr,Shreveport,LA,71105,(318) 798-6623,32.44246,-93.71788,Louisiana
1806,2631 Beene Blvd,Bossier City,LA,71111,(318) 742-7025,32.55971,-93.71248,Louisiana
0635,45 Park Place Dr,Covington,LA,70433,(985) 875-0446,30.44385,-90.08985,Louisiana
0637,8660 Airline Hwy,Baton Rouge,LA,70815,(225) 929-9590,30.44899423175232,-91.09578789947511,Louisiana
0638,5700 Johnston St Ste 10,Lafayette,LA,70503,(337) 984-5319,30.1777845553524,-92.07938061977387,Louisiana
1018,3130 E Prien Lake Rd,Lake Charles,LA,70615,(337) 478-6459,30.19691049999999,-93.17286709999999,Louisiana
1019,2685 S MacArthur Dr,Alexandria,LA,71301,(318) 443-3350,31.26932,-92.45951,Louisiana
1078,10527 S Mall Dr,Baton Rouge,LA,70809,(225) 292-0479,30.37344,-91.06009,Louisiana
1175,6851 Veterans Memorial Blvd,Metairie,LA,70003,(504) 455-2222,30.00651,-90.21678,Louisiana
2274,290 Town Center Parkway,Slidell,LA,70458,(985) 718-3254,30.26614808268606,-89.75841133831483,Louisiana
3010,111 Meadow Farm Rd,#120,70508,Lafayette,(337) 347-5642,30.1576955,-92.04431199999999,
2535,1846 N. Causeway Blvd Ste B,Mandeville,LA,70471,(985) 231-3115,30.3930414,-90.09200880000003,Louisiana
2296,40451 Lowes Ave.,Gonzales,LA,70737,(225) 644-1794,30.2499998,-90.92349430000002,Louisiana
2503,1102 East Admiral Doyle Dr,New Iberia,LA,70560,(337) 606-4591,29.98447340962793,-91.82173180160521,Louisiana
2375,2900 South Claiborne Ave.,Suite 300,70115,New Orleans,(504) 249-6305,29.9417696,-90.09547659999998,
2273,10129 Crossing Way,Suite 450,70726,Denham Springs,(225) 271-2295,30.4417584,-91.01896069999998,
1023,1000 S Clearview Pkwy Ste 105,Harahan,LA,70123,(504) 733-2016,29.95826,-90.18318,Louisiana
1034,1321 Manhattan Blvd,Harvey,LA,70058,(504) 263-0879,29.89558,-90.06082,Louisiana
3214,1920 Hammond Square Dr.,Hammond,LA,70403,(985) 277-3010,30.4818443,-90.4600997,Louisiana
1365,14 Crossing Way,Suite 2,04330,Augusta,(207) 622-5989,44.31226,-69.80755,
1366,208 Mariner Way,Biddeford,ME,04005,(207) 283-6546,43.47578,-70.51076,Maine
2300,482 Stillwater Ave Ste 2A,Bangor,ME,04401,(207) 922-3059,44.82700094999487,-68.75733682222904,Maine
3071,147 Bath Rd Ste A140,Brunswick,ME,04011,(207) 844-6122,43.9080526,-69.92424619999997,Maine
2437,700 Gallery Blvd Unit B,Scarborough,ME,04074,(207) 289-2738,43.62248153370239,-70.34061369629518,Maine
1330,7475 Greenbelt Rd,Greenbelt,MD,20770,(301) 220-1295,38.99428,-76.87878,Maryland
1348,6800 Wisconsin Ave,Bethesda,MD,20815,(240) 497-1350,38.97781,-77.09135,Maryland
1364,13600 Baltimore Ave Ste 160,Laurel,MD,20707,(301) 497-3253,39.07814318446438,-76.86829697287749,Maryland
1482,57 W Aylesbury Rd,Lutherville,MD,21093,(410) 308-1140,39.43978,-76.62772,Maryland
1830,28533 Marlboro Ave.,Easton,MD,21601,(410) 763-6548,38.78235,-76.08697,Maryland
2191,10400 Southern Maryland Blvd,Dunkirk,MD,20754,(410) 257-1743,38.72022,-76.66231,Maryland
0357,1238 Putty Hill Ave,Towson,MD,21286,(410) 823-4593,39.39339,-76.58098,Maryland
0358,4500 Mitchellville Rd,Bowie,MD,20716,(301) 352-7286,38.94566,-76.72268,Maryland
0359,2601 Housley Rd,Annapolis,MD,21401,(410) 571-8646,38.99026,-76.55553,Maryland
0360,597-C E Ordnance Rd,Glen Burnie,MD,21060,(410) 582-9444,39.20434,-76.59329,Maryland
0361,9041 Snowden Square Dr,Columbia,MD,21046,(410) 312-0950,39.1832197,-76.81717300000003,Maryland
0362,9921 Pulaski Hwy,Baltimore,MD,21220,(410) 687-6101,39.35969,-76.44674,Maryland
0363,20924 Frederick Rd,Germantown,MD,20876,(301) 916-2029,39.20197,-77.25012,Maryland
0364,602 Boulton St,Bel Air,MD,21014,(410) 638-0330,39.52784,-76.35931,Maryland
0365,24 Mountain Rd,Glen Burnie,MD,21060,(410) 766-7190,39.13581,-76.59659,Maryland
0367,6501 C Baltimore National Pike,Catonsville,MD,21228,(410) 747-8570,39.28545,-76.7617,Maryland
0369,1559 Merritt Blvd,Dundalk,MD,21222,(410) 285-6302,39.27243,-76.5024,Maryland
0443,3045 Festival Way,Waldorf,MD,20601,(301) 705-5308,38.62794,-76.91092,Maryland
0449,5154 Nicholson Lane,Kensington,MD,20895,(301) 770-1343,39.04498,-77.10629,Maryland
0454,6005 Oxon Hill Road,Oxon Hill,MD,20745,(301) 839-4900,38.80533,-76.97587,Maryland
0455,5401 Urbana Pike,Frederick,MD,21704,(301) 662-2033,39.37984,-77.39897,Maryland
0456,105 E Northpoint Blvd,Salisbury,MD,21804,(410) 546-4822,38.41583709344496,-75.56343653701782,Maryland
0457,17740 Garland Groh Blvd,Hagerstown,MD,21740,(301) 665-2820,39.65463,-77.75132,Maryland
1006,12020 Cherry Hill Rd,Silver Spring,MD,20904,(301) 586-8262,39.05432,-76.95702,Maryland
1035,218 Kentlands Blvd,Gaithersburg,MD,20878,(301) 977-9677,39.12313,-77.23652,Maryland
1076,7663 Arundel Mills Blvd.,Hanover,MD,21076,(443) 755-9936,39.15269,-76.72868,Maryland
1182,10464 Campus Way South,Largo,MD,20774,(301) 350-4099,38.89249,-76.82367,Maryland
2576,12317 Winchester Road SW Ste 4,Lavale,MD,21502,(301) 723-7662,39.62674962839119,-78.83965144907381,Maryland
2781,9200 Baltimore National Pike S,Ellicott City,MD,21042,(410) 696-1296,39.2786833,-76.8311488,Maryland
2317,2450 Osprey Way,Frederick,MD,21701,(240) 397-7349,39.448721,-77.39377389999999,Maryland
3096,45315 Alton Lane Ste 16084,California,MD,20619-3119,(240) 895-8013,38.2949488,-76.50782670000001,Maryland
3136,111 Big Elk Mall,ELKTON,MD,21921,(410) 441-3599,39.5993607,-75.8237378,Maryland
1817,412 Constant Friendship Boulevard,Abingdon,MD,21009,(410) 569-8947,39.45942,-76.31799,Maryland
3147,11330 Samuel Bowen Blvd  STE # 100,Berlin,MD,21811,(410) 600-3277,38.3420262,-75.16125439999996,Maryland
1390,625 Baltimore Blvd,Westminster,MD,21157,(410) 751-9380,39.56337,-76.97255,Maryland
1606,,Owings Mills,US,MD,(410) 363-3804,null,null,
3231,10240 Mill Run Circle Ste 102,OWINGS MILLS,MD,21117,(410) 413-4087,39.40519038875615,-76.7906138343933,Maryland
1355,88 Shops at 5 Way,Plymouth,MA,02360,(508) 746-2077,41.92806,-70.65259,Massachusetts
1582,1 Worcester Rd,Framingham,MA,01701,(508) 370-9612,42.30115158427571,-71.39614947486876,Massachusetts
1706,160 Alewife Brook Parkway,Cambridge,MA,02138,(617) 349-3481,42.39036,-71.14075,Massachusetts
1747,89 Commercial Road,Leominster,MA,01453,(978) 514-9922,42.53212,-71.7434,Massachusetts
1961,114A Commerce Way,Woburn,MA,01801,(781) 460-2240,42.51648,-71.13754,Massachusetts
1962,358 Broadway,Saugus,MA,01906,(781) 941-2920,42.48279,-71.01991,Massachusetts
1964,1207 Washington St.,Hanover,MA,02339,(781) 826-8174,42.13829,-70.84218,Massachusetts
2164,6106 Shops Way,Northborough,MA,01532,(508) 351-6085,42.29022,-71.67279,Massachusetts
2165,265 Chelmsford St,Chelmsford ,MA,01824,(978) 256-5056,42.61166,-71.33471,Massachusetts
1167,70 Worcester Providence Turnpike St,Millbury,MA,01527,(508) 865-4241,42.19645645699118,-71.7790759338684,Massachusetts
1197,10 Traders Way,Salem,MA,01970,(978) 745-2112,42.50124,-70.92183,Massachusetts
2481,490A Memorial Drive,Chicopee,MA,01020,(413) 377-2883,42.16127059999999,-72.58200090000003,Massachusetts
2419,215 Needham Street,Newton,MA,02464,(617) 831-4580,42.3106376,-71.21433360000003,Massachusetts
2415,271 University Avenue,Westwood,MA,02090,(781) 355-7781,42.2023556,-71.1541631,Massachusetts
2480,270 New Highway Route 44,Raynham,MA,02767,(774) 409-4134,41.9067,-71.056362,Massachusetts
2567,573-2 G.A.R. Highway Route 6,Swansea,MA,02777,(774) 627-3795,41.748738,-71.20522,Massachusetts
0789,1385 S Washington St,North Attleboro,MA,02760,(508) 695-2300,41.93765,-71.34603,Massachusetts
0790,250 Grossman Dr,Braintree,MA,02184,(781) 356-5980,42.21146,-70.99911,Massachusetts
0791,5 Mystic View Rd,Everett,MA,02149,(617) 387-2568,42.4017,-71.07008,Massachusetts
0792,104 Andover St,Danvers,MA,01923,(978) 774-3694,42.55464,-70.96524,Massachusetts
0797,213 Hartford Ave,Bellingham,MA,02019,(508) 966-0048,42.11403,-71.46961,Massachusetts
2299,98 Providence Hwy,East Walpole,MA,02032,(508) 734-3215,42.1540993,-71.20555589999998,Massachusetts
2724,2 Bourne Bridge Approach St, Ste 2,02532,Bourne,(774) 247-3067,41.7521124,-70.59472349999999,
2717,367 Russell St Suite B04,Hadley,MA,01035,(413) 923-3271,42.35646879999999,-72.54773990000001,Massachusetts
3087,540 William S. Canning Blvd,FALL RIVER,MA,02721,(774) 955-5379,41.6729977,-71.16050259999997,Massachusetts
2386,9 Highland Commons East,Hudson,MA,01749,(978) 763-3081,42.394533,-71.58802000000003,Massachusetts
0781,1070 Iyannough Rd,Hyannis,MA,02601,(508) 778-1601,41.67268,-70.30431,Massachusetts
1865,4485 24th Avenue Bldg 200,Fort Gratiot,MI,48059,(810) 385-4684,43.03898582290488,-82.4595008690643,Michigan
1431,5200 W Main St,Kalamazoo,MI,49009,(269) 382-4171,42.29611,-85.65695,Michigan
1637,734 E Big Beaver Rd,Troy,MI,48083,(248) 743-0399,42.56261,-83.12931,Michigan
1638,23470 Allen Rd,Woodhaven,MI,48183,(734) 362-8568,42.13828,-83.22602,Michigan
1639,28556 Telegraph Rd,Southfield,MI,48034,(248) 799-9155,42.49787,-83.28487,Michigan
1704,6910 Eastman Ave,Midland,MI,48642,(989) 832-6131,43.65891,-84.24713,Michigan
1720,1042 Fairplan Drive,Benton Harbor,MI,49022,(269) 926-1057,42.0829,-86.433,Michigan
1721,2347 N Telegraph Road,Monroe,MI,48162,(734) 457-9122,41.95474,-83.39696,Michigan
1799,,Rochester Hills,MI,48309,,42.6582,-83.1823,Michigan
0686,385 Haggerty Highway,Commerce Township,MI,48390,(248) 624-4752,42.53115,-83.43778,Michigan
0687,45050 Northpointe Blvd,Utica,MI,48315,(586) 323-7030,42.62773,-83.00014,Michigan
0688,17677 Haggerty Rd,Northville,MI,48168,(248) 347-4337,42.41393,-83.43256,Michigan
0689,23271 Eureka Rd,Taylor,MI,48180,(734) 374-8106,42.19778,-83.25868,Michigan
0691,5650 Mercury Dr,Dearborn,MI,48126,(313) 441-3244,42.33028,-83.20425,Michigan
0695,2865 Oak Valley Dr,Ann Arbor,MI,48103,(734) 222-0488,42.24576,-83.77039,Michigan
0700,51347 Gratiot Ave,Chesterfield,MI,48051,(586) 949-3026,42.68117,-82.82805,Michigan
2297,1511 Boardman Rd.,Jackson,MI,49202,(517) 960-2223,42.26801,-84.43421,Michigan
1064,4645 Canal Ave SW,Grandville,MI,49418,(616) 406-3344,42.88018,-85.77232,Michigan
0715,4061 Miller Rd,Flint,MI,48507,(810) 733-6311,42.9817,-83.75348,Michigan
0716,6260 Saginaw Rd,Grand Blanc,MI,48439,(810) 953-0019,42.9382,-83.64284,Michigan
0717,3950 28th St SE,Kentwood,MI,49512,(616) 957-1409,42.91111559141377,-85.5699127116394,Michigan
0718,1720 E Sherman Blvd,Muskegon,MI,49444,(231) 737-1165,43.20565,-86.19894,Michigan
0723,3431 Tittabawassee Rd,Saginaw,MI,48604,(989) 793-4266,43.48012,-83.98459,Michigan
0724,5135 Times Square Place,Okemos,MI,48864,(517) 347-6656,42.72739,-84.41413,Michigan
0725,305 N Marketplace Blvd,Lansing,MI,48917,(517) 622-1542,42.73608,-84.67258,Michigan
0727,2544 Crossing Circle,Traverse City,MI,49684,(231) 947-4714,44.72499,-85.63473,Michigan
2312,3550 US 41 W,Marquette,MI,49855,(906) 226-4639,46.550942,-87.472628,Michigan
2298,4218 E Blue Grass Rd,Mount Pleasant,MI,48858,(989) 546-2145,43.5744451960768,-84.76347791457215,Michigan
3036,1072 S Laston RD,Howell,MI,48843,(517) 338-3550,42.6001808,-83.87443530000002,Michigan
0701,8537 W Grand River Ave,Brighton,MI,48116,(810) 229-8355,42.54236,-83.78738,Michigan
2779,3120 Carpenter Rd,Ypsilanti,MI,48197,(734) 205-3192,42.2444993,-83.68221499999999,Michigan
1050,13150 Middlebelt Rd,Livonia,MI,48150,(734) 525-6504,42.38031,-83.33355,Michigan
3159,2344 M-32 West Unit F,Gaylord,MI,49735,(989) 217-3095,45.02991040000001,-84.72165389999998,Michigan
3125,4101 Wilder Rd E501,BAY CITY,MI,48706,(989) 391-3664,43.6262228,-83.89039109999999,Michigan
2536,27942 Woodward Ave,Royal Oak,MI,48067,(248) 397-0264,42.4954759,-83.163745,Michigan
1951,47142 Michigan Avenue,Canton,MI,48188,(734) 495-0715,42.26854,-83.50023,Michigan
0685,20530 E Thirteen Mile Rd,Roseville,MI,48066,(586) 294-8292,42.5240109,-82.9107969,Michigan
0694,1116 S Rochester Rd,Rochester Hills,MI,48307,(248) 652-6537,42.66496,-83.13313,Michigan
1391,,Canton,US,MI,,null,null,
3194,12635 Felch Street STE 40,Holland,MI,49424,(616) 820-0390,42.8222314,-86.09403529999997,Michigan
3246,2197 S Telegraph Rd.,Bloomfield Hills,MI,48302,(248) 209-0643,42.6080546,-83.2943444,Michigan
1870,4603 Maine Ave SE Ste 109,Rochester,MN,55904,(507) 252-9589,43.95619956208222,-92.4653562116394,Minnesota
1585,11200 Fountains Dr North,Maple Grove,MN,55369,(763) 424-3639,45.09295,-93.42259,Minnesota
1597,3845 Marketplace Dr NW,Rochester,MN,55901,(507) 535-7600,44.06309,-92.50132,Minnesota
1719,1425 7th St. E,Monticello,MN,55362,(763) 271-1001,45.29489,-93.77857,Minnesota
1971,2480 Fairview Ave N,Roseville,MN,55113,(651) 639-3912,45.01518,-93.17504,Minnesota
0458,11200 Prairie Lakes Dr,Eden Prairie,MN,55344,(952) 941-4660,44.85476,-93.41918,Minnesota
0460,1640 New Brighton Blvd,Minneapolis,MN,55413,(612) 788-7045,45.00427,-93.22814,Minnesota
0461,2370 White Bear Ave N,Maplewood,MN,55109,(651) 777-9533,45.01273559455325,-93.01961877777103,Minnesota
0462,14290 Plymouth Ave,Burnsville,MN,55337,(952) 898-4400,44.74163,-93.2725,Minnesota
0463,5640 Cedar Lake Rd S,Minneapolis,MN,55416,(952) 797-9798,44.96404021987238,-93.3507805251312,Minnesota
0465,4190 Vinewood Ln N,Plymouth,MN,55442,(763) 551-8999,45.02973065636448,-93.44665335449218,Minnesota
0469,1297 Promenade Pl Ste 2A,Eagan,MN,55121,(651) 452-1140,44.83651010422667,-93.15764866235736,Minnesota
0471,320 2nd St S,Waite Park,MN,56387,(320) 251-4459,45.54988,-94.21973,Minnesota
0472,3589 River Rapids Dr NW,Coon Rapids,MN,55448,(763) 421-0179,45.19904371997864,-93.35600630157472,Minnesota
2412,8014 Old Carriage CT,Shakopee,MN,55379,(952) 563-0707,44.776928,-93.41486499999996,Minnesota
2507,200 Western Ave.  B-3,Faribault,MN,55021,(507) 412-4095,44.2925029,-93.30291069999998,Minnesota
3024,10451 Baltimore St NE,Blaine,MN,55449,(763) 614-3055,45.1571267,-93.23343569999997,Minnesota
2787,299 12th Street SW,FOREST LAKE,MN,55025,(651) 234-1240,45.2790239,-92.9987754,Minnesota
2734,1890 ADAMS ST,MANKATO,MN,56001,(507) 387-6278,44.1725032,-93.94964949999996,Minnesota
2735,1732 Mall Drive,Duluth,MN,55811,(218) 213-9465,46.8060944,-92.16524429999998,Minnesota
2733,16001 Elmhurst Lane,Lakeville,MN,55044,(952) 594-8778,44.71680411727285,-93.17235191667174,Minnesota
2755,13499 Elmwood Dr.,Suite 120,56425,BAXTER,(218) 454-2040,46.3464715,-94.24619050000001,
2754,18050 Zane St. NW,Elk River,MN,55330,(763) 567-7941,45.29808680000001,-93.5508433,Minnesota
3169,2323 1st St. S,Willmar,MN,56201,(320) 214-1930,45.10008699999999,-95.04101179999998,Minnesota
0459,1100 West 78th St,Richfield,MN,55423,(612) 798-3665,44.86211,-93.29362,Minnesota
0467,8460 Tamarack Village,Woodbury,MN,55125,(651) 702-9779,44.94088,-92.93704,Minnesota
3221,7240 E Point Douglas Rd. S Suite 190,Cottage Grove,MN,55016,(651) 355-1822,44.8314456,-92.9573264,Minnesota
3179,1320 Hwy 15 S Ste 103,HUTCHINSON,MN,55350,(320) 587-4335,44.8700981,-94.37821969999999,Minnesota
1843,3948 Promenade Parkway,D'Iberville,MS,39540,(228) 396-1540,30.45522,-88.90166,Mississippi
0625,6143 Highway 98 Ste 50,Hattiesburg,MS,39402,(601) 261-0715,31.32113,-89.38483,Mississippi
0629,1040 Cross Creek Dr,Saltillo,MS,38866,(662) 842-6783,34.31692,-88.69537,Mississippi
0633,15134 Crossroads Pkwy,Gulfport,MS,39503,(228) 539-9722,30.437155,-89.089715,Mississippi
2148,2303 Jackson Ave W,Oxford,MS,38655,(662) 234-7063,34.36214,-89.56463,Mississippi
2203,1486 Old Aberdeen Rd,Columbus,MS,39705,(662) 244-3397,33.51433,-88.43192,Mississippi
0520,6333 N I-55,Jackson,MS,39213,(601) 956-4444,32.39723,-90.14589,Mississippi
1235,198 Promenade Blvd,Flowood,MS,39232,(601) 992-7076,32.34187,-90.059,Mississippi
3253,601 Highway 12 W,Suite 651,39759,STARKVILLE,(662) 270-4060,33.45010822947796,-88.83606593488464,
1872,229 N Stadium Blvd,Columbia,MO,65203,(573) 447-0145,38.95925,-92.37132,Missouri
1401,8600 Ward Pkwy,Kansas City,MO,64114,(816) 363-3306,38.97301,-94.60619,Missouri
1685,1846 Wentzville Parkway,Wentzville,MO,63385,(636) 327-5125,38.8151,-90.87568,Missouri
1686,12046 Paul Mayer Ave,Bridgeton,MO,63044,(314) 209-1661,38.74848,-90.42466,Missouri
1687,131 Highland Boulevard Drive,Manchester,MO,63011,(636) 527-3661,38.59302,-90.50807,Missouri
1689,1157 E North Ave,Belton,MO,64012,(816) 348-7956,38.81377,-94.51651,Missouri
1894,8970 NW Skyview Ave.,Kansas City,MO,64154,(816) 746-5392,39.25690503436174,-94.65367184736021,Missouri
2041,828 Arnold Commons Drive,Arnold,MO,63010,(636) 287-3448,38.44021,-90.38203,Missouri
2202,731 Stoneridge Pkwy,Jefferson City,MO,65109,(573) 761-5231,38.57937,-92.22026,Missouri
0238,4010 S Bolger Dr,Independence,MO,64055,(816) 350-2100,39.04631,-94.36458,Missouri
0257,2861 Veterans Memorial Pkwy,Saint Charles,MO,63303,(636) 925-1717,38.78486,-90.52732,Missouri
0260,10900 Sunset Hills Plz,Saint Louis,MO,63127,(314) 909-0068,38.55352,-90.41055,Missouri
0267,3500-S S Glenstone Ave,Springfield,MO,65804,(417) 887-7737,37.14866,-93.25619,Missouri
0268,262 THF Blvd,Chesterfield,MO,63005,(636) 536-4986,38.66742,-90.60026,Missouri
0269,520 Range Line Rd,Joplin,MO,64801,(417) 659-9449,37.08595,-94.47729,Missouri
0270,2242 Highway K,O'Fallon,MO,63368,(636) 281-3114,38.77809,-90.69988,Missouri
1234,4621 Chippewa St,Saint Louis,MO,63116,(314) 776-7608,38.59115,-90.27054,Missouri
1123,13927 New Halls Ferry Rd,Florissant,MO,63033,(314) 830-1215,38.806,-90.29691,Missouri
1134,4451 Lemay Ferry Rd,Saint Louis,MO,63129,(314) 416-4251,38.49958,-90.33474,Missouri
2309,4226 N Belt Hwy,St Joseph,MO,64506,(816) 385-5438,39.8026335,-94.81514219999997,Missouri
2504,207 S Truman Blvd,Crystal City,MO,63019,(636) 543-2125,38.2181174,-90.38561960000004,Missouri
3051,2640 S Campbell Ave,Springfield,MO,65807,(417) 520-1179,37.1671119,-93.29543690000003,Missouri
2765,3152 Phoenix Center Dr,Washington,MO,63090,(636) 392-5135,38.5357354,-90.98007389999998,Missouri
3165,2650 NE Vivion RD,Kansas City,MO,64119,(816) 412-7015,39.1872508,-94.54756409999999,Missouri
3081,920 NE Sam Walton Lane,LEES SUMMIT,MO,64086,(816) 600-3726,38.9275785,-94.3610933,Missouri
2764,4311 Wisconsin Ave.,Sedalia,MO,65301,(660) 460-4168,38.7181734,-93.28582460000001,Missouri
2785,1501 Westside Drive,ROLLA,MO,65401,(573) 467-4023,37.944912,-91.793766,Missouri
2786,3065 Oak Grove Rd.,POPLAR BLUFF,MO,63901,(573) 840-3381,36.7889695,-90.44006890000003,Missouri
3181,2309 N. Baltimore St.,KIRKSVILLE,MO,63501,(660) 234-3100,40.216098,-92.58343109999998,Missouri
0243,8500 N Evanston Rd,Kansas City,MO,64157,(816) 407-9195,39.24671,-94.45941,Missouri
0255,62 Brentwood Promenade Ct,Saint Louis,MO,63144,(314) 918-9123,38.62786,-90.34289,Missouri
0391,2850 N Reserve St,Missoula,MT,59808,(406) 549-9188,46.89104908663313,-114.03682064746857,Montana
0393,2510 King Ave West,Billings,MT,59102,(406) 656-2309,45.75512,-108.57976,Montana
1033,2997 Max Ave,Bozeman,MT,59718,(406) 522-1515,45.71074,-111.06904,Montana
2447,3341 N Montana Ave,Helena,MT,59602,(406) 437-9040,46.6203145,-112.02097179999998,Montana
3027,1537 Main St,Billings,MT,59105,(406) 371-4890,45.8268172,-108.47083140000001,Montana
2747,1200 10th Ave S STE 91,Great Falls,MT,59405,(406) 770-4238,47.4926281,-111.28886169999998,Montana
2292,65 Treeline Rd,Kalispell,MT,59901,(406) 756-0534,48.2371699,-114.33323139999999,Montana
1513,6220 N 73rd Plaza,Omaha,NE,68134,(402) 571-9769,41.3151477,-96.0273421,Nebraska
1514,7903 Towne Center Parkway,Papillion,NE,68046,(402) 537-0323,41.13626,-96.02905,Nebraska
1515,2801 Pine Lake Road Ste N,Lincoln,NE,68512,(402) 421-7012,40.73880302960601,-96.68027154365541,Nebraska
2038,17035 Evans Plaza,Omaha,NE,68116,(402) 289-1592,41.29128,-96.18146,Nebraska
0247,715 S 72nd St,Omaha,NE,68114,(402) 393-3225,41.25377,-96.02391,Nebraska
0248,3103 Oak View Dr,Omaha,NE,68144,(402) 333-1048,41.22921,-96.13059,Nebraska
0250,5200 N 27th St,Lincoln,NE,68521,(402) 438-1133,40.8636,-96.67895,Nebraska
2784,4700 2nd Ave Ste 150,Kearney,NE,68847,(308) 455-9885,40.7205561,-99.08631200000002,Nebraska
1342,6675 S Virginia St,Reno,NV,89511,(775) 852-8490,39.46606,-119.78394,Nevada
1381,6650 N Durango Dr,Las Vegas,NV,89149,(702) 839-0479,36.28165,-115.28769,Nevada
1394,5915 S. Eastern Avenue,Las Vegas,NV,89119,(702) 736-5003,36.0823,-115.11884,Nevada
0146,2140 N Rainbow Blvd,Las Vegas,NV,89108,(702) 631-8422,36.19803,-115.23857,Nevada
0148,531 N Stephanie St,Henderson,NV,89014,(702) 898-0055,36.05927,-115.04626,Nevada
0150,171 N Nellis Blvd,Las Vegas,NV,89110,(702) 438-5771,36.16288,-115.06326,Nevada
0152,1261 S Decatur Blvd,Las Vegas,NV,89102,(702) 870-8200,36.15669,-115.20671,Nevada
1522,255 Los Altos Parkway,Spanish Springs,NV,89436,(775) 354-2224,39.58005,-119.70242,Nevada
1576,7050 Arroyo Crossing Parkway,Las Vegas,NV,89113,(702) 407-0330,36.06363,-115.24713,Nevada
1895,286 W Lake Mead Pkwy,Henderson,NV,89015,(702) 558-9326,36.03605,-114.99372,Nevada
1896,6980 N 5th St.,North Las Vegas,NV,89084,(702) 399-0508,36.28721,-115.13339,Nevada
1025,9775 W Charleston Blvd,Las Vegas,NV,89117,(702) 940-5200,36.15758681542685,-115.31083492988586,Nevada
1026,9869 S Eastern Ave,Las Vegas,NV,89123,(702) 951-0045,36.0107,-115.11823,Nevada
1027,1321 W Craig Rd,N Las Vegas,NV,89032,(702) 938-5880,36.23818,-115.16135,Nevada
1113,250 Fairview Dr,Carson City,NV,89701,(775) 841-9200,39.14991,-119.76552,Nevada
1153,5160 S Fort Apache Rd,Las Vegas,NV,89148,(702) 253-1431,36.09521,-115.29734,Nevada
1308,5110 Mae Anne Avenue,Reno,NV,89523,(775) 787-7833,39.53153,-119.87553,Nevada
1869,777 South Willow Street,Manchester,NH,03103,(603) 668-9848,42.96414,-71.44492,New Hampshire
1494,4 Cellu Dr,Nashua,NH,03063,(603) 595-6460,42.79879,-71.53345,New Hampshire
1593,299 Loudon Rd,Concord,NH,03301,(603) 224-1028,43.22598,-71.48686,New Hampshire
2208,11 Brickyard Square Ste 11,Epping,NH,03042,(603) 734-9022,43.02334,-71.07461,New Hampshire
1166,290 S Broadway,Salem,NH,03079,(603) 898-8232,42.75853,-71.21395,New Hampshire
2390,700 Lafayette Rd. Unit #211,Seabrook,NH,03874,(603) 814-3027,42.8955448,-70.8709336,New Hampshire
0788,213 Daniel Webster Hwy,Nashua,NH,03060,(603) 888-7599,42.71428,-71.44268,New Hampshire
2333,160 Washington St.,Suite 701,03839,Rochester,(603) 833-2117,43.294247,-70.994639,
3092,120 North South Road,NORTH CONWAY,NH,03860,(603) 730-9229,44.020131,-71.10866,New Hampshire
3072,19 Gosling Road,NEWINGTON,NH,03801,(603) 570-6816,43.092892,-70.7965264,New Hampshire
3105,11 Plaistow Rd Bldg 11 Suite F,PLAISTOW,NH,03865,(603) 797-9254,42.817669,-71.10290800000001,New Hampshire
3062,248 Plainfield Road Suite 130,WEST LEBANON,NH,03784,(603) 276-4265,43.6291088,-72.32369829999999,New Hampshire
1406,2122 North 2nd Street,Millville,NJ,08332,(856) 765-9564,39.42085978339782,-75.04393089765318,New Jersey
1461,4004 Route 130,Delran,NJ,08075,(856) 461-0353,40.01305,-74.95967,New Jersey
1486,2391 Route 66,Ocean,NJ,07712,(732) 897-1790,40.2281,-74.04707,New Jersey
1487,400 Mill Creek Dr,Secaucus,NJ,07094,(201) 583-0861,40.79272,-74.04973,New Jersey
1488,190 Rt 10 West,East Hanover,NJ,07936,(973) 599-1320,40.8086975,-74.37689539999997,New Jersey
1519,310 White Horse Pike North,Lawnside,NJ,08045,(856) 310-5210,39.86961,-75.04449,New Jersey
1524,50 International Dr South,Flanders,NJ,07836,(973) 448-7601,40.88972,-74.7201,New Jersey
1570,1500 Route 47 Ste 21,Rio Grande,NJ,08242,(609) 886-7402,39.01312299035144,-74.87147637011412,New Jersey
1627,637 Woodbury Glassboro Road,Sewell,NJ,08080,(856) 415-7930,39.7610858,-75.13014559999999,New Jersey
1802,2101 State Route 35 Ste 301,Holmdel,NJ,07733,(732) 706-7689,40.41471956863349,-74.14307570580445,New Jersey
1828,2100 88th Street Ste B,North Bergen,NJ,07047,(201) 662-1747,40.81362702124106,-74.01556831443327,New Jersey
1945,219 Stafford Park Blvd,Manahawkin,NJ,08050,(609) 597-3150,39.71048,-74.28566,New Jersey
1963,2 Brick Plaza,Brick,NJ,08723,(732) 262-5390,40.05738,-74.13818,New Jersey
2048,187 Millburn Ave,Millburn,NJ,07041,(973) 564-6454,40.72317,-74.29562,New Jersey
2143,132 Route 31,Flemington,NJ,08822,(908) 483-9160,40.52512,-74.854,New Jersey
2144,300 State Route 18,East Brunswick,NJ,08816,(732) 390-0297,40.45618,-74.40056,New Jersey
0574,1331 Nixon Dr,Moorestown,NJ,08057,(856) 439-9899,39.94819,-74.96347,New Jersey
0576,420 Consumer Square,Mays Landing,NJ,08330,(609) 677-1620,39.45278,-74.63185,New Jersey
0577,111 Nassau Park Blvd,Princeton,NJ,08540,(609) 520-9200,40.30355,-74.67791,New Jersey
0765,North 60 Route 17,Paramus,NJ,07652,(201) 843-0540,40.9160177,-74.07152059999999,New Jersey
1146,7 Route 9,Manalapan,NJ,07726,(732) 683-1119,40.29869,-74.30263,New Jersey
1147,1232 Hooper Ave,Toms River,NJ,08753,(732) 240-1540,39.98169,-74.18141,New Jersey
1148,170 Marketplace Blvd,Hamilton,NJ,08691,(609) 585-4418,40.19029,-74.64369,New Jersey
1178,57 Rt 23 South,West Belt Plaza,07470,Wayne,(973) 785-4479,40.89031967866685,-74.25043767909852,
1218,315 West Route 70,Marlton,NJ,08053,(856) 596-5949,39.89467,-74.93313,New Jersey
1225,2000 Clements Bridge Road,Woodbury,NJ,08096,(856) 848-2719,39.84094,-75.09084,New Jersey
2326,2224 Route 27,Edison,NJ,08817,(732) 476-1522,40.5320891,-74.37887769999998,New Jersey
2434,271 New Road,Somers Point,NJ,08244,(609) 365-3053,39.3261619,-74.59761100000003,New Jersey
2555,540 New York Ave,Lyndhurst,NJ,07071,(201) 528-4775,40.81247974808627,-74.12023155913846,New Jersey
2451,4516 Route 9,Howell,NJ,07731,(732) 719-8517,40.1421387,-74.22554259999998,New Jersey
2372,948 Springfield Road,Union,NJ,07083,(908) 557-5307,40.6889267,-74.2988234,New Jersey
0744,367 Mount Hope Ave,Rockaway,NJ,07866,(973) 361-7970,40.90546,-74.54667,New Jersey
0748,145 Promenade Blvd,Bridgewater,NJ,08807,(732) 748-7266,40.56461,-74.55431,New Jersey
0762,863 St George Ave,Woodbridge,NJ,07095,(732) 750-1090,40.56958,-74.29109,New Jersey
0766,1515 US Highway 22,Watchung,NJ,07069,(908) 769-1250,40.64463,-74.41377,New Jersey
2316,5 Hampton House Rd.,Newton,NJ,07860,(973) 862-5311,41.07322509999999,-74.73928469999998,New Jersey
3021,160 Passaic Ave Ste 5,Kearny,NJ,07032,(201) 428-2864,40.7592269,-74.16013629999998,New Jersey
3028,244 Passaic St,Garfield,NJ,07026,(862) 295-3322,40.865923,-74.10818599999999,New Jersey
3014,310 Highway 36  Ste 25,West Long Branch,NJ,07764,(732) 676-9773,40.28984176147631,-74.03616766137696,New Jersey
1617,467 BERLIN Cross Keys Road,Sicklerville,NJ,08081,(856) 740-1206,39.75342,-74.98484,New Jersey
1829,901 US Highway 1,North Brunswick,NJ,08902,(732) 246-1501,40.4555,-74.47893,New Jersey
1219,62 Centerton Rd,Mount Laurel,NJ,08054,(856) 802-9949,39.97095,-74.91175,New Jersey
1224,5857 Route 42,Turnersville,NJ,08012,(856) 227-0376,39.76252,-75.04809,New Jersey
0567,215 Route 73 N,West Berlin,NJ,08091,(856) 753-9130,39.80672,-74.93019,New Jersey
0575,2135 Route 38 Ste B,Cherry Hill,NJ,08002,(856) 910-1400,39.93816,-75.02707,New Jersey
0758,,Union,US,NJ,,null,null,
0138,3561 Zafarano St,Santa Fe,NM,87507,(505) 471-5255,35.64091,-106.0117,New Mexico
1489,1424 Mercantile Ave NE,Albuquerque,NM,87107,(505) 341-2431,35.13549,-106.6108,New Mexico
1497,2200 E Lohman Ave,Las Cruces,NM,88001,(575) 523-1154,32.31201,-106.75478,New Mexico
1599,8070 Academy Road NE,Albuquerque,NM,87111,(505) 796-0561,35.14665,-106.54882,New Mexico
0173,10248 Coors Bypass NW,Albuquerque,NM,87114,(505) 792-1772,35.20334,-106.65962,New Mexico
0174,350 Eubank Blvd NE,Albuquerque,NM,87123,(505) 298-4122,35.0785,-106.53219,New Mexico
2527,2450 Main St NE,Los Lunas,NM,87031,(505) 807-3445,34.8064246,-106.70341740000003,New Mexico
3038,7817 Enchanted Hills Blvd,Rio Rancho,NM,87144,(505) 404-3356,35.3239145,-106.57951800000001,New Mexico
2705,5600 Coors Blvd NW,Suite A1,87120,ALBUQUERQUE,(505) 348-3997,35.1472175,-106.68896410000002,
2746,2100 Louisiana Blvd. NE Suite 322,ALBUQUERQUE,NM,87110,(505) 313-8089,35.1013409,-106.56405510000002,New Mexico
3099,601 TEXAS ST,CLOVIS,NM,88101,(575) 219-3405,34.4374044,-103.19767719999999,New Mexico
1290,67 Consumer Square,Plattsburgh,NY,12901,(518) 562-8600,44.69381,-73.48898,New York
1296,917 Holt Rd,Webster,NY,14580,(585) 872-0850,43.21326,-77.44661,New York
1332,350 Walt Whitman Rd Unit 9,Huntington Station,NY,11746,(631) 425-0913,40.81825170318714,-73.40862507934571,New York
1427,156 Old Ltl Britain Rd,Newburgh,NY,12550,(845) 561-0250,41.49919,-74.07026,New York
1446,3545 Hempstead Tpke,Levittown,NY,11756,(516) 731-2592,40.72562,-73.50272,New York
1558,2458 Central Park Road,Yonkers,NY,10710,(914) 771-5756,40.98072,-73.82753,New York
1580,3553 West Genesee St,Syracuse,NY,13219,(315) 468-1379,43.04704867245478,-76.23306589416507,New York
1581,241 Route 9W,Glenmont,NY,12077,(518) 465-0891,42.61328,-73.78589,New York
1589,279 Troy Road Ste 11,Rensselaer,NY,12144,(518) 286-1090,42.64128,-73.70031,New York
1626,19 Clifton Country Rd,Clifton Park,NY,12065,(518) 348-0624,42.85852,-73.78276,New York
1651,3132 Vestal Parkway East,Vestal,NY,13850,(607) 770-7318,42.09373,-75.99886,New York
1672,128 Bailey Farm Road Ste 106,Monroe,NY,10950,(845) 782-9123,41.31628120044087,-74.15220757116396,New York
1705,2160 Jericho Turnpike,Commack,NY,11725,(631) 543-1025,40.84305,-73.28498,New York
1807,1450 County Route 64,Horseheads,NY,14845,(607) 739-7980,42.157208,-76.856645,New York
1813,2101 Elmwood,Buffalo,NY,14207,(716) 447-2198,42.95491,-78.87682,New York
1814,3425 Amelia Drive,Orchard Park,NY,14127,(716) 825-6212,42.79166,-78.78214,New York
1972,241 Airport Plaza Blvd.,Farmingdale,NY,11735,(631) 843-1890,40.73715,-73.41993,New York
2104,3050 Middle Country Road,Nesconset,NY,11767,(631) 265-7010,40.86124,-73.13022,New York
2105,535 W. Montauk Highway,West Babylon,NY,11704,(631) 422-0213,40.67329,-73.37555,New York
2117,,New York,US,NY,(212) 534-2590,40.79541,-73.93194,
2177,830 Pelham Parkway,Pelham,NY,10803,(914) 235-0796,40.89314,-73.82027,New York
2231,5722 S Transit Rd,Lockport,NY,14094,(716) 434-5679,43.14791,-78.69892,New York
2232,421 Commerce Dr,Victor,NY,14564,(585) 924-4100,43.02107,-77.43903,New York
2235,1110 Route 112,Port Jefferson Station,NY,11776,(631) 474-1347,40.92033,-73.04249,New York
2238,450 Fairview Ave,Hudson,NY,12534,(518) 828-2963,42.28014,-73.7567,New York
2248,8725 Avenue D,Brooklyn,NY,11236,(718) 241-1379,40.64591,-73.91309,New York
2249,238 Atlantic Ave,Brooklyn,NY,11201,(718) 852-2519,40.68891,-73.99104,New York
2254,279 East Fairmount Ave,Lakewood,NY,14750,(716) 763-2161,42.09944,-79.30669,New York
1239,3865 State Route 31,Liverpool,NY,13090,(315) 652-1627,43.18484,-76.24573,New York
1240,155 E Route 59,Nanuet,NY,10954,(845) 620-1301,41.09423,-74.00439,New York
1062,3033 Route 50,Saratoga Springs,NY,12866,(518) 580-9374,43.10198,-73.74539,New York
1098,501 Frank Sottile Blvd,Kingston,NY,12401,(845) 336-0485,41.97170864799521,-73.98570854232787,New York
1152,14 West Circle,Valley Stream,NY,11581,(516) 561-2418,40.66351,-73.72602,New York
1192,406 Balltown Rd,Schenectady,NY,12304,(518) 372-0300,42.77245,-73.89338,New York
1193,742 S Meadow St,Ithaca,NY,14850,(607) 277-3391,42.43084,-76.50796,New York
1194,4731 Commercial Dr,New Hartford,NY,13413,(315) 768-2335,43.09321,-75.30717,New York
2353,369 Tarrytown Road,Greenburgh,NY,10607,(914) 461-2306,41.047632,-73.80759619999998,New York
2522,4327 Genesee Valley Plaza,Geneseo,NY,14454,(585) 245-9612,42.7990825,-77.78148010000001,New York
2479,1581 Niagara Falls Blvd.,Suite 100,14228,Amherst,(716) 249-3197,42.9974878,-78.82234289999997,
2438,2410 Merrick Road,Unit 1,11710,Bellmore,(516) 809-8464,40.6612659,-73.53645940000001,
2521,365 State Route 104 #437,Oswego,NY,13126,(315) 207-7205,43.4632086,-76.47157909999999,New York
0737,161 Washington Ave Extension,Albany,NY,12205,(518) 452-5683,42.69628,-73.84886,New York
0739,609 Troy Schenectady Rd,Latham,NY,12110,(518) 785-4621,42.75188,-73.76564,New York
0747,3131 E Main St  ,Mohegan Lake,NY,10547,(914) 528-4478,41.31052,-73.86716,New York
0774,3042 Ridge Rd W,Greece,NY,14626,(585) 227-6700,43.21217414856361,-77.71102023379899,New York
0775,790 Jefferson Rd Ste 200,Rochester,NY,14467,(585) 272-8020,43.08721,-77.61749,New York
0776,1734 Walden Ave,Cheektowaga,NY,14225,(716) 893-2398,42.90891,-78.77128,New York
0779,3401 E Erie Blvd E,Syracuse,NY,13214,(315) 446-6320,43.04798460440474,-76.0655835113617,New York
2301,2534 South Road,Poughkeepsie,NY,12601,(845) 224-2076,41.66191498387175,-73.92996878783572,New York
2391,1600 Marcus Ave.,New Hyde Park,NY,11040,(516) 502-1481,40.7549684,-73.6847659,New York
2739,3957 Vineyard Dr,Dunkirk,NY,14048,(716) 363-7020,42.4588475,-79.31502269999999,New York
2748,123 Grey ST,East Aurora,NY,14052,(716) 687-8269,42.7659688,-78.63224600000001,New York
2702,1762 Old Country Rd,RIVERHEAD,NY,11901,(631) 208-5310,40.9226329,-72.7137447,New York
3077,1107 Broadway  Suite 101,MANHATTAN,NY,10010,(646) 949-1422,40.74256316961973,-73.98953482883604,New York
2703,121 School Street,Glen Cove,NY,11542,(516) 403-2368,40.8678549,-73.6312193,New York
2743,1208 Deer Park Avenue,North Babylon,NY,11703-3109,(631) 992-7035,40.7372874,-73.3217123,New York
1179,88 Dunning Rd Ste 25,Middletown,NY,10940,(845) 342-1261,41.45039926233303,-74.37676664788512,New York
2233,4930 St. Hwy. 30,Amsterdam,NY,12010,(518) 842-2652,42.96526,-74.19071,New York
0771,5061 Transit Rd,Buffalo,NY,14221,(716) 565-2398,42.98493,-78.69693,New York
2775,2656 Hyland Blvd Suite 240,STATEN ISLAND,NY,10306,(929) 464-2563,40.5671084,-74.1130652,New York
3133,1525 Forest Ave,STATEN ISLAND,NY,10302,(929) 308-2634,40.62422270793035,-74.13910752380372,New York
1846,5160 Highway 70,Morehead City,NC,28557,(252) 727-0002,34.73836,-76.80705,North Carolina
1392,11088 N US Hwy 15 501 Ste 600,Aberdeen,NC,28315,(910) 246-1587,35.15749,-79.41899,North Carolina
1413,1459 University Dr #F,Burlington,NC,27215,(336) 524-0229,36.0654072,-79.52306169999997,North Carolina
1436,2875 West Highway 74,Monroe,NC,28110,(704) 225-9447,35.01954,-80.57723,North Carolina
1508,6070 Bayfield Parkway,Concord,NC,28027,(704) 788-9661,35.41873,-80.67575,North Carolina
1509,14137 Rivergate Parkway,Charlotte,NC,28273,(704) 587-1198,35.1036,-80.98462,North Carolina
1510,10245 Perimeter Parkway,Charlotte,NC,28216,(704) 599-0475,35.34498,-80.8541,North Carolina
1591,3401 Raleigh Road Parkway West,Wilson,NC,27896,(252) 399-0900,35.74393,-77.96392,North Carolina
0594,2800 Millbrook Rd,Raleigh,NC,27604,(919) 873-0544,35.84937,-78.58643,North Carolina
0595,2430 Walnut St,Cary,NC,27518,(919) 858-5442,35.7529,-78.74133,North Carolina
0596,8111 Brier Creek Pkwy,Raleigh,NC,27617,(919) 544-9902,35.90992,-78.78356,North Carolina
0597,2550 Timber Dr,Garner,NC,27529,(919) 661-0690,35.71365,-78.64046,North Carolina
0598,1720 N Pointe Dr,Durham,NC,27705,(919) 471-6474,36.02827,-78.91634,North Carolina
0600,3615 Witherspoon Blvd Suite #101,Durham,NC,27707,(919) 403-6902,35.94878,-78.98959,North Carolina
0602,1031 Beaver Creek Commons,Apex,NC,27502,(919) 363-4056,35.74326079796576,-78.87226119972229,North Carolina
0609,1462 Jeffreys Rd,Rocky Mount,NC,27804,(252) 451-5200,35.97403,-77.81192,North Carolina
0610,600 Greenville Blvd SE,Greenville,NC,27858,(252) 756-7706,35.58479,-77.37054,North Carolina
1929,,Knightdale,US,NC,(919) 266-1019,35.79613,-78.51302,
2110,6420 Weddington Monroe Rd,Wesley Chapel,NC,28104,(704) 821-2526,35.00145,-80.70891,North Carolina
2124,206 S Sharon Amity Rd,Charlotte,NC,28211,(704) 366-3807,35.17729,-80.80144,North Carolina
2125,3007 Dr Martin Luther King Jr Blvd,New Bern,NC,28562,(252) 637-2170,35.10236,-77.08708,North Carolina
2213,4721 Ramsey St,Fayetteville,NC,28311,(910) 853-7148,35.12557,-78.87999,North Carolina
2229,3101 Market Center Drive,Morrisville,NC,27560,(919) 462-3433,35.80608,-78.81761,North Carolina
2288,214 Turnersburg Hwy,Statesville,NC,28625,(704) 252-5377,35.81659,-80.87419,North Carolina
0408,5401 S Blvd Ste 14,Charlotte,NC,28217,(704) 523-0132,35.16248,-80.87499,North Carolina
0409,3698 E Franklin Blvd,Gastonia,NC,28056,(704) 824-5010,35.26077514845308,-81.11443623809816,North Carolina
0411,950 Hanes Mall Blvd,Winston  Salem,NC,27103,(336) 659-1995,36.06587,-80.31399,North Carolina
0412,1206 Bridford Pkwy,Greensboro,NC,27407,(336) 218-8188,36.05441,-79.90254,North Carolina
0413,2641 Lawndale Dr,Greensboro,NC,27408,(336) 545-6225,36.10336,-79.81912,North Carolina
0414,438 E Hanes Mill Rd,Winston-Salem,NC,27105,(336) 377-2399,36.18954,-80.27256,North Carolina
0416,1335 Western Blvd,Jacksonville,NC,28546,(910) 938-2410,34.78478,-77.40432,North Carolina
0418,1610 8th Street Dr SE,Hickory,NC,28602,(828) 322-1202,35.70633,-81.31285,North Carolina
1249,11835 Retail Dr,Wake Forest,NC,27587,(919) 554-6938,35.96952,-78.54178,North Carolina
1095,590-G River Hwy,Mooresville,NC,28117,(704) 660-0444,35.59826,-80.86951,North Carolina
1170,265 Shenstone Blvd,Garner,NC,27529,(919) 773-0376,35.69264,-78.58147,North Carolina
1207,3 McKenna Rd,Arden,NC,28704,(828) 681-5343,35.44721,-82.53313,North Carolina
1208,150 Bleachery Blvd.,Asheville,NC,28805,(828) 298-5670,35.57496,-82.51287,North Carolina
2330,991 E Broad Street,Fuquay Varina,NC,27526,(919) 762-3211,35.592452,-78.78271689999997,North Carolina
2460,570 Yopp Road,Jacksonville,NC,28540,(910) 238-3128,34.754214,-77.4635629,North Carolina
2537,5226 S College Rd,Wilmington,NC,28412,(910) 473-6911,34.1437997,-77.89342850000003,North Carolina
2469,507 Eastgate Dr,Goldsboro,NC,27534,(919) 288-3332,35.3755497,-77.9462699,North Carolina
2461,6806 Parker Farm Drive,Wilmington,NC,28405,(910) 679-3400,34.2353995,-77.83157389999997,North Carolina
2212,2210 S Croatan Hwy,Mile Post 10,27959,Nags Head,(252) 564-3061,35.990525,-75.64881100000002,
2275,321 Town Center Loop,Waynesville,NC,28786,(828) 558-3002,35.469157,-83.008667,North Carolina
2247,868 Spring Lane,Sanford,NC,27330,(919) 895-3195,35.4873254,-79.19524030000002,North Carolina
2500,1222 East Dixie Drive  Ste B,Asheboro,NC,27203,(336) 308-3652,35.6933867,-79.78814360000001,North Carolina
2347,8150 Ikea Blvd.,Suite 25,28262,Charlotte,(704) 208-5264,35.296036,-80.76377589999998,
2502,733 E Dixon Blvd,Shelby,NC,28152,(704) 284-5216,35.2745562,-81.52900310000001,North Carolina
2322,9905 E. Independence Blvd,Matthews,NC,28105,(704) 246-4919,35.133363,-80.710219,North Carolina
2230,E142 Morganton Heights Blvd,Morganton,NC,28655,(828) 219-3061,35.7287119,-81.701932,North Carolina
2374,8825 Six Forks Rd,Raleigh,NC,27615,(919) 326-7979,35.8997292,-78.65359699999999,North Carolina
2730,155 Lowes Blvd,Lexington,NC,27292,(336) 249-4253,35.791363,-80.25912219999998,North Carolina
0415,2061 Skibo Rd,Fayetteville,NC,28314,(910) 867-2300,35.05351,-78.97054,North Carolina
3064,213 Greenville Hwy,Hendersonville,NC,28792,(828) 393-3206,35.30756,-82.45981599999999,North Carolina
1140,265 Eastchester Dr 130,High Point,NC,27262,(336) 887-0525,35.9844,-80.01927,North Carolina
1511,9911 Rea Road,Charlotte,NC,28277,(704) 846-4565,35.03377,-80.80532,North Carolina
2538,8301 Magnolia Estates Dr. Unit 9,Cornelius,NC,28031,(704) 765-3048,35.4761288,-80.8899692,North Carolina
2721,780 Leonard Ave Suite H,Albemarle,NC,28001,(980) 581-3974,35.3411519,-80.17739010000003,North Carolina
2228,1514 Winkler Mill Extension,Wilkesboro,NC,28697,(336) 838-2370,36.1496415,-81.19194290000002,North Carolina
3184,1623 E Main St,Lincolnton,NC,28092-3946,(704) 276-7445,35.4776008,-81.23276550000003,North Carolina
2127,345 Faith Rd.,Salisbury,NC,28146,(704) 633-4334,35.65121,-80.45803,North Carolina
0417,4715 New Centre Dr,Wilmington,NC,28405,(910) 452-4422,34.2484,-77.88159,North Carolina
2323,9515 South Blvd,Charlotte,NC,28273,(704) 405-6967,35.1061128,-80.88076409999996,North Carolina
2501,1285 N Brightleaf Blvd  Ste 15,Smithfield,NC,27577,(919) 300-4243,35.5231281,-78.30927199999996,North Carolina
3279,1014 Shoppes at Midway Drive,KNIGHTDALE,NC,27545,(919) 373-1052,35.79781,-78.51272,North Carolina
2605,,HARRISBURG,US,NC,(704) 454-3514,35.3200254,-80.64641660000001,
2606,,Denver,US,NC,(704) 809-5031,35.5316576,-81.02957930000002,
3205,131-1 Smith Ave,SHALLOTTE,NC,28470,(910) 754-7500,33.981232,-78.377858,North Carolina
1501,1211 W Century Ave,Bismarck,ND,58503,(701) 250-8107,46.83284,-100.81064,North Dakota
1502,1630 13th Avenue East,West Fargo,ND,58078,(701) 281-8531,46.86388,-96.87445,North Dakota
3107,2450 South Columbia Road Suite 200,GRAND FORKS,ND,58201,(701) 765-3120,47.8960347,-97.06796500000002,North Dakota
1851,8210 Macedonia Commons Blvd,Unit 10,44056,Macedonia,(330) 908-0531,41.31372,-81.5174,
1298,2275 Walker Lake Rd,Mansfield,OH,44903,(419) 747-4544,40.78881,-82.59832,Ohio
1299,1705 N Bechtle Ave,Springfield,OH,45504,(937) 323-6730,39.94698,-83.83446,Ohio
1333,7574 Voice of America Dr,West Chester,OH,45069,(513) 779-3159,39.35749,-84.36251,Ohio
1434,1450 Spring Meadows Dr,Holland,OH,43528,(419) 865-3424,41.61645,-83.69765,Ohio
1443,5011 Grande Blvd,Medina,OH,44256,(330) 725-2277,41.16453077030252,-81.8670343412781,Ohio
1464,2026 Lincoln Way East,Massillon,OH,44646,(330) 832-9254,40.79864,-81.49584,Ohio
1465,1521 Golden Gate Plaza,Mayfield Heights,OH,44124,(440) 605-0251,41.51866,-81.45059,Ohio
1468,3439 Princeton Rd,Hamilton,OH,45011,(513) 863-6363,39.39048,-84.49983,Ohio
1469,8175 Arbor Square Drive,Mason,OH,45040,(513) 336-0365,39.3200589,-84.3156204,Ohio
1470,245 Rivers Edge,Milford,OH,45150,(513) 248-4954,39.16123,-84.27386,Ohio
1559,3909 Gorsky Dr,Zanesville,OH,43701,(740) 452-6145,39.9929,-82.03345,Ohio
1618,4333 Feedwire Road,Dayton,OH,45440,(937) 312-1339,39.6597,-84.08561,Ohio
1619,2028 Miamisburg Centerville Rd,Dayton,OH,45459,(937) 291-3001,39.63398,-84.20798,Ohio
0519,355 Howe Ave,Cuyahoga Falls,OH,44221,(330) 922-4114,41.11916,-81.48024,Ohio
0521,3750 W Market St,Fairlawn,OH,44333,(330) 396-5135,41.13459,-81.63575,Ohio
0523,5465 Dressler Rd NW,North Canton,OH,44720,(330) 305-1549,40.86023,-81.43455,Ohio
0529,26063 Great Northern Plaza,North Olmsted,OH,44070,(440) 777-8900,41.41467,-81.90926,Ohio
0531,9122 Mentor Ave,Mentor,OH,44060,(440) 974-1100,41.67606,-81.31311,Ohio
0532,6870 Ridge Rd,Parma,OH,44129,(440) 845-9592,41.37747,-81.73991,Ohio
0535,11741 Princeton Pike,Springdale,OH,45246,(513) 671-6560,39.29152,-84.46827,Ohio
0538,650 Eastgate South Dr,Cincinnati,OH,45245,(513) 752-8463,39.0980816736993,-84.27841010849,Ohio
0539,10164 Colerain Ave,Cincinnati,OH,45251,(513) 245-9500,39.25919,-84.60049,Ohio
0547,5336 Westpointe Plaza Dr,Columbus,OH,43228,(614) 876-2058,39.98493,-83.14699,Ohio
0548,6010 Sawmill Rd,Dublin,OH,43017,(614) 791-8200,40.09054,-83.08979,Ohio
0550,3713 Easton Market,Columbus,OH,43219,(614) 418-9389,40.05143,-82.92175,Ohio
0553,8281 Old Troy Pike,Huber Heights,OH,45424,(937) 236-1335,39.87499,-84.1372,Ohio
0554,2500 N Fairfield Rd Ste C,Dayton,OH,45431,(937) 320-0421,39.76376533584856,-84.05024942523954,Ohio
0557,5812 Youngstown Warren Rd,Niles,OH,44446,(330) 544-1499,41.20915,-80.74744,Ohio
0558,1101 Doral Dr,Poland,OH,44514,(330) 629-2479,41.02833,-80.63445,Ohio
1237,3401 Alamo Ave,Cincinnati,OH,45209,(513) 731-9400,39.1626,-84.42202,Ohio
1238,1184 Polaris Pkwy,Columbus,OH,43240,(614) 785-0194,40.14324,-82.98931,Ohio
1063,7355 Market Place Dr,Aurora,OH,44202,(330) 995-2890,41.34988,-81.38745,Ohio
1209,1743 Stringtown Rd,Grove City,OH,43123,(614) 539-8773,39.87875,-83.04377,Ohio
2426,476 Corwin Nixon Boulevard,South Lebanon,OH,45065,(513) 494-3125,39.3781613,-84.22211659999999,Ohio
2484,5241 Monroe Street,Toledo,OH,43623,(419) 318-5441,41.7017265,-83.65226239999998,Ohio
2314,2389 Taylor Park Dr,Reynoldsburg,OH,43068,(614) 986-3094,39.9379381,-82.79183089999998,Ohio
2313,13923 Cedar Rd,South Euclid,OH,44118,(216) 258-0643,41.50239142197587,-81.5388738331352,Ohio
2512,743 E State St,Athens,OH,45701,(740) 249-2209,39.3360898,-82.07211970000003,Ohio
2778,7400 State Route 161 E,Plain City,OH,43064,(614) 698-5620,40.1094714,-83.18554540000002,Ohio
3089,3749 BURBANK RD,WOOSTER,OH,44691,(330) 234-5467,40.8453804,-81.94291729999998,Ohio
1433,27161 Crossroads Parkway,Rossford,OH,43460,(419) 873-1715,41.54547,-83.58501,Ohio
2774,8095 East Broad Street,Reynoldsburg,OH,43068,(614) 490-3027,39.98588900000001,-82.78534109999998,Ohio
2246,2330 Tiffin Ave,Findlay,OH,45840,(419) 423-6869,41.05749,-83.59612,Ohio
0526,36395 Euclid Ave,Willoughby,OH,44094,(440) 918-9780,41.62757,-81.4277,Ohio
0534,263 Midway Blvd,Elyria,OH,44035,(440) 324-4665,41.40003,-82.10591,Ohio
2610,,COLUMBUS,,OH,(614) 310-5659,40.0665226,-83.024668,
2607,,UPPER ARLINGTON,US,OH,(614) 493-3207,40.0204413,-83.06044930000002,
3280,6068 Glenway Ave,CINCINNATI,OH,45211,(513) 322-0272,39.1446586,-84.6183957,Ohio
3249,35822 Detroit Rd,AVON,OH,44011,(440) 695-2047,41.46220599999999,-82.00963229999999,Ohio
3164,1731 Memorial Drive N.,LANCASTER,OH,43130,(740) 205-2156,39.7298091,-82.61474989999999,Ohio
3185,963 Hebron Road,Heath,OH,43056,(740) 258-6247,40.0263883,-82.44689310000001,Ohio
1322,9002 N 121 E Ave Ste 20,Owasso,OK,74055,(918) 272-1690,36.28775,-95.8439,Oklahoma
1357,7177 SE 29th Street,Midwest City,OK,73110,(405) 732-7861,35.43528,-97.4027,Oklahoma
1516,8357 N Rockwell Ave,Oklahoma City,OK,73132,(405) 720-0104,35.55502,-97.63839,Oklahoma
1647,2100 S Service Road,Moore,OK,73160,(405) 799-7129,35.31815,-97.48898,Oklahoma
1661,7322 S Olympia Ave,Tulsa,OK,74132,(918) 445-8648,36.05707,-96.00321,Oklahoma
1930,1648 Garth Brooks Blvd,Yukon,OK,73099,(405) 350-5043,35.48391,-97.76025,Oklahoma
2037,1410 East Hillside Dr,Broken Arrow,OK,74011,(918) 355-6424,36.067,-95.77391,Oklahoma
0214,660 Ed Noble Pkwy,Norman,OK,73072,(405) 329-9747,35.21051,-97.48358,Oklahoma
0215,2932 NW 63rd St,Oklahoma City,OK,73116,(405) 843-0763,35.53657,-97.56745,Oklahoma
0217,1921 S Broadway,Edmond,OK,73013,(405) 330-4079,35.63484,-97.484,Oklahoma
0218,10117 E 71st St,Tulsa,OK,74133,(918) 254-4905,36.06093,-95.86275,Oklahoma
1057,6327 SW 3rd St,Oklahoma City,OK,73127,(405) 440-0041,35.4619,-97.62639,Oklahoma
1067,2140 W Memorial Rd,Oklahoma City,OK,73134,(405) 755-3388,35.60853,-97.5499,Oklahoma
2427,3828 W Owen K Garriott Rd,Enid,OK,73703,(580) 540-3125,36.391836,-97.92463900000001,Oklahoma
2201,1806 NW 82nd Street,Lawton,OK,73505,(580) 354-7228,34.6281672,-98.49223519999998,Oklahoma
2716,10122 S Memorial Dr Suite A,Tulsa,OK,74133,(918) 364-1086,36.0165124,-95.8882461,Oklahoma
1517,1417 W I-240 Service Rd,Oklahoma City,OK,73159,(405) 681-8198,35.3917,-97.5425,Oklahoma
2428,4850 Marketplace Blvd Ste 100,Shawnee,OK,74804,(405) 214-2566,35.38118344546061,-96.93170706418704,Oklahoma
0219,5418 E 41st St,Tulsa,OK,74135,(918) 622-6900,36.10381,-95.91453,Oklahoma
1307,63455 N Hwy 97,Bend,OR,97703,(541) 330-0178,44.10300313079188,-121.30308790409089,Oregon
1532,8825 SW Cascade Avenue,Beaverton,OR,97008,(503) 644-3091,45.45604,-122.785,Oregon
1696,7029 SW Nyberg Street,Tualatin,OR,97062,(503) 692-5769,45.38267,-122.74842,Oregon
2052,9721 NE Cascades Parkway,Portland,OR,97220,(503) 284-1225,45.5743,-122.56206,Oregon
0384,12375 SW Walker Rd,Beaverton,OR,97005,(503) 644-7901,45.50163,-122.80446,Oregon
0385,9450 SE 82nd Ave,Portland,OR,97086,(503) 777-0176,45.45466,-122.57903,Oregon
0387,7501 SW Dartmouth St,Tigard,OR,97223,(503) 684-3234,45.43365,-122.75471,Oregon
0389,8315 SW Jack Burns Blvd Ste D,Wilsonville,OR,97070,(503) 570-6145,45.3342902347921,-122.7629703214264,Oregon
0390,2847 Chad Dr,Eugene,OR,97408,(541) 683-3353,44.09017,-123.06611,Oregon
0392,2925 Lancaster Dr NE,Salem,OR,97305,(503) 362-5325,44.96355,-122.98356,Oregon
0394,3279 Crater Lake Hwy,Medford,OR,97504,(541) 772-5564,42.36538,-122.85602,Oregon
1247,430 NW Eastman Pkwy,Gresham,OR,97030,(503) 669-8405,45.50028,-122.4362,Oregon
1125,889 NE 25th Ave,Hillsboro,OR,97124,(503) 615-5900,45.52968,-122.95649,Oregon
2486,940 NW Circle Blvd.,Corvallis,OR,97330,(541) 286-3256,44.5887459,-123.25729460000002,Oregon
2291,2858 Willamette St,Eugene,OR,97405,(541) 603-7921,44.0273023,-123.0910695,Oregon
2051,1295 NW 185th Ave.,Hillsboro,OR,97006,(503) 645-5104,45.52896,-122.86877,Oregon
3284,1851 Avalon St.,KLAMATH FALLS,OR,97603,(541) 887-3578,42.2109773,-121.7532304,Oregon
1845,3995 Welsh Road,Willow Grove,PA,19090,(215) 659-2952,40.15577,-75.14116,Pennsylvania
1331,3739 William Penn Hwy,Monroeville,PA,15146,(412) 372-8424,40.43539,-79.78859,Pennsylvania
1428,800 Hatton Drive,Glen Mills,PA,19342,(610) 358-0292,39.88496,-75.52987,Pennsylvania
1448,2395 Lincoln Highway,Lancaster,PA,17602,(717) 393-0820,40.02426,-76.2028,Pennsylvania
1481,1112 Town Square Rd,Pottstown,PA,19465,(610) 705-9922,40.22351,-75.65892,Pennsylvania
1521,248 Westminster Dr,Carlisle,PA,17013,(717) 218-0107,40.19691,-77.15889,Pennsylvania
1556,971 Norland Avenue,Chambersburg,PA,17201,(717) 267-2708,39.94502,-77.64042,Pennsylvania
1579,139 Radio Dr,Stroudsburg,PA,18360,(570) 476-1369,40.988919,-75.23271069999998,Pennsylvania
1616,116 Matthew Drive,Uniontown,PA,15401,(724) 437-0565,39.90702076576577,-79.7587334442108,Pennsylvania
1643,1125 Quentin Rd,Lebanon,PA,17042,(717) 273-8070,40.32111,-76.42454,Pennsylvania
1644,4210 5th Street Highway,Temple,PA,19560,(610) 939-2620,40.40302,-75.92812,Pennsylvania
1649,7422 Bustleton Ave,Philadelphia,PA,19152,(215) 728-6701,40.05021,-75.0578,Pennsylvania
1669,620 North West End Boulevard,Quakertown,PA,18951,(215) 538-2843,40.45952,-75.36817,Pennsylvania
1804,641 Baltimore Pike,Springfield,PA,19064,(610) 328-1510,39.91869,-75.32674,Pennsylvania
0591,1717 Route 228 Ste D,Cranberry TWP,PA,16066,(724) 779-9570,40.688451,-80.082859,Pennsylvania
0593,105 Wagner Rd,Monaca,PA,15061,(724) 770-0505,40.68282157808138,-80.30586095504759,Pennsylvania
1934,300 Water Loop Drive,Collegeville,PA,19426,(610) 489-8240,40.16503,-75.47457,Pennsylvania
1994,181 Wilson Ave,Hanover,PA,17331,(717) 630-0042,39.82604,-76.98926,Pennsylvania
2265,1742 E 3rd St,Williamsport,PA,17701,(570) 323-3742,41.24914,-76.96806,Pennsylvania
2277,3794 Easton Nazareth Highway,Easton,PA,18045,(610) 365-3087,40.71683,-75.28225,Pennsylvania
2302,5986 Centre Ave,Pittsburgh,PA,15206,(412) 626-3284,40.45937,-79.92591,Pennsylvania
0556,7451 Peach St Ste B,Erie,PA,16509,(814) 866-6821,42.05438918548282,-80.08266011772156,Pennsylvania
0560,145 Witchwood Dr,North Wales,PA,19454,(215) 699-9366,40.22544,-75.23743,Pennsylvania
0562,2100 Chemical Rd,Plymouth Meeting,PA,19462,(610) 567-2933,40.10147,-75.29264,Pennsylvania
0564,1010 E Lancaster Ave,Downingtown,PA,19335,(610) 518-0250,40.01741,-75.68187,Pennsylvania
0568,220 Commerce Blvd,Fairless Hills,PA,19030,(215) 949-9602,40.18717,-74.86249,Pennsylvania
0570,2940 Springfield Rd,Broomall,PA,19008,(610) 353-4446,39.98205,-75.37281,Pennsylvania
0572,934 W Street Rd,Warminster,PA,18974,(215) 773-9016,40.20981,-75.10605,Pennsylvania
0573,4640-60 E Roosevelt Blvd,Philadelphia,PA,19124,(215) 743-9602,40.02855,-75.0997,Pennsylvania
0580,650 Commerce Blvd,Dickson City,PA,18519,(570) 347-1006,41.46236,-75.64632,Pennsylvania
0582,4200 Derry St,Harrisburg,PA,17111,(717) 558-7642,40.25864,-76.80967,Pennsylvania
0584,1700 Fruitville Pike Ste K,Lancaster,PA,17601,(717) 481-9902,40.0693280025997,-76.31878971031188,Pennsylvania
0586,420 Home Dr,Pittsburgh,PA,15275,(412) 490-0191,40.45155,-80.1823,Pennsylvania
0589,327 Washington Rd,Washington,PA,15301,(724) 223-1227,40.18632,-80.22359,Pennsylvania
1211,351 Loucks Rd,York,PA,17404,(717) 854-5624,39.98278,-76.74355,Pennsylvania
1212,427 Arena Hub Plaza,Wilkes Barre,PA,18702,(570) 825-8423,41.2406,-75.84155,Pennsylvania
1215,11000 Roosevelt Blvd,Philadelphia,PA,19116,(215) 698-8320,40.10108,-75.00732,Pennsylvania
1216,2360 W Oregon Ave,Philadelphia,PA,19145,(215) 462-2080,39.91907,-75.18767,Pennsylvania
1221,1183 Berkshire Blvd,Wyomissing,PA,19610,(610) 396-3660,40.34012,-75.97881,Pennsylvania
1222,2180 MacArthur Rd,Whitehall,PA,18052,(610) 437-7197,40.63747,-75.48845,Pennsylvania
1223,901 Old York Rd,Jenkintown,PA,19046,(215) 885-3635,40.10676,-75.12315,Pennsylvania
3001,6210 Northway Drive,PITTSBURGH,PA,15237,(412) 536-1991,40.5496967,-80.02125869999998,Pennsylvania
2491,131 Town Center Road,King Of Prussia,PA,19406,(610) 233-1099,40.0950723,-75.36866320000001,Pennsylvania
2306,523 Clairton Blvd,Pleasant Hills,PA,15236,(412) 543-3083,40.3412666,-79.9653581,Pennsylvania
2513,475 Ben Franklin Rd S,Indiana,PA,15701,(724) 427-3148,40.6117993,-79.18950669999998,Pennsylvania
2264,90 Weis Lane,West Hazleton,PA,18202,(570) 497-8256,40.9674267,-76.00513660000001,Pennsylvania
2327,2573 West State St,New Castle,PA,16101,(724) 698-2307,41.0121607,-80.39479159999996,Pennsylvania
2328,2102 W. Union Blvd. #22A,Bethlehem,PA,18018,(484) 403-4296,40.627203,-75.41689780000002,Pennsylvania
3103,5023 Edgmont Ave,Brookhaven,PA,19015,(610) 245-2252,39.8784152,-75.39696659999998,Pennsylvania
1670,270 Marketplace Blvd,Selinsgrove,PA,17870,(570) 743-1490,40.841573,-76.832784,Pennsylvania
1479,2600 South Eagle Road,Newtown,PA,18940,(215) 860-1518,40.23177,-74.94012,Pennsylvania
1525,1015 Village Center Drive,Tarentum,PA,15084,(724) 274-3782,40.60267,-79.76307,Pennsylvania
2431,707 N Krocks Rd  Ste 200,Allentown,PA,18106,(484) 795-7493,40.5644254,-75.5636197,Pennsylvania
2255,157 Levittown Parkway Ste B,Levittown,PA,19055,(215) 486-4002,40.1442,-74.82224,Pennsylvania
0583,5900 Carlisle Pike,Mechanicsburg,PA,17050,(717) 795-2449,40.24087,-76.99033,Pennsylvania
0590,6216 Route 30,Greensburg,PA,15601,(724) 850-7780,40.30472727382067,-79.59453162963865,Pennsylvania
3254,5098 Jonestown Rd,HARRISBURG,PA,17109,(717) 412-3650,40.31244246935606,-76.80339336375428,Pennsylvania
3276,1115 West Chester Pike Unit 2A,WEST CHESTER,PA,19382,(484) 790-8229,39.9704933,-75.5726095,Pennsylvania
3116,1415 Washington Ave,PHILADELPHIA,PA,19146,(215) 201-3505,39.9333557,-75.14504299999999,Pennsylvania
2160,F5 Calle Ebano St 100,Ste 100,00968,Guaynabo,(787) 774-1370,18.4091211,-66.10535500000003,
2161,Plaza Rio Hondo Mall - Int. Of,Bayamon,PR,00961,(787) 261-6250,18.42257,-66.16241,
2162,22 Ave Winston Chuchill,San Juan,PR,00926,(787) 282-2966,18.368956,-66.067688,
2188,200 Rafael Cordero Ave.,Caguas,PR,00725,(787) 286-2999,18.248887,-66.021834,
2271,5891 Plaza Escorial,Carolina,PR,00987,(787) 769-5821,18.394837,-65.997585,
2272,506 Truncado St. ,Hatillo,PR,00659,(787) 878-8800,18.48141,-66.77115,
2436,15250 Ave. 65 De Infanteria,Bo. Canovanillas,00987,Carolina,(787) 701-6000,18.375382,-65.927174,
2308,2643 Ponce Bypass,Ste. 148,00728,Ponce,(787) 812-3300,17.994471,-66.638596,
2334,150 Carretera 940,Ste 365,00738,Fajardo,(787) 863-3700,18.344654,-65.67295,
2378,3023 Ave Ramon Luis Rivera STE,Bayamon,PR,00956,(787) 279-3500,18.360039,-66.189364,
2354,252 Calle Dr Raymon E Betances,Mayaguez,PR,00680,(787) 831-1300,18.2013463,-67.14515169999999,
3281,350 St PR-3,Space A99A,00791,HUMACAO,(787) 719-7829,18.142306,-65.8086244,
2359,15 Dowling Village Blvd,North Smithfield,RI,02896,(401) 229-9294,41.979241,-71.50829,Rhode Island
0785,1275 Bald Hill Rd,Warwick,RI,02886,(401) 828-0500,41.70425,-71.49362,Rhode Island
3029,100 Franklin Street  Unit D,Westerly,RI,02891,(401) 326-9286,41.3619635,-71.81044320000001,Rhode Island
1574,1386 Atwood Ave Ste 40,Johnston,RI,02919,(401) 942-1912,41.81588271429322,-71.49868304683525,Rhode Island
1286,10136 Two Notch Rd Ste 109C,Columbia,SC,29229,(803) 419-1342,34.11674,-80.87837,South Carolina
1300,1125 Woodruff Rd Ste 900,Greenville,SC,29607,(864) 284-6398,34.82715,-82.29976,South Carolina
1301,6019 Wade Hampton Blvd.,Taylors,SC,29687,(864) 968-2024,34.93638,-82.27529,South Carolina
1528,1301 Oak Forest Lane,Myrtle Beach,SC,29577,(843) 626-2164,33.70508,-78.91214,South Carolina
1751,5135U Sunset Boulevard,Lexington,SC,29072,(803) 356-1917,34.00759,-81.19624,South Carolina
2088,322 Robert Smalls Parkway,Beaufort,SC,29906,(843) 522-9864,32.42447,-80.73096,South Carolina
2089,2887 David H McLeod Blvd,Florence,SC,29501,(843) 665-1190,34.192836,-79.840052,South Carolina
2276,253 Applewood Center Place,Seneca,SC,29678,(864) 324-5043,34.68955,-82.99128,South Carolina
0399,246 Harbison Blvd,Columbia,SC,29212,(803) 781-6339,34.0719,-81.16024,South Carolina
0400,2449 Laurens Rd,Greenville,SC,29607,(864) 627-1165,34.82785,-82.34668,South Carolina
0401,150 E Blackstock Rd Ste A,Spartanburg,SC,29301,(864) 576-8868,34.93152,-81.98924,South Carolina
0405,1110 Hospitality Dr,Rock Hill,SC,29730,(803) 817-6610,34.9776,-80.98297,South Carolina
1236,2527 Whiskey Rd,Aiken,SC,29803,(803) 643-8626,33.50857,-81.71165,South Carolina
1250,676 Long Point Rd,Mt Pleasant,SC,29464,(843) 884-1419,32.84197,-79.8537,South Carolina
1251,470 Azalea Square Blvd,Summerville,SC,29483,(843) 821-7043,33.03875,-80.16053,South Carolina
1252,2076 Sam Rittenberg Boulevard,Charleston,SC,29407,(843) 573-9220,32.79218,-80.03089,South Carolina
1089,3523 Clemson Blvd,Anderson,SC,29621,(864) 224-0436,34.5532,-82.68049,South Carolina
1186,30 Malphrus Rd #B,Bluffton,SC,29910,(843) 836-2020,32.243379,-80.8285141,South Carolina
2423,4400 Fort Jackson Blvd Ste 300,Columbia,SC,29209,(803) 740-2032,33.99059214053533,-80.97237977116396,South Carolina
2394,1530 Highway 17 North,North Myrtle Beach,SC,29582,(843) 281-4832,33.844932,-78.65937159999999,South Carolina
2559,621 Fairview Rd. Suite #2,Simpsonville,SC,29680,(864) 757-3140,34.7153995,-82.25511719999997,South Carolina
2109,1391 S Commons Dr.,Myrtle Beach,SC,29588,(843) 650-6640,33.6472879,-78.98439200000001,South Carolina
1752,139 Rolling Hills Cir.,Easley,SC,29640,(864) 442-4012,34.8263712,-82.54917869999997,South Carolina
2407,7620 Rivers Ave Ste 120B,Charleston,SC,29406,(843) 614-3692,32.9402166,-80.04003369999998,South Carolina
3063,850 Folly Rd,Charleston,SC,29412,(843) 614-3758,32.7366315,-79.96494589999998,South Carolina
3157,161 Copper Plate Rd.,HARDEEVILLE,SC,29927,(843) 208-2288,32.309587,-80.974148,South Carolina
2701,430 William Hilton Parkway Unit 107,Hilton Head Island,SC,29926,(843) 341-2981,32.2149838,-80.70446170000002,South Carolina
3018,310 E Martintown Rd,North Augusta,SC,29841,(803) 426-5025,33.49689650000001,-81.96257100000003,South Carolina
2289,201 Hospitality Blvd,Greenwood,SC,29649,(864) 396-4099,34.202983,-82.19719800000001,South Carolina
3237,8821 Dorchester Rd STE 101,NORTH CHARLESTON,SC,29420,(843) 480-4507,32.926819,-80.129204,South Carolina
1503,2818 S. Louise Avenue,Sioux Falls,SD,57106,(605) 323-0111,43.52051,-96.77154,South Dakota
1504,925 Disk Drive,Rapid City,SD,57701,(605) 341-4488,44.10727,-103.22629,South Dakota
2763,625 S Highline Pl,Sioux Falls,SD,57110,(605) 305-5006,43.5422622,-96.65343819999998,South Dakota
1866,807 Industrial Boulevard,Smyrna,TN,37167,(615) 220-8487,35.979498,-86.569632,Tennessee
1302,7941 Winchester Rd,Memphis,TN,38125,(901) 756-2676,35.04854,-89.79867,Tennessee
1303,2805 Wolfcreek Parkway,Memphis,TN,38133,(901) 384-9823,35.20239,-89.79445,Tennessee
1529,5591 Hwy 153 Retail F,Hixson,TN,37343,(423) 874-0188,35.14794064037927,-85.2515299251312,Tennessee
1530,6622 Charlotte Pike Suite 108,Nashville,TN,37209,(615) 352-9386,36.13758,-86.88239,Tennessee
1726,219 Hamilton Crossing Drive,Alcoa,TN,37701,(865) 970-3489,35.76947,-83.98498,Tennessee
1832,1038 Crossings Blvd,Spring Hill,TN,37174,(931) 486-2727,35.73648,-86.9355,Tennessee
0639,2130 Gunbarrel Rd,Chattanooga,TN,37421,(423) 899-9223,35.03437,-85.15158,Tennessee
0642,214 Morrell Rd,Knoxville,TN,37919,(865) 691-2194,35.92668,-84.03507,Tennessee
0643,635 Vann Dr,Jackson,TN,38305,(731) 661-0049,35.66855,-88.84652,Tennessee
0646,4642 Lebanon Pike,Hermitage,TN,37076,(615) 883-2726,36.2172338,-86.59570209999998,Tennessee
0648,1734 Old Fort Pkwy,Murfreesboro,TN,37129,(615) 890-4344,35.84629,-86.41871,Tennessee
0649,2201 Gallatin Pike N,Madison,TN,37115,(615) 859-5100,36.3039,-86.68802,Tennessee
0650,719 Thompson Lane,Nashville,TN,37204,(615) 386-0105,36.10866,-86.76367,Tennessee
0651,8105 Moores Lane Ste 1300,Brentwood,TN,37027,(615) 371-8890,35.96574,-86.80221,Tennessee
0654,2003 N Eastman Rd Suite 40,Kingsport,TN,37660,(423) 343-0107,36.54290862073569,-82.51717096427916,Tennessee
0655,3211 Peoples St,Johnson City,TN,37604,(423) 854-8833,36.34676,-82.40079,Tennessee
2087,5883 Poplar Ave,Memphis,TN,38119,(901) 767-6920,35.10201,-89.86672,Tennessee
1087,11134 Parkside Dr,Knoxville,TN,37934,(865) 675-1191,35.902,-84.1524,Tennessee
2441,1600 N. Jackson Street,Suite 310,37388,Tullahoma,(931) 588-3168,35.3786502,-86.22532130000002,
2492,713 Winfield Dunn Pkwy Ste 1,Sevierville,TN,37876,(865) 868-3420,35.88039400285114,-83.57079962698367,Tennessee
2738,8163 Sawyer Brown Rd Bldg A8,NASHVILLE,TN,37221,(615) 810-9016,36.0842478,-86.9439329,Tennessee
2495,203 Main Street,Oak Ridge,TN,37830,(865) 294-0596,36.0146796,-84.2531773,Tennessee
3123,235 E MAIN ST#100,HENDERSONVILLE,TN,37075,(615) 431-3963,36.3070378,-86.60226080000001,Tennessee
1561,401 South Mt Juliet Rd Suite 645,Mount Juliet,TN,37122,(615) 773-2175,36.16614,-86.51399,Tennessee
3146,250 E Emory Rd,POWELL,TN,37849,(865) 947-7125,36.0467536,-84.0036005,Tennessee
3086,300 Paul Huff Pkwy NW #300,CLEVELAND,TN,37312,(423) 790-3170,35.20890234459532,-84.85098539154052,Tennessee
0647,2784 Wilma Rudolph Blvd,Clarksville,TN,37040,(931) 906-8069,36.58646,-87.29738,Tennessee
3268,295 Market Blvd.,COLLIERVILLE,TN,38017,(901) 860-2301,35.0477711,-89.69441859999999,Tennessee
2750,1265 Interstate Dr Ste 301,COOKEVILLE,TN,38501,(931) 559-7387,36.1381394,-85.50809420000002,Tennessee
1857,4439 Sunset Drive,San Angelo,TX,76901,(325) 949-6160,31.42213,-100.47896,Texas
0186,5610 S Broadway Ave,Tyler,TX,75703,(903) 534-5261,32.28901,-95.30263,Texas
1862,3096 N Eastman Rd Ste 106,Longview,TX,75605,(903) 663-0705,32.54943192037988,-94.72461990370482,Texas
1278,931 E Interstate 30,Rockwall,TX,75087,(972) 722-5333,32.90102,-96.45678,Texas
1279,138 E IH 20 Suite 160,Weatherford,TX,76087,(817) 598-0702,32.72733126212366,-97.78286756983636,Texas
1280,6572 Lake Worth Blvd,Fort Worth,TX,76135,(817) 238-0111,32.81451,-97.42543,Texas
1281,415 Carroll St,Fort Worth,TX,76107,(817) 820-0630,32.75501,-97.35462,Texas
1282,6060 Long Prairie Ste 200,Flower Mound,TX,75028,(972) 539-0476,33.06864185354345,-97.0802140367706,Texas
1294,117 Richmond Ranch Rd,Texarkana,TX,75503,(903) 832-0244,33.45836,-94.09111,Texas
1344,7600 N 10th St Bldg 200,McAllen,TX,78504,(956) 686-9037,26.27228192321562,-98.2154695700836,Texas
1352,3501 Catclaw Dr,Abilene,TX,79606,(325) 692-9411,32.4086319,-99.77666110000001,Texas
1358,17723 Tomball Pkwy,Houston,TX,77064,(281) 807-6197,29.95975,-95.54779,Texas
1395,119 Southwest Loop 410 Bldg 3,San Antonio,TX,78245,(210) 680-7710,29.4424,-98.63954,Texas
1422,25829 NW Freeway,Cypress,TX,77429,(281) 256-2760,29.96507,-95.68985,Texas
1449,7812 NE Zac Lentz,Victoria,TX,77904,(361) 576-0659,28.86384,-97.00281,Texas
1533,5740 Hwy 6,Missouri City,TX,77459,(281) 208-1596,29.57151,-95.57019,Texas
1534,2900 I-45,Conroe,TX,77303,(936) 494-2500,30.35861,-95.48438,Texas
1536,3913 N US Hwy 75,Sherman,TX,75090,(903) 893-4812,33.6782215,-96.6050783,Texas
1550,150 Lincoln Square,Arlington,TX,76011,(817) 274-2842,32.75741,-97.10055,Texas
1551,203 E Interstate 20 Hwy Ste 1,Arlington,TX,76018,(817) 466-1437,32.68197576413831,-97.11100077238314,Texas
1565,3201 W Lawrence Rd Ste D,Wichita Falls,TX,76308,(940) 696-5814,33.87468,-98.53993,Texas
1568,10075 Almeda Genoa Rd.,Houston,TX,77075,(713) 910-0233,29.62767,-95.23656,Texas
1577,585 Morrison Rd,Brownsville,TX,78520,(956) 350-0608,25.96576,-97.51659,Texas
1578,2317 W Lincoln,Harlingen,TX,78552,(956) 423-1062,26.18166,-97.72441,Texas
1596,3550 S General Bruce Drive,Temple,TX,76504,(254) 742-1816,31.09213,-97.38429,Texas
1611,8380 Westheimer Rd,Houston,TX,77063,(713) 914-0965,29.73691,-95.51376,Texas
1642,14420 FM 2920,Tomball,TX,77377,(281) 516-0834,30.0918163,-95.6410021,Texas
1662,104 E Hwy 332 E,Lake Jackson,TX,77566,(979) 299-1266,29.04427,-95.45637,Texas
1728,2800 Highway 121,Euless,TX,76039,(817) 545-7585,32.87747,-97.09845,Texas
1732,8676 State Highway 121,McKinney,TX,75070,(214) 383-0253,33.1272,-96.72852,Texas
1736,1201 Barbara Jordan Blvd,Austin,TX,78723,(512) 469-0501,30.30662,-97.70944,Texas
1737,5207 Brodie Lane,Sunset Valley,TX,78745,(512) 358-0127,30.2314,-97.81858,Texas
1750,1836 Joe Battle Blvd,El Paso,TX,79936,(915) 856-8039,31.75514,-106.26736,Texas
1765,32962 FM 2978 rd,Magnolia,TX,77354,(281) 259-5996,30.21803,-95.56809,Texas
1766,9718 Katy Freeway,Houston,TX,77055,(713) 932-9909,29.78452,-95.5326,Texas
1772,201 University Oaks Blvd,Round Rock,TX,78665,(512) 238-8859,30.55583,-97.68968,Texas
1775,19175 Lyndon B Johnson Fwy,Mesquite,TX,75150,(972) 686-3990,32.79555,-96.62677,Texas
1779,170 E Stacy Road,Allen,TX,75002,(972) 678-0401,33.12982,-96.65585,Texas
0178,1300 Green Oaks Rd,Fort Worth,TX,76116,(817) 377-8668,32.74648,-97.43276,Texas
1780,1907 Taylor St.,Houston,TX,77007,(713) 863-0533,29.77444,-95.38145,Texas
0179,3300 N Central Expwy,Plano,TX,75074,(972) 422-8307,33.03809,-96.70377,Texas
0181,4005 W Airport Fwy,Irving,TX,75062,(972) 255-0027,32.83735,-97.00264,Texas
1819,315 Creekside Way,New Braunfels,TX,78130,(830) 620-7738,29.72957,-98.07544,Texas
1822,6046 Marsha Sharp Fwy,Lubbock,TX,79407,(806) 799-4637,33.5499471,-101.9503666,Texas
1826,5709 Liberty Grove Rd,Rowlett,TX,75089,(972) 412-1624,32.91043,-96.55581,Texas
1835,1335 E. Whitestone Blvd,Cedar Park,TX,78613,(512) 528-1683,30.52629,-97.81361,Texas
0620,200 Village Center Dr,Southlake,TX,76092,(817) 251-6848,32.94099,-97.12277,Texas
0622,12100 Inwood Rd,Dallas,TX,75244,(972) 239-3554,32.9131,-96.81712,Texas
0624,1751 N Central Expy Bldg,Mckinney,TX,75070,(972) 547-6990,33.21337123836778,-96.64005340412143,Texas
0631,16758 SW Fwy,Sugarland,TX,77479,(281) 494-8787,29.59319453578481,-95.6356885105896,Texas
0632,5722 Fairmont Pkwy,Pasadena,TX,77505,(281) 991-6043,29.64772,-95.15338,Texas
0190,860 NE Mall Blvd,Hurst,TX,76053,(817) 590-4555,32.82631,-97.20149,Texas
0191,4206 West Loop 250 N,Midland,TX,79707,(432) 520-3134,32.03056,-102.14376,Texas
0192,11066 Pecan Park Blvd Ste 315,Cedar Park,TX,78613,(512) 996-8605,30.46993,-97.80117,Texas
0193,1628 Ohlen Rd,Austin,TX,78758,(512) 835-7221,30.36365,-97.71708,Texas
1946,5574 West Grand Parkway S.,Richmond,TX,77406,(281) 232-6541,29.69446,-95.77327,Texas
0195,2601 S IH35 Pad E,Round Rock,TX,78664,(512) 218-1816,30.48426,-97.67182,Texas
1953,21019 US Hwy 281,San Antonio,TX,78258,(210) 481-3369,29.63696,-98.45578,Texas
1954,2325 S Stemmons Freeway,Lewisville,TX,75067,(972) 315-9271,33.00696,-96.97836,Texas
0196,5214 Blanch Moore,Corpus Christi,TX,78411,(361) 993-8882,27.7093,-97.37831,Texas
1966,4465 Bryant Irvin Rd,Fort Worth,TX,76132,(817) 377-1889,32.68544,-97.41379,Texas
1967,2610 Eldridge Pkwy,Houston,TX,77082,(281) 596-0535,29.7343,-95.62383,Texas
0197,420 E Expressway 83,Mcallen,TX,78503,(956) 618-2203,26.1873,-98.21897,Texas
0198,5415 West Loop S,Houston,TX,77081,(713) 661-5585,29.72385,-95.45912,Texas
0201,140 Fm 1960 Rd E,Houston,TX,77073,(281) 821-4355,30.02156,-95.4272,Texas
0203,1549 West Bay Area Blvd,Webster,TX,77598,(281) 332-1583,29.53799,-95.15079,Texas
2064,1551 N. US Highway 287 Ste 501,Mansfield,TX,76063,(817) 453-8229,32.5863,-97.13918,Texas
2065,2900 Heritage Trace Pkwy,Fort Worth,TX,76177,(817) 741-7923,32.9134931,-97.31359220000002,Texas
2066,3340 FM 544 Ste 800,Wylie,TX,75098,(972) 442-2253,33.00977,-96.59332,Texas
2069,2022 E 42nd,Odessa,TX,79762,(432) 362-1614,31.88846,-102.35232,Texas
0208,4600 Franklin Ave,Waco,TX,76710,(254) 741-6847,31.52461,-97.16568,Texas
0209,6055 La Cima,San Antonio,TX,78229,(210) 523-7995,29.488,-98.59073,Texas
0210,12960 Park Central,San Antonio,TX,78216,(210) 545-6875,29.56097,-98.48586,Texas
0211,8520 Fourwinds Dr,San Antonio,TX,78239,(210) 590-0393,29.51165,-98.39508,Texas
0212,655 Sunland Park Dr,El Paso,TX,79912,(915) 587-7898,31.82036,-106.54057,Texas
2128,4854 Highway 121,Lewisville,TX,75056,(469) 362-2824,33.065,-96.88842,Texas
2133,2525 W. Wheatland Rd.,Dallas,TX,75137,(972) 656-2352,32.64973,-96.86216,Texas
2149,1451 N. Highway 77,Waxahachie,TX,75165,(972) 937-3767,32.42402,-96.84156,Texas
2199,6102 Broadway St,Galveston,TX,77551,(409) 744-2598,29.28932,-94.83961,Texas
2226,4045 Dowlen Road,Beaumont,TX,77706,(409) 924-0247,30.11987,-94.16711,Texas
2260,1241 FM 1462,Alvin,TX,77511,(281) 824-3736,29.4003611,-95.24793939999999,Texas
1242,3800 Belt Line Rd,Addison,TX,75001,(972) 919-4740,32.9506423,-96.8516788,Texas
1243,1013 W University Ave Bldg B,Georgetown,TX,78628,(512) 868-2288,30.63101933473148,-97.6943288801483,Texas
1244,11150 Research Blvd Svrd SB Ste 100,Austin,TX,78759,(512) 527-9644,30.40723,-97.74551,Texas
1245,12812 Shops Parkway Ste 400,Austin,TX,78738,(512) 263-5790,30.30558,-97.94197,Texas
1028,5219 De Zavala Rd Ste 102,San Antonio,TX,78249,(210) 561-0644,29.5660583,-98.58774089999997,Texas
1031,8278 Agora Pkwy,Selma,TX,78154,(210) 566-7309,29.57087,-98.32625,Texas
1043,3333 Preston Rd Ste 1100,Frisco,TX,75034,(972) 668-4311,33.10704885410099,-96.81347130663755,Texas
1044,16821 Coit Rd,Dallas,TX,75248,(972) 381-1588,32.98416677830381,-96.76985679657287,Texas
1045,13830 NW Fwy,Houston,TX,77040,(713) 690-0575,29.85409,-95.51374,Texas
1046,19075 IH 45 South Ste 114,Conroe,TX,77385,(936) 273-9888,30.18382,-95.4517,Texas
1070,2309 W I-20,Grand Prairie,TX,75052,(972) 660-8844,32.6735073,-97.03884779999998,Texas
1079,1505 University Dr East Suite 600,College Station,TX,77840,(979) 260-4134,30.63797,-96.31668,Texas
1100,7050 Hwy 6 N,Houston,TX,77095,(281) 855-9985,29.88031,-95.64486,Texas
1104,8100 Walton Blvd,Irving,TX,75063,(972) 506-7740,32.92124,-96.96524,Texas
1107,2902 S Shepherd Dr,Houston,TX,77098,(713) 520-7917,29.73962,-95.41143,Texas
1109,5401 N Garland Ave,Garland,TX,75040,(972) 675-4900,32.96651,-96.64562,Texas
1110,12930 South Freeway,Burleson,TX,76028,(817) 426-4110,32.57023,-97.31941,Texas
1121,3119 Silverlake Village Dr,Pearland,TX,77584,(713) 436-5481,29.55314,-95.38597,Texas
1122,7616 Denton Hwy Ste 532,Watauga,TX,76148,(817) 428-6241,32.88312,-97.26058,Texas
1185,12901 N I-35 Bldg 7 Ste 700,Austin,TX,78753,(512) 990-0365,30.41544,-97.67284,Texas
1226,8230 Kirby Dr,Houston,TX,77054,(713) 662-2553,29.69026,-95.41424,Texas
1232,5500 Greenville Ave Ste 900,Dallas,TX,75206,(469) 232-2030,32.85455007975225,-96.76837221824644,Texas
1233,9300 South IH-35,Austin,TX,78748,(512) 280-0404,30.14653,-97.7941,Texas
2445,11791 Bandera Rd.,San Antonio,TX,78250,(210) 526-6631,29.546763,-98.668229,Texas
2358,17815 La Cantera Parkway,San Antonio,TX,78257,(210) 247-6020,29.6092794,-98.5959474,Texas
2542,1339 W 43rd St.,Houston,TX,77018,(713) 346-9359,29.8274893,-95.43190229999999,Texas
2463,2770 Highway 365 Suite C,Port Arthur,TX,77640,(409) 984-3634,29.9435457,-93.99499359999999,Texas
2376,11833 Dallas Parkway,Frisco,TX,75033,(469) 237-3531,33.1762552,-96.8404837,Texas
2414,7331 Gaston Avenue,Dallas,TX,75214,(214) 624-9030,32.8120719,-96.7301784,Texas
3265,1600 Murphy Ave Ste B,DONNA,TX,78537,(956) 377-7377,26.1819832,-98.0422363,Texas
3011,6345 Garth Rd  Suite 140,Baytown,TX,77521,(346) 216-3983,29.7940389,-94.98037769999996,Texas
3067,727 Hwy 67,Cedar Hill,TX,75104,(972) 637-6600,32.6017132,-96.93335339999999,Texas
3068,1671 South IH 35 Suite 200,New Braunfels,TX,78130,(830) 310-3481,29.6839793,-98.13467830000002,Texas
3023,1208 North Hwy 377,Roanoke,TX,76262,(817) 854-3111,33.01358,-97.22013909999998,Texas
3080,10181 Grand Parkway S.,RICHMOND,TX,77407,(832) 586-7572,29.66106430256468,-95.71120108834609,Texas
1729,1921 Gulf Freeway South,Dickinson,TX,77539,(281) 534-4590,29.46183,-95.08681,Texas
3069,6450 Desert Blvd. N,Bldg B,79932,EL PASO,(915) 261-1892,31.8889254,-106.58228910000003,
1058,1441 S Loop 288,Denton,TX,76205,(940) 591-9895,33.207774,-97.09510499999999,Texas
1101,5941 E Sam Houston Pkwy N,Houston,TX,77049,(281) 436-1249,29.81062,-95.16394,Texas
1108,20518 Hwy 59,Humble,TX,77338,(281) 540-1274,30.01476,-95.26163,Texas
3050,1265 Arrington Road,College Station,TX,77845,(979) 329-7090,30.5548524,-96.26502529999999,Texas
3049,6545 N. Grand Parkway West Suite 104,Spring,TX,77389,(832) 823-2414,30.08803949999999,-95.52034370000001,Texas
3151,2415 N Haskell Ave STE 113,DALLAS,TX,75204,(972) 729-5580,32.804811,-96.78987459999996,Texas
3048,4057 Riley Fuzzel Rd,Spring,TX,77386,(832) 823-2420,30.1160653,-95.38230429999999,Texas
3012,1001 S. Preston Road,PROSPER,TX,75078,(972) 346-5609,33.2250436,-96.7953474,Texas
1396,5435 W TX-1604 Loop N,San Antonio,TX,78253,(210) 520-4195,29.48605,-98.70914,Texas
1423,1050 McKinley Place Dr,Suite 30,78666,San Marcos,(512) 392-5959,29.85372,-97.95294,
1460,1905 Tulane Dr Ste 101,Lufkin,TX,75901,(936) 634-1116,31.30829,-94.72324,Texas
2709,21436 Market Place Dr,New Caney,TX,77357,(281) 747-3110,30.132313714,-95.2356902,Texas
3039,3790 Joe Battle Blvd.,EL PASO,TX,79936,(915) 245-3526,31.8043,-106.26646140000003,Texas
3035,24600 Katy Freeway,Suite 500,77494,Katy,(346) 307-3014,29.78677830092839,-95.79313334572754,
3025,14281 E Sam Houston Pkwy N,Houston,TX,77044,(281) 670-2088,29.9238294,-95.20039020000002,Texas
2707,5440 El Dorado Blvd Suite 1500,Houston,TX,77059,(281) 667-9435,29.6009956,-95.12199620000001,Texas
0187,4800 SW Loop 820,Fort Worth,TX,76109,(817) 731-4353,32.684,-97.39904,Texas
0188,6801 Slide Rd,Lubbock,TX,79424,(806) 798-0717,33.53295,-101.92238,Texas
0189,2800 Soncy Rd,Amarillo,TX,79124,(806) 351-1171,35.1824,-101.93812,Texas
0204,19945 Katy Fwy,Houston,TX,77094,(281) 599-1125,29.78304,-95.7182,Texas
0619,6204 W Park Blvd,Plano,TX,75093,(972) 407-0101,33.02754,-96.83323,Texas
0628,2500 E Central Texas Hwy,Killeen,TX,76543,(254) 634-1664,31.08780666008751,-97.71922947717667,Texas
2063,8889 Gateway Blvd W C400 Suite,El Paso,TX,79925,(915) 255-4233,31.770249,-106.37136499999997,Texas
2751,26960 FM 1093 Road,RICHMOND,TX,77406,(281) 769-4034,29.695922,-95.844905,Texas
3273,13371-1 Eastlake Blvd,EL PASO,TX,79928,(915) 995-3144,31.6896084,-106.26759,Texas
2708,415 W. Loop 1604 S Suite 119,SAN ANTONIO,TX,78253,(726) 444-2904,29.43224,-98.713401,Texas
3241,954 Highway 290 E,BRENHAM,TX,77833,(979) 353-3035,30.14131382028486,-96.38246730429074,Texas
3257,301 E Highway 377 #108,GRANBURY,TX,76048,(682) 498-4213,32.43223008171769,-97.78552324492186,Texas
3278,10816 International Blvd,LAREDO,TX,78045,(956) 615-9858,27.615227,-99.467227,Texas
1385,3081 S 5600 W,Salt lake City,UT,84120,(801) 840-2728,40.70416173249988,-112.0224548981476,Utah
1393,990 W State Road,American Fork,UT,84003,(801) 756-0192,40.3873864,-111.82567599999999,Utah
0166,1145 W Riverdale Rd,Riverdale,UT,84405,(801) 392-0119,41.17559,-112.00776,Utah
0169,3191 E 3300 S,Salt Lake City,UT,84109,(801) 487-9290,40.69993,-111.80296,Utah
0171,20 W University Pkwy,Orem,UT,84058,(801) 224-0026,40.27357,-111.69582,Utah
1784,7654 Campus View Drive,West Jordan,UT,84084,(801) 280-0099,40.61225,-111.98015,Utah
2084,15 S. River Road,St George,UT,84790,(435) 673-2848,37.10919,-113.55411,Utah
2207,175 W 12th Street,Ogden,UT,84404,(801) 392-0024,41.24224,-111.98012,Utah
2216,750 N. Main St.,Layton,UT,84041,(801) 336-5265,41.07215,-111.97685,Utah
2217,100 N Market Place Dr.,Centerville,UT,84014,(801) 294-3273,40.91969,-111.88616,Utah
1007,10329 S State St,Sandy,UT,84070,(801) 495-3700,40.56354,-111.89071,Utah
1056,1050 N Main St St A,Logan,UT,84341,(435) 755-0244,41.75053221675939,-111.83244264418033,Utah
0172,389 West 1830 S,Salt Lake City,UT,84115,(801) 466-0313,40.72957,-111.90267,Utah
1782,5748 S. Redwood Road,Taylorsville,UT,84123,(801) 840-2236,40.64688,-111.93893,Utah
3132,5650 S 900 E,MURRAY,UT,84121,(385) 347-3246,40.6480062,-111.86658019999999,Utah
2769,13296 S. Kestrel Range Road,RIVERTON,UT,84096,(385) 274-3928,40.509921,-112.002482,Utah
0787,21 Trader Lane,Williston,VT,05495,(802) 872-1819,44.44489,-73.11674,Vermont
1328,7225 Bell Creek Rd Ste 228,Mechanicsville,VA,23111,(804) 730-7545,37.59933,-77.34998,Virginia
1329,13241 Gateway Center Dr,Gainesville,VA,20155,(571) 248-4300,38.79607,-77.6067,Virginia
1354,11740 W Broad St Ste A,Richmond,VA,23233,(804) 364-2570,37.656875,-77.614457,Virginia
1439,101 Community St,Charlottesville,VA,22902,(434) 964-9213,38.1271,-78.44239,Virginia
1483,510 D East Market St,Leesburg,VA,20176,(703) 669-5056,39.11118,-77.55212,Virginia
1505,9751 Jefferson Davis Hwy,Fredericksburg,VA,22407,(540) 834-4336,38.222244,-77.502047,Virginia
1541,1275 N Military Hwy,Norfolk,VA,23502,(757) 459-6712,36.8674,-76.21099,Virginia
1554,1671 E Market St,Harrisonburg,VA,22801,(540) 432-6460,38.43503,-78.84759,Virginia
1594,135 Collins Drive,Ste C,24540,Danville,(434) 792-7612,36.59629,-79.42412,
1648,15331 Montanus Drive,Culpeper,VA,22701,(540) 825-8793,38.48205,-77.96934,Virginia
1716,165 Shoppers Way,Christiansburg,VA,24073,(540) 382-7290,37.16628,-80.42359,Virginia
1773,4531 South Laburnum Ave Ste 740,Richmond,VA,23231,(804) 236-3245,37.53143183464191,-77.3538382121643,Virginia
1808,821G Town Center Drive,Waynesboro,VA,22980,(540) 949-0096,38.058,-78.94636,Virginia
1838,3364 Princess Anne Drive,Virginia Beach,VA,23456,(757) 368-3606,36.77339,-76.08779,Virginia
0667,12142 Jefferson Ave,Newport News,VA,23602,(757) 249-2007,37.10616,-76.49456,Virginia
0668,1236 Greenbrier Pkwy,Chesapeake,VA,23320,(757) 436-7559,36.77122,-76.22855,Virginia
0673,42 Southgate Square,Colonial Heights,VA,23834,(804) 520-0801,37.24771,-77.38985,Virginia
0675,1276 Carmia Way,Richmond,VA,23235,(804) 897-9490,37.50883851713212,-77.60432527381897,Virginia
0677,4749 Valley View Blvd NW,Roanoke,VA,24012,(540) 362-2994,37.30723,-79.96115,Virginia
1928,27 South Gateway Drive,Fredericksburg,VA,22406,(540) 372-1258,38.34423,-77.49127,Virginia
2187,6243 College Dr.,Suffolk,VA,23435,(757) 686-4539,36.8836,-76.42664,Virginia
2214,8204 Leesburg Pike,Vienna,VA,22182,(703) 556-8715,38.9174,-77.2278,Virginia
0355,2310 Legge Blvd,Winchester,VA,22601,(540) 662-5544,39.15615,-78.16899,Virginia
0441,12971 Fair Lakes Pkwy,Fairfax,VA,22033,(703) 802-1027,38.85853480632298,-77.38909315078735,Virginia
0442,6100 - A Arlington Blvd,Falls Church,VA,22044,(703) 536-2708,38.86796,-77.143,Virginia
0444,1421 Carl D Silver Pky,Fredericksburg,VA,22401,(540) 785-9851,38.30052,-77.50872,Virginia
0446,6535 Frontier Dr,Springfield,VA,22150,(703) 922-4990,38.77468,-77.17176,Virginia
0447,3351 Richmond Highway,Alexandria,VA,22305,(703) 739-4844,38.83549299927483,-77.04961233596805,Virginia
0450,10834 Sudley Manor Dr,Manassas,VA,20109,(703) 335-1755,38.78235,-77.5203,Virginia
0451,13337 Worth Ave,Woodbridge,VA,22192,(703) 490-8676,38.64918,-77.29516,Virginia
0453,46220 Potomac Run Plaza,Sterling,VA,20164,(703) 444-6500,39.02749,-77.40093,Virginia
1010,12264 Chattanooga Plaza,Midlothian,VA,23112,(804) 763-6058,37.42995,-77.62193,Virginia
1011,5515 W Broad St,Richmond,VA,23230,(804) 282-6455,37.58867,-77.5022,Virginia
1030,4026-B Wards Rd,Lynchburg,VA,24502,(434) 237-0036,37.34695500739099,-79.19122737063901,Virginia
1051,9870 Brook Rd,Glen Allen,VA,23059,(804) 266-1476,37.66843,-77.46101,Virginia
1171,4421 Virginia Beach Blvd,Virginia Beach,VA,23462,(757) 497-1279,36.84247,-76.1278,Virginia
1174,1160 Stafford Market Place,Stafford,VA,22556,(540) 658-9272,38.46948,-77.40884,Virginia
1180,4300 Portsmouth Blvd Ste 270-A,Chesapeake,VA,23321,(757) 405-3143,36.82319,-76.42049,Virginia
2364,4210L Franklin Road SW,Roanoke,VA,24014,(540) 283-5301,37.223871,-79.96639800000003,Virginia
2539,161 Market Street,Winchester,VA,22603,(540) 431-3401,39.2205621,-78.1348726,Virginia
1839,24570 Dulles Landing Dr,Unit 140,Dulles,Unit 140,(571) 367-3021,38.9363171,-77.52128829999998,
2453,3670 Von Schilling Drive,Hampton,VA,23666,(757) 637-4828,37.0444608,-76.38873519999999,Virginia
2385,9528 Main Street,Fairfax,VA,22031,(571) 328-7770,38.8413999,-77.27290219999998,Virginia
2404,425 Merchant Walk Sq,Charlottesville,VA,22902,(434) 422-4526,38.01249995122448,-78.5012827328186,Virginia
1650,11860 Spectrum Center,Reston,VA,20190,(703) 796-0656,38.96456,-77.35492,Virginia
1774,16760 Highlands Center Blvd,Bristol,VA,24202,(276) 466-4897,36.64066,-82.10692,Virginia
1073,4900 Monticello Ave,Williamsburg,VA,23188,(757) 259-1630,37.27079,-76.75556,Virginia
1353,7690 Richmond Hwy,Alexandria,VA,22306,(703) 721-0650,38.74999,-77.08321,Virginia
1484,13866 Metrotech Drive,Chantilly,VA,20151,(703) 378-1295,38.89475,-77.42451,Virginia
1942,9970 Sowder Village Square,Manassas,VA,20109,(703) 396-8631,38.73784,-77.53399,Virginia
1987,501 Hilltop Plaza,Virginia Beach,VA,23454,(757) 425-0286,36.84926,-76.0253,Virginia
0670,3413 Virginia Beach Blvd,Virginia Beach,VA,23452,(757) 486-1233,36.84124,-76.09161,Virginia
3085,12860 Jefferson Davis HWY,Chester,VA,23831,(804) 312-8180,37.3509226,-77.41299509999999,Virginia
1274,1130 SE Everett Mall Way,Everett,WA,98208,(425) 267-3401,47.90934,-122.21729,Washington
1276,1203 N Landing Way,Renton,WA,98055,(425) 204-1759,47.49698,-122.20208,Washington
1277,3723 116th St. NE,Marysville,WA,98270,(360) 651-2471,48.10001,-122.18051,Washington
1382,15615 E Broadway Ave,Spokane Valley,WA,99037,(509) 927-9223,47.66426,-117.19416,Washington
1959,10309 156th Street East,Puyallup,WA,98373,(253) 445-4494,47.11116,-122.29337,Washington
2055,100 108th Ave NE,Bellevue,WA,98004,(425) 454-1054,47.61017,-122.19616,Washington
0371,719 Sleater-Kinney Rd SE,Lacey,WA,98503,(360) 493-0228,47.04115,-122.83384,Washington
0372,18820 Hwy 99,Lynnwood,WA,98036,(425) 672-4422,47.82776,-122.31021,Washington
0373,9589 Ridgetop Blvd NW,Silverdale,WA,98383,(360) 692-1514,47.65512235837328,-122.67743213226316,Washington
0375,13000 Aurora Ave N,Seattle,WA,98133,(206) 361-1634,47.72321,-122.34497,Washington
0376,120 31st Ave SE,Puyallup,WA,98374,(253) 845-8988,47.16213,-122.29276,Washington
0377,17585 Southcenter Pkwy,Tukwila,WA,98188,(206) 575-2373,47.44684,-122.26218,Washington
0378,17845 Garden Way NE Unit 11,Woodinville,WA,98072,(425) 424-2098,47.75743,-122.15436,Washington
0381,9950 N Newport Hwy,Spokane,WA,99218,(509) 466-4566,47.74715,-117.40419,Washington
0395,4379 Guide Meridian St,Bellingham,WA,98226,(360) 738-9653,48.79986,-122.48598,Washington
0396,1403 E Washington Ave,Union Gap,WA,98903,(509) 469-9933,46.57039,-120.48279,Washington
0398,6807 W Canal Dr,Kennewick,WA,99336,(509) 735-3101,46.22673,-119.21507,Washington
1248,130 SE 192nd Ave,Vancouver,WA,98683,(360) 256-8667,45.62092,-122.47601,Washington
1273,1969 Marketplace Dr,Burlington,WA,98233,(360) 757-1616,48.4493622,-122.33982330000003,Washington
1106,31705 Pacific Hwy S,Federal Way,WA,98003,(253) 529-4693,47.31778,-122.31347,Washington
1114,10210 59th Ave SW,Lakewood,WA,98499,(253) 584-7920,47.16579,-122.51571,Washington
3005,15445 NE 24th Street,Bellevue,WA,98007,(425) 372-5758,47.6308059,-122.13350130000003,Washington
2448,4919 S Regal Street,Spokane,WA,99223,(509) 481-9339,47.6090839,-117.36817,Washington
2737,14903 4th Ave SW Ste 200,Burien,WA,98166,(206) 539-5761,47.4695007,-122.34119750000002,Washington
3109,321 Valley Mall Parkway,EAST WENATCHEE,WA,98802,(509) 415-3939,47.4095305,-120.288522,Washington
3054,5304 Point Fosdick Dr. NW,GIG HARBOR,WA,98335,(253) 853-1711,47.306325,-122.580551,Washington
3118,1626 W. Poplar Street,WALLA WALLA,WA,99324,(509) 956-3793,46.054335,-118.36821,Washington
1932,316 NE 78th Street,Vancouver,WA,98665,(360) 574-3182,45.67857,-122.66833,Washington
0374,1505 11th Ave NW,Issaquah,WA,98027,(425) 557-6651,47.54739,-122.05428,Washington
0379,3326 S 23rd St,Tacoma,WA,98405,(253) 396-0507,47.2383,-122.4797,Washington
0386,7603 NE Vancouver Plaza Dr,Vancouver,WA,98662,(360) 256-7082,45.65007,-122.59536,Washington
0671,73 RHL Blvd,South Charleston,WV,25309,(304) 746-6275,38.3342082,-81.71157010000002,West Virginia
1941,144 Retail Commons Parkway,Martinsburg,WV,25403,(304) 262-6458,39.44202,-77.98786,West Virginia
2131,115 Crossroads Mall,Mount Hope,WV,25880,(304) 253-2475,37.84395,-81.19651,West Virginia
3202,100 Grand Central Mall #530,VIENNA,WV,26105,(304) 699-3739,39.2998413,-81.5521746,West Virginia
3256,40 Tanyard Station Drive,BARBOURSVILLE,WV,25504,(304) 948-2060,38.4147244,-82.29046369999999,West Virginia
3220,96 Colliers Crossing,WESTOVER,WV,26501,(304) 212-3358,39.6350406,-80.0044261,West Virginia
1386,4013 State Hwy 28,Kohler,WI,53085,(920) 452-2684,43.71624,-87.76365,Wisconsin
1402,825 Pilgrim Way Ste B,Green Bay,WI,54304,(920) 497-1183,44.48090992458029,-88.06792715805818,Wisconsin
1415,226641 Rib Mountain Dr,Wausau,WI,54401,(715) 355-6159,44.9206745,-89.65114419999998,Wisconsin
1506,9342 State Road 16,Onalaska,WI,54650,(608) 781-5510,43.89904,-91.10888,Wisconsin
1631,5005 S 74th Street,Greenfield,WI,53220,(414) 282-7586,42.9527,-88.00691,Wisconsin
1632,1030 N Port Washington Road,Grafton,WI,53024,(262) 375-2853,43.32404,-87.92532,Wisconsin
1633,4142 Commonwealth Avenue,Eau Claire,WI,54701,(715) 831-1532,44.77352,-91.43096,Wisconsin
1636,9887 76th st,Pleasant Prairie,WI,53158,(262) 697-5716,42.56547,-87.9178,Wisconsin
1703,443 N Rolling Meadows Dr,Fond du Lac,WI,54937,(920) 921-2964,43.78926,-88.48638,Wisconsin
1788,2113 East Geneva Street,Delavan,WI,53115,(262) 740-0011,42.62775,-88.61691,Wisconsin
0601,923 N Westhill Blvd,Grand Chute,WI,54914,(920) 991-1263,44.26964,-88.46108,Wisconsin
0604,2216 E Springs Dr,Madison,WI,53704,(608) 246-0813,43.12895,-89.29646,Wisconsin
0605,8210 Plaza Dr,Madison,WI,53719,(608) 833-6446,43.05713,-89.52466,Wisconsin
3022,1005 N Washburn St.,Oshkosh,WI,54904,(920) 252-8305,44.0286433,-88.58266809999998,Wisconsin
2371,1275 Capitol Dr,Pewaukee,WI,53072,(262) 701-9073,43.084815,-88.23443499999996,Wisconsin
2472,320 W Town Square Way  Suite 200,Oak Creek,WI,53154,(414) 216-0747,42.89879911237501,-87.9166061919571,Wisconsin
3130,2700 Pontiac Place STE 100,JANESVILLE,WI,53545,(608) 302-4814,42.7158378,-88.98747079999998,Wisconsin
3149,2280 E MASON ST # 400,GREEN BAY,WI,54302,(920) 785-5805,44.4858699,-87.96824049999998,Wisconsin
1630,585 Main Street,Brookfield,WI,53005,(262) 641-3458,43.03748,-88.11143,Wisconsin
3236,11100 W Burleigh St #120,WAUWATOSA,WI,53222,(414) 516-1260,43.0759298,-88.0514374,Wisconsin
3082,505 Newport Rd,CASPER,WY,82609,(307) 462-5782,42.8458805,-106.25258009999999,Wyoming
