store_number,store_type,store_name,street,city,state,zip,phone,latitude,longitude,url,timezone,state_name,brand,updated
744,Rack,Nordstrom Rack Market at Town Center,2665 Town Center Boulevard North,Sugar Land,TX,77479,281.566.2000,29.5931065,-95.6194639,https://stores.nordstromrack.com/us/tx/sugar-land/2665-town-center-blvd-n,America/Chicago,Texas,Nordstrom,2024-03-31
748,Rack,Nordstrom Rack Bunker Hill,9714 Katy Freeway,Houston,TX,77055,281.605.2705,29.7874696,-95.53355619999999,https://stores.nordstromrack.com/us/tx/houston/9714-katy-freeway,America/Chicago,Texas,Nordstrom,2024-03-31
730,FullLineStore,Nordstrom Houston Galleria,5192 Hidalgo Street,Houston,TX,77056,832.201.2700,29.7358538,-95.4642148,,America/Chicago,Texas,Nordstrom,2024-03-31
741,Rack,Nordstrom Rack Centre at Post Oak,"5000 Westheimer Road, Suite 500",Houston,TX,77056,281.661.3600,29.7421298,-95.463177,https://stores.nordstromrack.com/us/tx/houston/5000-westheimer-rd,America/Chicago,Texas,Nordstrom,2024-03-31
747,Rack,Nordstrom Rack Willowbrook Mall,8000 Willowbrook Mall,Houston,TX,77070,832.688.2000,29.974724,-95.570652,https://stores.nordstromrack.com/us/tx/houston/8000-willowbrook-mall,America/Chicago,Texas,Nordstrom,2024-03-31
746,FullLineStore,Nordstrom The Woodlands,1201 Lake Woodlands Drive Ste 300,The Woodlands,TX,77380,832.562.4880,30.1653706,-95.45624389999999,,America/Chicago,Texas,Nordstrom,2024-03-31
713,Rack,Nordstrom Rack Portofino Shopping Center,"19075 I-45 South, Suite 106",Shenandoah,TX,77385,936.206.3243,30.1828738,-95.45013949999999,https://stores.nordstromrack.com/us/tx/shenandoah/19075-i-45-south,America/Chicago,Texas,Nordstrom,2024-03-31
721,Rack,Nordstrom Rack Baybrook Square,1211 W Bay Area Boulevard,Webster,TX,77598,281.672.6000,29.5376288,-95.140845,https://stores.nordstromrack.com/us/tx/webster/1211-w-bay-area-blvd,America/Chicago,Texas,Nordstrom,2024-03-31
280,Rack,Nordstrom Rack South Loop,1118 South Canal Street,Chicago,IL,60607,312.276.6201,41.8684423,-87.6400906,https://stores.nordstromrack.com/us/il/chicago/1118-south-canal-street,America/Chicago,Illinois,Nordstrom,2024-03-31
274,Rack,Nordstrom Rack The Shops at State and Washington,24 North State Street,Chicago,IL,60602,312.377.5500,41.8828688,-87.6281908,https://stores.nordstromrack.com/us/il/chicago/24-n-state-st,America/Chicago,Illinois,Nordstrom,2024-03-31
220,FullLineStore,Nordstrom Michigan Avenue,55 East Grand Avenue,Chicago,IL,60611,312.464.1515,41.891698,-87.62628,,America/Chicago,Illinois,Nordstrom,2024-03-31
245,Rack,Nordstrom Rack Chicago Avenue,101 East Chicago Avenue,Chicago,IL,60611,312.254.3660,41.8965654,-87.6253783,https://stores.nordstromrack.com/us/il/chicago/101-e-chicago-ave,America/Chicago,Illinois,Nordstrom,2024-03-31
268,Rack,Nordstrom Rack Lincoln Park,1551 North Sheffield Avenue,Chicago,IL,60642,312.624.6031,41.9102172,-87.65294380000002,https://stores.nordstromrack.com/us/il/chicago/1551-north-sheffield-ave,America/Chicago,Illinois,Nordstrom,2024-03-31
264,Rack,Nordstrom Rack Harlem Irving Plaza,4250 North Harlem Avenue,Norridge,IL,60706,708.842.5300,41.9574173,-87.8088748,https://stores.nordstromrack.com/us/il/norridge/4250-n-harlem-ave,America/Chicago,Illinois,Nordstrom,2024-03-31
221,FullLineStore,Nordstrom Oakbrook Center,10 Oakbrook Center,Oak Brook,IL,60523,630.571.2121,41.8524435,-87.95114840000001,,America/Chicago,Illinois,Nordstrom,2024-03-31
242,Rack,Nordstrom Rack Orland Park Place,140 Orland Park Place,Orland Park,IL,60462,708.428.2600,41.6121664,-87.8510026,https://stores.nordstromrack.com/us/il/orland-park/140-orland-park-place,America/Chicago,Illinois,Nordstrom,2024-03-31
270,Rack,Nordstrom Rack The Shops at Oak Brook Place,2155 West 22nd Street,Oak Brook,IL,60523,630.572.1212,41.8451525,-87.9710484,https://stores.nordstromrack.com/us/il/oak-brook/2155-w-22nd-st,America/Chicago,Illinois,Nordstrom,2024-03-31
289,Rack,Nordstrom Rack Fashion Outlets of Chicago,"5220 Fashion Outlets Way, #2325",Rosemont,IL,60018,847.349.6000,41.974961,-87.8671134,https://stores.nordstromrack.com/us/il/rosemont/5220-fashion-outlets-way,America/Chicago,Illinois,Nordstrom,2024-03-31
260,LastChance,Last Chance Yorktown Center,100 Yorktown Shopping Center,Lombard,IL,60148,630.599.2011,41.8394982,-88.0074695,https://stores.nordstromrack.com/us/il/lombard/100-yorktown-shopping-center,America/Chicago,Illinois,Nordstrom,2024-03-31
244,Rack,Nordstrom Rack Shops at Orchard Place,9625 Skokie Boulevard,Skokie,IL,60077,847.324.2000,42.0561989,-87.7449924,https://stores.nordstromrack.com/us/il/skokie/9625-skokie-blvd,America/Chicago,Illinois,Nordstrom,2024-03-31
223,FullLineStore,Nordstrom Old Orchard Center,4937 Old Orchard Center,Skokie,IL,60077,847.677.2121,42.0562274,-87.7498573,,America/Chicago,Illinois,Nordstrom,2024-03-31
265,Rack,Nordstrom Rack Schererville,185 US Highway 41,Schererville,IN,46375,219.227.3960,41.5189788,-87.4693247,https://stores.nordstromrack.com/us/in/schererville/185-us-highway-41,America/Chicago,Indiana,Nordstrom,2024-03-31
225,FullLineStore,Nordstrom Woodfield Shopping Center,6 Woodfield Shopping Center,Schaumburg,IL,60173,847.605.2121,42.0454143,-88.04012960000001,,America/Chicago,Illinois,Nordstrom,2024-03-31
269,Rack,Nordstrom Rack Springbrook Prairie Pavilion,2511 West 75th Street,Naperville,IL,60540,630.995.4040,41.7490501,-88.19705379999999,https://stores.nordstromrack.com/us/il/naperville/2511-w-75th-st,America/Chicago,Illinois,Nordstrom,2024-03-31
224,Rack,Nordstrom Rack Woodfield,1520 East Golf Road,Schaumburg,IL,60173,847.413.2121,42.0526028,-88.03917609999999,https://stores.nordstromrack.com/us/il/schaumburg/1520-e-golf-rd,America/Chicago,Illinois,Nordstrom,2024-03-31
229,Rack,Nordstrom Rack Northbrook,199 Skokie Boulevard,Northbrook,IL,60062,847.205.0890,42.1493218,-87.7976757,https://stores.nordstromrack.com/us/il/northbrook/199-skokie-blvd,America/Chicago,Illinois,Nordstrom,2024-03-31
285,Rack,Nordstrom Rack Kildeer Village Square,"20393 North Rand Road, Suite 104",Kildeer,IL,60074,224.286.5000,42.1617367,-88.0475043,https://stores.nordstromrack.com/us/il/kildeer/20393-north-rand-road,America/Chicago,Illinois,Nordstrom,2024-03-31
253,Rack,Nordstrom Rack Vernon Hills,"901 N. Milwaukee Avenue, Unit #600",Vernon Hills,IL,60061,224.206.8000,42.2427109,-87.94200269999999,https://stores.nordstromrack.com/us/il/vernon-hills/901-n-milwaukee-avenue,America/Chicago,Illinois,Nordstrom,2024-03-31
287,Rack,Nordstrom Rack Algonquin Commons,1808 South Randall Road,Algonquin,IL,60102,224.509.3960,42.1525173,-88.3398035,https://stores.nordstromrack.com/us/il/algonquin/1808-south-randall-road,America/Chicago,Illinois,Nordstrom,2024-03-31
202,NordstromLocal,Nordstrom Local Upper East Side,1273 3rd Ave,New York,NY,10021,332.204.9050,40.7705147,-73.9597829,,America/New_York,New York,Nordstrom,2024-03-31
210,FullLineStore,Nordstrom NYC Flagship,225 W 57TH ST,New York,NY,10019,212.295.2000,40.7666966,-73.98210259999999,,America/New_York,New York,Nordstrom,2024-03-31
212,FullLineStore,Nordstrom Men's Store NYC,235 West 57th Street,New York,NY,10019,212.843.5100,40.7666966,-73.98210259999999,,America/New_York,New York,Nordstrom,2024-03-31
513,Rack,Nordstrom Rack Gateway Center,550 Gateway Drive #2,Brooklyn,NY,11239,718.223.2420,40.651405,-73.868625,https://stores.nordstromrack.com/us/ny/brooklyn/550-gateway-dr,America/New_York,New York,Nordstrom,2024-03-31
509,Rack,Nordstrom Rack 31st & 6th,865 Avenue of the Americas,New York,NY,10001,646.861.5440,40.747676,-73.989355,https://stores.nordstromrack.com/us/ny/new-york/865-avenue-of-the-americas,America/New_York,New York,Nordstrom,2024-03-31
515,Rack,Nordstrom Rack Union Square,60 East 14th Street,New York,NY,10003,212.220.2080,40.734615,-73.990373,https://stores.nordstromrack.com/us/ny/new-york/60-e-14th-st,America/New_York,New York,Nordstrom,2024-03-31
201,NordstromLocal,Nordstrom Local West Village,13 7th Ave,New York,NY,10011,332.204.8965,40.7369182,-74.0006617,,America/New_York,New York,Nordstrom,2024-03-31
548,Rack,Nordstrom Rack Manhasset Center,1400 Northern Boulevard,Manhasset,NY,11030,516.467.2250,40.793029,-73.69523,https://stores.nordstromrack.com/us/ny/manhasset/1400-northern-blvd,America/New_York,New York,Nordstrom,2024-03-31
524,FullLineStore,Nordstrom Roosevelt Field,630 Old Country Road,Garden City,NY,11530,516.746.0011,40.74312,-73.614303,,America/New_York,New York,Nordstrom,2024-03-31
529,Rack,Nordstrom Rack The Gallery At Westbury Plaza,1040 Old Country Road,Garden City,NY,11530,516.222.5544,40.745172,-73.604139,https://stores.nordstromrack.com/us/ny/garden-city/1040-old-country-rd,America/New_York,New York,Nordstrom,2024-03-31
511,Rack,Nordstrom Rack Staten Island,"15 Richmond Terrace, Suite 301",Staten Island,NY,10301,929.464.2827,40.644341,-74.07668,https://stores.nordstromrack.com/us/ny/staten-island/15-richmond-terrace,America/New_York,New York,Nordstrom,2024-03-31
539,Rack,Nordstrom Rack Bergen Town Center,510 Bergen Town Center,Paramus,NJ,07652,201.518.2170,40.916691,-74.059785,https://stores.nordstromrack.com/us/nj/paramus/510-bergen-town-center,America/New_York,New Jersey,Nordstrom,2024-03-31
520,FullLineStore,Nordstrom Garden State Plaza,501 Garden State Plaza,Paramus,NJ,07652,201.843.1122,40.920968,-74.074472,,America/New_York,New Jersey,Nordstrom,2024-03-31
519,Rack,Nordstrom Rack White Plains,3 City Place,White Plains,NY,10601,914.614.6400,41.033175,-73.76502,https://stores.nordstromrack.com/us/ny/white-plains/3-city-place,America/New_York,New York,Nordstrom,2024-03-31
523,FullLineStore,Nordstrom The Westchester,135 Westchester Avenue,White Plains,NY,10601,914.946.1122,41.032405,-73.759783,,America/New_York,New York,Nordstrom,2024-03-31
649,Rack,Nordstrom Rack Wayne Town Center,141 State Route 23,Wayne,NJ,07470,973.200.2999,40.891851,-74.251816,https://stores.nordstromrack.com/us/nj/wayne/141-state-route-23,America/New_York,New Jersey,Nordstrom,2024-03-31
646,Rack,Nordstrom Rack Livingston Center,530 West Mount Pleasant Avenue,Livingston,NJ,07039,973.629.6100,40.797006,-74.349866,https://stores.nordstromrack.com/us/nj/livingston/530-west-mount-pleasant-avenue,America/New_York,New Jersey,Nordstrom,2024-03-31
527,FullLineStore,Nordstrom The Mall at Short Hills,1200 Morris Turnpike,Short Hills,NJ,07078,973.467.1500,40.737785,-74.364243,,America/New_York,New Jersey,Nordstrom,2024-03-31
521,FullLineStore,Nordstrom Menlo Park,449 Menlo Park Drive,Edison,NJ,08837,732.603.5000,40.549965,-74.334837,,America/New_York,New Jersey,Nordstrom,2024-03-31
538,FullLineStore,Nordstrom at The SoNo Collection,"100 North Water Street, Suite A",Norwalk,CT,06854,203.642.2634,41.096559,-73.415761,,America/New_York,Connecticut,Nordstrom,2024-03-31
650,Rack,Nordstrom Rack Crossroads at Eatontown,231 Highway 35,Eatontown,NJ,07724,732.676.7200,40.28711,-74.051066,https://stores.nordstromrack.com/us/nj/eatontown/231-highway-35,America/New_York,New Jersey,Nordstrom,2024-03-31
647,Rack,Nordstrom Rack Rockaway Commons,343 Mount Hope Avenue,Rockaway,NJ,07801,973.620.6100,40.91706,-74.508792,https://stores.nordstromrack.com/us/nj/rockaway/343-mount-hope-ave,America/New_York,New Jersey,Nordstrom,2024-03-31
651,Rack,Nordstrom Rack Chimney Rock,362 Chimney Rock Road,Bound Brook,NJ,08805,732.627.3000,40.56275,-74.537075,https://stores.nordstromrack.com/us/nj/bound-brook/362-chimney-rock-rd,America/New_York,New Jersey,Nordstrom,2024-03-31
373,Rack,Nordstrom Rack The Fountains at Farah,8889 Gateway Boulevard West,El Paso,TX,79925,915.730.7900,31.7699287,-106.3695939,https://stores.nordstromrack.com/us/tx/el-paso/8889-gateway-blvd-w,America/Denver,Texas,Nordstrom,2024-03-31
163,Rack,Nordstrom Rack FIGat7th,735 South Figueroa Street,Los Angeles,CA,90017,213.995.5568,34.0491696,-118.2608507,https://stores.nordstromrack.com/us/ca/los-angeles/735-s-figueroa-st,America/Los_Angeles,California,Nordstrom,2024-03-31
349,FullLineStore,Nordstrom The Grove,189 The Grove Drive,Los Angeles,CA,90036,323.930.2230,34.0713408,-118.3570079,,America/Los_Angeles,California,Nordstrom,2024-03-31
347,Rack,Nordstrom Rack Westfield Culver City,6000 Sepulveda Blvd Ste #2581,Culver City,CA,90230,310.591.2728,33.986504,-118.3926522,https://stores.nordstromrack.com/us/ca/culver-city/6000-sepulveda-blvd,America/Los_Angeles,California,Nordstrom,2024-03-31
351,Rack,Nordstrom Rack Beverly Connection,100 North La Cienega Boulevard,Los Angeles,CA,90048,323.602.0282,34.0745002,-118.3755016,https://stores.nordstromrack.com/us/ca/los-angeles/100-n-la-cienega-blvd,America/Los_Angeles,California,Nordstrom,2024-03-31
45,NordstromLocal,Nordstrom Local Melrose,8401 Melrose Place,Los Angeles,CA,90069,323.602.2201,34.0838354,-118.3733858,,America/Los_Angeles,California,Nordstrom,2024-03-31
340,FullLineStore,Nordstrom at the Americana at Brand,102 Caruso Avenue,Glendale,CA,91210,818.502.9922,34.1434712,-118.2562835,,America/Los_Angeles,California,Nordstrom,2024-03-31
384,FullLineStore,Nordstrom Century City,10250 Santa Monica Blvd,Los Angeles,CA,90067,424.204.1177,34.0581381,-118.4178287,,America/Los_Angeles,California,Nordstrom,2024-03-31
350,Rack,Nordstrom Rack Glendale Fashion Center,227 North Glendale Avenue,Glendale,CA,91206,818.240.2404,34.1494592,-118.24764,https://stores.nordstromrack.com/us/ca/glendale/227-n-glendale-ave,America/Los_Angeles,California,Nordstrom,2024-03-31
162,Rack,Nordstrom Rack El Segundo,720 S Pacific Coast Highway,El Segundo,CA,90245,310.765.5461,33.906663,-118.394934,https://stores.nordstromrack.com/us/ca/el-segundo/720-s-pacific-coast-highway,America/Los_Angeles,California,Nordstrom,2024-03-31
370,Rack,Nordstrom Rack South Bay MarketPlace,1517 Hawthorne Boulevard,Redondo Beach,CA,90278,424.254.2448,33.8684391,-118.3547738,https://stores.nordstromrack.com/us/ca/redondo-beach/1517-hawthorne-blvd,America/Los_Angeles,California,Nordstrom,2024-03-31
486,NordstromLocal,Nordstrom Local Manhattan Beach,451 Manhattan Beach Blvd Suite D116,Manhattan Beach,CA,90266,424.409.2000,33.885633,-118.408171,,America/Los_Angeles,California,Nordstrom,2024-03-31
342,FullLineStore,Nordstrom Del Amo Fashion Center,21500 Hawthorne Boulevard,Torrance,CA,90503,310.542.9440,33.8349221,-118.3510822,,America/Los_Angeles,California,Nordstrom,2024-03-31
354,Rack,Nordstrom Rack Burbank Empire Center,1601 North Victory Place,Burbank,CA,91502,818.478.2930,34.1887087,-118.3288264,https://stores.nordstromrack.com/us/ca/burbank/1601-n-victory-place,America/Los_Angeles,California,Nordstrom,2024-03-31
167,Rack,Nordstrom Rack Cerritos Plaza,11111 183rd Street,Cerritos,CA,90703,562.565.6025,33.8667339,-118.0979983,https://stores.nordstromrack.com/us/ca/cerritos/11111-183rd-street,America/Los_Angeles,California,Nordstrom,2024-03-31
322,FullLineStore,Nordstrom Los Cerritos Center,300 Los Cerritos Center,Cerritos,CA,90703,562.924.0940,33.8634588,-118.0937519,,America/Los_Angeles,California,Nordstrom,2024-03-31
353,FullLineStore,Nordstrom Santa Monica,220 Broadway,Santa Monica,CA,90401,310.752.2701,34.01355720000001,-118.4948201,,America/Los_Angeles,California,Nordstrom,2024-03-31
332,Rack,Nordstrom Rack Long Beach Exchange,4260 E. Carson Street,Long Beach,CA,90808,562.249.6747,33.8315808,-118.1438188,https://stores.nordstromrack.com/us/ca/long-beach/4260-e-carson-street,America/Los_Angeles,California,Nordstrom,2024-03-31
54,NordstromLocal,Nordstrom Local Brentwood,214 26th Street,Santa Monica,CA,90402,213.995.5601,34.0478609,-118.491614,,America/Los_Angeles,California,Nordstrom,2024-03-31
352,Rack,Nordstrom Rack Hastings Village,3363 East Foothill Boulevard,Pasadena,CA,91107,626.264.9044,34.1534115,-118.0810352,https://stores.nordstromrack.com/us/ca/pasadena/3363-east-foothill-boulevard,America/Los_Angeles,California,Nordstrom,2024-03-31
413,Rack,Nordstrom NoHo West Rack,6150 Laurel Canyon Blvd Ste 160,North Hollywood,CA,91606,747.205.5655,34.18079,-118.39474,https://stores.nordstromrack.com/us/ca/north-hollywood/6140-laurel-canyon-blvd ,America/Los_Angeles,California,Nordstrom,2024-03-31
345,FullLineStore,Nordstrom Santa Anita,400 South Baldwin Avenue,Arcadia,CA,91007,626.821.6363,34.1353439,-118.0524237,,America/Los_Angeles,California,Nordstrom,2024-03-31
165,Rack,Nordstrom Rack Marina Pacifica,6274 East Pacific Coast Highway,Long Beach,CA,90803,562.546.6100,33.7617429,-118.1165637,https://stores.nordstromrack.com/us/ca/long-beach/6274-east-pacific-coast-highway,America/Los_Angeles,California,Nordstrom,2024-03-31
359,Rack,Nordstrom Rack West Covina Mall,1415 Plaza Drive,West Covina,CA,91790,626.404.2633,34.0708681,-117.9337506,https://stores.nordstromrack.com/us/ca/west-covina/1415-plaza-dr,America/Los_Angeles,California,Nordstrom,2024-03-31
321,FullLineStore,Nordstrom Brea Mall,500 Brea Mall Way,Brea,CA,92821,714.529.0123,33.9158345,-117.8881634,,America/Los_Angeles,California,Nordstrom,2024-03-31
329,Rack,Nordstrom Rack Brea Union Plaza,2345 East Imperial Highway,Brea,CA,92821,714.529.4222,33.912927,-117.8710473,https://stores.nordstromrack.com/us/ca/brea/2345-e-imperial-highway,America/Los_Angeles,California,Nordstrom,2024-03-31
358,Rack,Nordstrom Rack Topanga,21490 Victory Boulevard,Woodland Hills,CA,91367,818.884.6771,34.1865097,-118.5992518,https://stores.nordstromrack.com/us/ca/woodland-hills/21490-victory-blvd,America/Los_Angeles,California,Nordstrom,2024-03-31
341,FullLineStore,Nordstrom Topanga,21725 Victory Boulevard,Canoga Park,CA,91303,818.884.7900,34.1887114,-118.6026661,,America/Los_Angeles,California,Nordstrom,2024-03-31
356,Rack,Nordstrom Rack Edinger Plaza,7532 Edinger Avenue,Huntington Beach,CA,92647,657.204.7300,33.72879229999999,-117.9975843,https://stores.nordstromrack.com/us/ca/huntington-beach/7532-edinger-ave,America/Los_Angeles,California,Nordstrom,2024-03-31
164,Rack,Nordstrom Rack Porter Ranch,"20039 W Rinaldi St, Suite 120",Porter Ranch,CA,91326,818.739.4140,34.2769944,-118.5712421,https://stores.nordstromrack.com/us/ca/porter-ranch/20039-w-rinaldi-st,America/Los_Angeles,California,Nordstrom,2024-03-31
336,Rack,Nordstrom Rack Outlets at Orange,20 City Boulevard West,Orange,CA,92868,714.202.3400,33.7827076,-117.8913689,https://stores.nordstromrack.com/us/ca/orange/20-city-blvd-w,America/Los_Angeles,California,Nordstrom,2024-03-31
338,Rack,Nordstrom Rack Metro Pointe at South Coast,901 S Coast Dr. Ste C,Costa Mesa,CA,92626,714.751.5901,33.68869,-117.8956107,https://stores.nordstromrack.com/us/ca/costa-mesa/901-s-coast-dr,America/Los_Angeles,California,Nordstrom,2024-03-31
320,FullLineStore,Nordstrom South Coast Plaza,3333 Bristol Street Suite 7000,Costa Mesa,CA,92626,714.549.8300,33.6908033,-117.8887855,,America/Los_Angeles,California,Nordstrom,2024-03-31
414,Rack,Nordstrom Anaheim Hills Festival Rack,8140 E Santa Ana Canyon Rd,Anaheim,CA,92808,657.888.6011,33.86856,-117.74877,https://stores.nordstromrack.com/us/ca/anaheim/8140-east-santa-ana-canyon-road,America/Los_Angeles,California,Nordstrom,2024-03-31
328,Rack,Nordstrom Rack Chino Spectrum Towne Centre,3849 Grand Avenue,Chino,CA,91710,909.591.0551,33.9972709,-117.7205974,https://stores.nordstromrack.com/us/ca/chino/3849-grand-ave,America/Los_Angeles,California,Nordstrom,2024-03-31
168,Rack,Nordstrom Rack Tustin Market Place,2882 El Camino Real,Tustin,CA,92782,714.689.3550,33.7222732,-117.7963744,https://stores.nordstromrack.com/us/ca/tustin/2882-el-camino-real,America/Los_Angeles,California,Nordstrom,2024-03-31
488,NordstromLocal,Nordstrom Local Newport Beach,2043 Westcliff Dr Suite 103,Newport Beach,CA,92660,949.763.2922,33.627938,-117.908089,,America/Los_Angeles,California,Nordstrom,2024-03-31
161,Rack,Nordstrom Rack The Promenade at Town Center Valencia,27095 McBean Parkway,Santa Clarita,CA,91355,661.388.2782,34.4230899,-118.5643412,https://stores.nordstromrack.com/us/ca/santa-clarita/27095-mcbean-parkway,America/Los_Angeles,California,Nordstrom,2024-03-31
333,FullLineStore,Nordstrom Fashion Island,901 Newport Center Drive,Newport Beach,CA,92660,949.610.0700,33.6159538,-117.877787,,America/Los_Angeles,California,Nordstrom,2024-03-31
334,Rack,Nordstrom Rack at Colonies Crossroads,1301 East 19th Street,Upland,CA,91784,909.912.6300,34.132166,-117.632614,https://stores.nordstromrack.com/us/ca/upland/1301-e-19th-st,America/Los_Angeles,California,Nordstrom,2024-03-31
396,Rack,Nordstrom Rack Janss Marketplace,145 West Hillcrest Drive,Thousand Oaks,CA,91360,805.852.2800,34.1815983,-118.8789694,https://stores.nordstromrack.com/us/ca/thousand-oaks/145-west-hillcrest-drive,America/Los_Angeles,California,Nordstrom,2024-03-31
348,FullLineStore,Nordstrom Thousand Oaks,346 West Hillcrest Drive,Thousand Oaks,CA,91360,805.418.4500,34.1836602,-118.8886533,,America/Los_Angeles,California,Nordstrom,2024-03-31
330,FullLineStore,Nordstrom Irvine Spectrum Center,800 Spectrum Center Drive,Irvine,CA,92618,949.255.2800,33.648841,-117.7427411,,America/Los_Angeles,California,Nordstrom,2024-03-31
374,Rack,Nordstrom Rack Ontario Mills Mall,4750 East Mills Circle,Ontario,CA,91764,909.476.3160,34.0718367,-117.5494711,https://stores.nordstromrack.com/us/ca/ontario/4750-e-mills-circle,America/Los_Angeles,California,Nordstrom,2024-03-31
337,Rack,Nordstrom Rack Laguna Hills Mall,23541 Calle de la Louisa,Laguna Hills,CA,92653,949.334.4924,33.6105606,-117.708874,https://stores.nordstromrack.com/us/ca/laguna-hills/23541-calle-de-la-louisa,America/Los_Angeles,California,Nordstrom,2024-03-31
160,Rack,Nordstrom Rack Laguna Niguel,27991 Greenfield Drive,Laguna Niguel,CA,92677,949.334.6250,33.5571775,-117.6872875,https://stores.nordstromrack.com/us/ca/laguna-niguel/27991-greenfield-drive,America/Los_Angeles,California,Nordstrom,2024-03-31
326,FullLineStore,Nordstrom The Shops at Mission Viejo,100 The Shops at Mission Viejo,Mission Viejo,CA,92691,949.347.2710,33.5564551,-117.670678,,America/Los_Angeles,California,Nordstrom,2024-03-31
357,Rack,Nordstrom Rack Riverside Plaza,3635 Riverside Plaza Dr Ste 120,Riverside,CA,92506,951.905.6272,33.9552168,-117.3919829,https://stores.nordstromrack.com/us/ca/riverside/3635-riverside-plaza-dr,America/Los_Angeles,California,Nordstrom,2024-03-31
555,Rack,Nordstrom Rack Mercer Mall,3371 US Highway 1,Lawrenceville,NJ,08648,609.524.2625,40.29443,-74.682951,https://stores.nordstromrack.com/us/nj/lawrenceville/3371-us-highway-1,America/New_York,New Jersey,Nordstrom,2024-03-31
656,Rack,Nordstrom Rack Lincoln Plaza,"2424 East Lincoln Hwy, #500",Langhorne,PA,19047,267.590.7300,40.180137,-74.873474,https://stores.nordstromrack.com/us/pa/langhorne/2424-east-lincoln-highway,America/New_York,Pennsylvania,Nordstrom,2024-03-31
637,FullLineStore,Nordstrom Cherry Hill,2000 Route 38,Cherry Hill,NJ,08002,856.773.5600,39.938872,-75.025279,,America/New_York,New Jersey,Nordstrom,2024-03-31
642,Rack,Nordstrom Rack Towne Place at Garden State Park,"951 Haddonfield Road, Suite A",Cherry Hill,NJ,08002,856.773.4111,39.924589,-75.033107,https://stores.nordstromrack.com/us/nj/cherry-hill/951-haddonfield-rd,America/New_York,New Jersey,Nordstrom,2024-03-31
544,Rack,Nordstrom Rack Willow Grove Park,2500 West Moreland Road,Willow Grove,PA,19090,215.449.3777,40.142815,-75.11965,https://stores.nordstromrack.com/us/pa/willow-grove/2500-w-moreland-rd,America/New_York,Pennsylvania,Nordstrom,2024-03-31
403,Rack,Nordstrom San Clemente Plaza Rack,550 Camino De Estrella Ste B,San Clemente,CA,92672,949.325.1184,33.45696,-117.65605,https://stores.nordstromrack.com/us/ca/san-clemente/550-camino-de-estrella,America/Los_Angeles,California,Nordstrom,2024-03-31
411,Rack,Nordstrom Rack Canyon Springs Marketplace,2660 CANYON SPRINGS PKWY,RIVERSIDE,CA,92507,951.497.4420,33.980251,-117.336137,https://stores.nordstromrack.com/us/ca/riverside/2660-canyon-springs-parkway,America/Los_Angeles,California,Nordstrom,2024-03-31
372,Rack,Nordstrom Rack Esplanade Shopping Center,261 Esplanade Drive,Oxnard,CA,93030,805.604.1122,34.234147,-119.1766938,https://stores.nordstromrack.com/us/ca/oxnard/261-esplanade-dr,America/Los_Angeles,California,Nordstrom,2024-03-31
691,Rack,Nordstrom The Village at Allen Rack,170 E Stacy Rd,Allen,TX,75002,972.737.6333,33.12518,-96.6549,https://stores.nordstromrack.com/us/tx/allen/170-e-stacy-road,America/Chicago,Texas,Nordstrom,2024-03-31
709,Rack,Nordstrom Rack The Centre at Preston Ridge,3241 Preston Road,Frisco,TX,75034,972.668.6860,33.1059235,-96.80909,https://stores.nordstromrack.com/us/tx/frisco/3241-preston-road,America/Chicago,Texas,Nordstrom,2024-03-31
724,FullLineStore,Nordstrom Stonebriar Centre,2613 Preston Road,Frisco,TX,75034,972.712.3794,33.0999953,-96.81224209999999,,America/Chicago,Texas,Nordstrom,2024-03-31
727,Rack,Nordstrom Rack Preston Shepard Place,1701 D-1 Preston Road,Plano,TX,75093,972.267.1414,33.0229917,-96.79869749999999,https://stores.nordstromrack.com/us/tx/plano/1701-d-1-preston-rd,America/Chicago,Texas,Nordstrom,2024-03-31
719,Rack,Nordstrom Rack Gallery on the Parkway,13900 Dallas Parkway,Dallas,TX,75240,214.234.2808,32.9372788,-96.8196344,https://stores.nordstromrack.com/us/tx/dallas/13900-dallas-pkwy,America/Chicago,Texas,Nordstrom,2024-03-31
720,FullLineStore,Nordstrom Galleria Dallas,5220 Alpha Road,Dallas,TX,75240,972.702.0055,32.9325465,-96.8194,,America/Chicago,Texas,Nordstrom,2024-03-31
723,FullLineStore,Nordstrom NorthPark Center,8687 N Central Expy Ste 2000,Dallas,TX,75225,214.231.3900,32.8697969,-96.77468540000001,,America/Chicago,Texas,Nordstrom,2024-03-31
738,Rack,Nordstrom Rack The Shops at Park Lane,8050 Park Lane,Dallas,TX,75231,214.932.6222,32.868146,-96.76905029999999,https://stores.nordstromrack.com/us/tx/dallas/8050-park-lane,America/Chicago,Texas,Nordstrom,2024-03-31
620,Rack,Nordstrom Denton Crossing Rack,1800 S Loop 288,Denton,TX,76205,940.735.3113,33.20213,-97.09125,https://stores.nordstromrack.com/us/tx/denton/1800-south-loop-288,America/Chicago,Texas,Nordstrom,2024-03-31
735,Rack,Nordstrom Rack The Shops of Southlake,1445 East Southlake Boulevard,Southlake,TX,76092,817.601.3480,32.9388726,-97.12991009999999,https://stores.nordstromrack.com/us/tx/southlake/1445-e-southlake-blvd,America/Chicago,Texas,Nordstrom,2024-03-31
739,Rack,Nordstrom Rack The Parks at Arlington Mall,3865 South Cooper Street,Arlington,TX,76015,817.664.3030,32.6786972,-97.1282322,https://stores.nordstromrack.com/us/tx/arlington/3865-s-cooper-st,America/Chicago,Texas,Nordstrom,2024-03-31
393,Rack,Nordstrom Rack Mountain Grove,27651 San Bernardino Avenue,Redlands,CA,92374,909.801.2750,34.0743587,-117.2019839,https://stores.nordstromrack.com/us/ca/redlands/27651-san-bernardino-avenue,America/Los_Angeles,California,Nordstrom,2024-03-31
368,Rack,Nordstrom Rack Commons at Temecula,40450 Winchester Road,Temecula,CA,92591,951.514.4941,33.528653,-117.1503869,https://stores.nordstromrack.com/us/ca/temecula/40450-winchester-rd,America/Los_Angeles,California,Nordstrom,2024-03-31
733,FullLineStore,Nordstrom Domain Northside,3111 Palm Way,Austin,TX,78758,512.605.4900,30.4023499,-97.72039529999999,,America/Chicago,Texas,Nordstrom,2024-03-31
736,Rack,Nordstrom Rack Gateway,9607 Research Boulevard,Austin,TX,78759,512.651.6180,30.388617,-97.74369,https://stores.nordstromrack.com/us/tx/austin/9607-research-blvd,America/Chicago,Texas,Nordstrom,2024-03-31
715,Rack,Nordstrom Rack The Parke,"5001 Hwy 183A Toll Rd, Suite C1100",Cedar Park,TX,78613,737.843.3100,30.5360251,-97.8187197,https://stores.nordstromrack.com/us/tx/cedar-park/5001-highway-183a-toll-road,America/Chicago,Texas,Nordstrom,2024-03-31
731,FullLineStore,Nordstrom Barton Creek Square,2901 S Capital of Texas Hwy,Austin,TX,78746,512.691.3500,30.2590192,-97.808566,,America/Chicago,Texas,Nordstrom,2024-03-31
740,Rack,Nordstrom Rack Sunset Valley Shopping Center,5601 Brodie Lane,Sunset Valley,TX,78745,512.697.2600,30.225341,-97.82033949999999,https://stores.nordstromrack.com/us/tx/sunset-valley/5601-brodie-lane,America/Chicago,Texas,Nordstrom,2024-03-31
479,Rack,Nordstrom Rack Sunvalley Shopping Center,703 Contra Costa Boulevard,Pleasant Hill,CA,94523,925.566.7700,37.9715192,-122.0621875,https://stores.nordstromrack.com/us/ca/pleasant-hill/703-contra-costa-blvd,America/Los_Angeles,California,Nordstrom,2024-03-31
421,FullLineStore,Nordstrom Broadway Plaza in Walnut Creek,1200 Broadway Plaza,Walnut Creek,CA,94596,925.930.7959,37.89717,-122.058284,,America/Los_Angeles,California,Nordstrom,2024-03-31
476,Rack,Nordstrom Rack Persimmon Place,5300 Dublin Boulevard,Dublin,CA,94568,925.558.2900,37.705721,-121.8920818,https://stores.nordstromrack.com/us/ca/dublin/5300-dublin-boulevard,America/Los_Angeles,California,Nordstrom,2024-03-31
440,Rack,Nordstrom Pinole Vista Crossing Rack,1330 Fitzgerald Dr,Pinole,CA,94564,510.964.3701,37.98476,-122.31177,https://stores.nordstromrack.com/us/ca/pinole/1330-b-fitzgerald-drive,America/Los_Angeles,California,Nordstrom,2024-03-31
435,Rack,Nordstrom Rack East Bay Bridge Center,3839 Emery Street,Emeryville,CA,94608,510.740.4320,37.8290963,-122.280875,https://stores.nordstromrack.com/us/ca/emeryville/3839-emery-street,America/Los_Angeles,California,Nordstrom,2024-03-31
484,Rack,Nordstrom Rack Nut Tree Village,1621 East Monte Vista Avenue,Vacaville,CA,95688,707.301.4756,38.36800179999999,-121.9644925,https://stores.nordstromrack.com/us/ca/vacaville/1621-e-monte-vista-ave,America/Los_Angeles,California,Nordstrom,2024-03-31
431,Rack,Nordstrom Rack San Leandro,1285 Marina Boulevard,San Leandro,CA,94577,510.614.1742,37.7097338,-122.1638435,https://stores.nordstromrack.com/us/ca/san-leandro/1285-marina-blvd,America/Los_Angeles,California,Nordstrom,2024-03-31
423,FullLineStore,Nordstrom The Village at Corte Madera,1870 Redwood Highway,Corte Madera,CA,94925,415.927.1690,37.931397,-122.514836,,America/Los_Angeles,California,Nordstrom,2024-03-31
483,Rack,Nordstrom Rack Vintage Oaks,212 Vintage Way,Novato,CA,94945,415.878.7841,38.0882238,-122.5511865,https://stores.nordstromrack.com/us/ca/novato/212-vintage-way,America/Los_Angeles,California,Nordstrom,2024-03-31
478,Rack,Nordstrom Rack Pacific Commons Shopping Center,43706 Christy Street,Fremont,CA,94538,510.580.7240,37.5050553,-121.966733,https://stores.nordstromrack.com/us/ca/fremont/43706-christy-st,America/Los_Angeles,California,Nordstrom,2024-03-31
428,Rack,Nordstrom Rack Serramonte Center,152 Serramonte Center,Daly City,CA,94015,650.755.1444,37.671159,-122.467698,https://stores.nordstromrack.com/us/ca/daly-city/152-serramonte-center,America/Los_Angeles,California,Nordstrom,2024-03-31
420,FullLineStore,Nordstrom Hillsdale Shopping Center,130 Hillsdale Shopping Center,San Mateo,CA,94403,650.570.5111,37.5374785,-122.3013453,,America/Los_Angeles,California,Nordstrom,2024-03-31
472,Rack,Nordstrom Rack East Palo Alto,1771 East Bayshore Road,East Palo Alto,CA,94303,650.798.2022,37.4602567,-122.1359079,https://stores.nordstromrack.com/us/ca/east-palo-alto/1771-e-bayshore-rd,America/Los_Angeles,California,Nordstrom,2024-03-31
422,FullLineStore,Nordstrom Stanford Shopping Center,550 Stanford Shopping Center,Palo Alto,CA,94304,650.323.5111,37.4394661,-122.1739601,,America/Los_Angeles,California,Nordstrom,2024-03-31
425,FullLineStore,Nordstrom Valley Fair,2400 Forest Avenue,San Jose,CA,95128,408.248.2180,37.326947,-121.948603,,America/Los_Angeles,California,Nordstrom,2024-03-31
433,Rack,Nordstrom Rack at Howe Bout Arden,"1600 Ethan Way, Suite # 100",Sacramento,CA,95825,916.646.0846,38.5949448,-121.4190326,https://stores.nordstromrack.com/us/ca/sacramento/1600-ethan-way,America/Los_Angeles,California,Nordstrom,2024-03-31
402,Rack,Nordstrom Promenade at Sacramento Gateway Rack,3561 N Freeway Blvd,Sacramento,CA,95834,916.333.6113,38.63986,-121.50083,https://stores.nordstromrack.com/us/ca/sacramento/3561-n-freeway-blvd,America/Los_Angeles,California,Nordstrom,2024-03-31
764,Rack,Nordstrom Rack The Mall of Georgia Crossing,3205 Woodward Crossing Boulevard,Buford,GA,30519,678.482.0123,34.0699098,-83.97893359999999,https://stores.nordstromrack.com/us/ga/buford/3205-woodward-crossing-blvd,America/New_York,Georgia,Nordstrom,2024-03-31
610,Rack,Nordstrom Presidential Markets Rack,1905 Scenic Hwy N,Snellville,GA,30078,770.325.1755,33.87808,-84.01585,https://stores.nordstromrack.com/us/ga/snellville/1905-scenic-hwy-s,America/New_York,Georgia,Nordstrom,2024-03-31
783,Rack,Nordstrom Rack North Point MarketCenter,6200 N. Point Parkway,Alpharetta,GA,30022,678.281.6660,34.0454367,-84.2885539,https://stores.nordstromrack.com/us/ga/alpharetta/6200-n-point-pkwy,America/New_York,Georgia,Nordstrom,2024-03-31
760,FullLineStore,Nordstrom Perimeter Mall,4390 Ashford Dunwoody Road NE,Atlanta,GA,30346,770.394.1141,33.9236807,-84.34241279999999,,America/New_York,Georgia,Nordstrom,2024-03-31
788,Rack,Nordstrom Rack Perimeter Expo,1201 Hammond Drive NE,Dunwoody,GA,30346,678.405.7830,33.9196326,-84.3429372,https://stores.nordstromrack.com/us/ga/dunwoody/1201-hammond-dr-ne,America/New_York,Georgia,Nordstrom,2024-03-31
772,FullLineStore,Nordstrom Phipps Plaza,3500 Peachtree Road NE,Atlanta,GA,30326,404.442.3000,33.8531338,-84.3613433,,America/New_York,Georgia,Nordstrom,2024-03-31
782,Rack,Nordstrom Rack Buckhead Station,3495 Buckhead Loop NE,Atlanta,GA,30326,404.736.2230,33.850473,-84.361722,https://stores.nordstromrack.com/us/ga/atlanta/3495-buckhead-loop-ne,America/New_York,Georgia,Nordstrom,2024-03-31
700,Rack,Nordstrom Barrett Place Rack,860 Cobb Place Blvd NW,Kennesaw,GA,30144,678.337.3099,34.01162,-84.57152,https://stores.nordstromrack.com/us/ga/kennesaw/860-cobb-place-blvd-nw-suite-200,America/New_York,Georgia,Nordstrom,2024-03-31
758,Rack,Nordstrom Rack Brentwood Place,330 Franklin Road,Brentwood,TN,37027,615.843.4200,36.027254,-86.79208,https://stores.nordstromrack.com/us/tn/brentwood/330-franklin-road,America/Chicago,Tennessee,Nordstrom,2024-03-31
759,FullLineStore,Nordstrom The Mall at Green Hills,2130 Abbott Martin Road,Nashville,TN,37215,615.850.6700,36.1065199,-86.8164808,,America/Chicago,Tennessee,Nordstrom,2024-03-31
363,Rack,Nordstrom Rack Plaza Bonita,"3010 Plaza Bonita Road, Suite 2036",National City,CA,91950,619.765.3055,32.657012,-117.0655251,https://stores.nordstromrack.com/us/ca/national-city/3010-plaza-bonita-rd,America/Los_Angeles,California,Nordstrom,2024-03-31
378,Rack,Nordstrom Rack Mission Valley,1640 Camino Del Rio North,San Diego,CA,92108,619.296.0143,32.7696531,-117.1476056,https://stores.nordstromrack.com/us/ca/san-diego/1640-camino-del-rio-n,America/Los_Angeles,California,Nordstrom,2024-03-31
360,FullLineStore,Nordstrom Fashion Valley,6997 Friars Road,San Diego,CA,92108,619.295.4441,32.768701,-117.1681829,,America/Los_Angeles,California,Nordstrom,2024-03-31
361,FullLineStore,Nordstrom La Jolla at UTC,4401 La Jolla Village Drive,San Diego,CA,92122,858.457.4575,32.870919,-117.2130392,,America/Los_Angeles,California,Nordstrom,2024-03-31
166,Rack,Nordstrom Rack The Shops at La Jolla Village,8875 Villa La Jolla Drive,La Jolla,CA,92037,858.373.4600,32.869335,-117.2333583,https://stores.nordstromrack.com/us/ca/la-jolla/8875-villa-la-jolla-drive,America/Los_Angeles,California,Nordstrom,2024-03-31
369,Rack,Nordstrom Rack Carmel Mountain Plaza,11940 Carmel Mountain Road,San Diego,CA,92128,858.312.7766,32.9823367,-117.0785084,https://stores.nordstromrack.com/us/ca/san-diego/11940-carmel-mountain-rd,America/Los_Angeles,California,Nordstrom,2024-03-31
383,Rack,Nordstrom Rack Grand Plaza,173 South Las Posas Road,San Marcos,CA,92078,760.304.7050,33.1386454,-117.1916084,https://stores.nordstromrack.com/us/ca/san-marcos/173-s-las-posas-rd,America/Los_Angeles,California,Nordstrom,2024-03-31
366,Rack,Nordstrom Rack The Shops at River Walk,"10650 Stockdale Highway, Suite 300",Bakersfield,CA,93311,661.282.4500,35.3520765,-119.1216871,https://stores.nordstromrack.com/us/ca/bakersfield/10650-stockdale-hwy,America/Los_Angeles,California,Nordstrom,2024-03-31
475,Rack,Nordstrom Rack Oakridge,925 Blossom Hill Road Suite 1427,San Jose,CA,95123,408.600.3800,37.2517845,-121.8649316,https://stores.nordstromrack.com/us/ca/san-jose/925-blossom-hill-rd,America/Los_Angeles,California,Nordstrom,2024-03-31
432,Rack,Nordstrom Rack Westgate Mall,1600 Saratoga Avenue,San Jose,CA,95129,408.374.4144,37.2931075,-121.987355,https://stores.nordstromrack.com/us/ca/san-jose/1600-saratoga-ave,America/Los_Angeles,California,Nordstrom,2024-03-31
686,Rack,Nordstrom Northwoods Rack,18134 San Pedro Ave,San Antonio,TX,78232,210.453.3040,29.60731,-98.46853,,America/Chicago,Texas,Nordstrom,2024-03-31
745,Rack,Nordstrom Rack Alamo Quarry,255 East Basse Road,San Antonio,TX,78209,210.202.2400,29.4960983,-98.48063739999999,https://stores.nordstromrack.com/us/tx/san-antonio/255-e-basse-rd,America/Chicago,Texas,Nordstrom,2024-03-31
734,Rack,Nordstrom Rack The Rim,5823 Worth Parkway,San Antonio,TX,78257,210.587.6644,29.6140795,-98.6006038,https://stores.nordstromrack.com/us/tx/san-antonio/5823-worth-pkwy,America/Chicago,Texas,Nordstrom,2024-03-31
732,FullLineStore,Nordstrom The Shops at La Cantera,15900 La Cantera Parkway,San Antonio,TX,78256,210.332.1900,29.594534,-98.6169108,,America/Chicago,Texas,Nordstrom,2024-03-31
471,Rack,Nordstrom Rack Villaggio Retail Center,7883 North Blackstone Avenue,Fresno,CA,93720,559.440.0111,36.8498235,-119.7934197,https://stores.nordstromrack.com/us/ca/fresno/7883-n-blackstone-ave,America/Los_Angeles,California,Nordstrom,2024-03-31
450,Rack,Nordstrom Clovis Crossing Rack,1085 Herndon Ave,Clovis,CA,93612,559.321.2391,36.837525,-119.697755,https://stores.nordstromrack.com/us/ca/clovis/1085-herndon-ave ,America/Los_Angeles,California,Nordstrom,2024-03-31
400,Rack,Nordstrom Sequoia Mall Rack,3501 S Mooney Blvd,Visalia,CA,93277,559.754.3500,36.29938,-119.31386,https://stores.nordstromrack.com/us/ca/visalia/3501-s-mooney-blvd,America/Los_Angeles,California,Nordstrom,2024-03-31
155,Rack,Nordstrom Rack Winrock Town Center,"2100 Louisiana Blvd NE, #316",Albuquerque,NM,87110,505.348.5460,35.0997059,-106.5650364,https://stores.nordstromrack.com/us/nm/albuquerque/2100-louisiana-boulevard-ne,America/Denver,New Mexico,Nordstrom,2024-03-31
750,FullLineStore,Nordstrom SouthPark,4400 Sharon Road,Charlotte,NC,28211,704.442.6000,35.1504864,-80.83334959999999,,America/New_York,North Carolina,Nordstrom,2024-03-31
641,Rack,Nordstrom Rack Carolina Pavilion,9563 South Boulevard,Charlotte,NC,28273,704.705.2161,35.104673,-80.87766069999999,https://stores.nordstromrack.com/us/nc/charlotte/9563-s-blvd,America/New_York,North Carolina,Nordstrom,2024-03-31
331,Rack,Nordstrom Rack Town Center,44449 Town Center Way,Palm Desert,CA,92260,760.469.5300,33.725838,-116.398434,https://stores.nordstromrack.com/us/ca/palm-desert/44449-town-center-way,America/Los_Angeles,California,Nordstrom,2024-03-31
481,Rack,Nordstrom Rack at Palladio,440 Palladio Parkway,Folsom,CA,95630,916.850.4505,38.651021,-121.123063,https://stores.nordstromrack.com/us/ca/folsom/440-palladio-parkway,America/Los_Angeles,California,Nordstrom,2024-03-31
470,Rack,Nordstrom Rack at Creekside Town Center,1196 Galleria Boulevard,Roseville,CA,95678,916.788.7700,38.7720419,-121.2620662,https://stores.nordstromrack.com/us/ca/roseville/1196-galleria-blvd,America/Los_Angeles,California,Nordstrom,2024-03-31
434,FullLineStore,Nordstrom Galleria at Roseville,1131 Galleria Boulevard,Roseville,CA,95678,916.780.7300,38.7722332,-121.2690199,,America/Los_Angeles,California,Nordstrom,2024-03-31
249,Rack,Nordstrom Rack Manchester Highlands,100 Highlands Boulevard Drive,Manchester,MO,63011,636.438.4100,38.5941179,-90.5038637,https://stores.nordstromrack.com/us/mo/manchester/100-highlands-blvd-dr,America/Chicago,Missouri,Nordstrom,2024-03-31
232,FullLineStore,Nordstrom West County,47 West County Center,Des Peres,MO,63131,314.255.2000,38.6008751,-90.44793899999999,,America/Chicago,Missouri,Nordstrom,2024-03-31
240,FullLineStore,Nordstrom Saint Louis Galleria,1453 Saint Louis Galleria,St. Louis,MO,63117,314.884.4900,38.634576,-90.347612,,America/Chicago,Missouri,Nordstrom,2024-03-31
246,Rack,Nordstrom Rack Brentwood Square,1585 South Brentwood Boulevard,St. Louis,MO,63144,314.785.1030,38.62757,-90.3475912,https://stores.nordstromrack.com/us/mo/saint-louis/1585-s-brentwood-blvd,America/Chicago,Missouri,Nordstrom,2024-03-31
482,Rack,Nordstrom Rack at Coddingtown Mall,180 Coddingtown Center,Santa Rosa,CA,95401,707.595.4200,38.4585728,-122.7285287,https://stores.nordstromrack.com/us/ca/santa-rosa/180-coddingtown-center,America/Los_Angeles,California,Nordstrom,2024-03-31
441,Rack,Nordstrom Best in the West Rack,2060 N Rainbow Blvd,Las Vegas,NV,89108,702.854.3955,36.196965,-115.241879,https://stores.nordstromrack.com/us/nv/las-vegas/2060-north-rainbow-blvd ,America/Los_Angeles,Nevada,Nordstrom,2024-03-31
386,FullLineStore,Nordstrom Fashion Show,"3200 Las Vegas Blvd South, #710",Las Vegas,NV,89109,702.862.2525,36.1279289,-115.173048,,America/Los_Angeles,Nevada,Nordstrom,2024-03-31
371,Rack,Nordstrom Rack Downtown Summerlin,2310 Park Center Drive #100,Las Vegas,NV,89135,702.915.2000,36.1469019,-115.3323247,https://stores.nordstromrack.com/us/nv/las-vegas/2310-park-center-dr,America/Los_Angeles,Nevada,Nordstrom,2024-03-31
376,Rack,Nordstrom Rack Stephanie Street Center,579 North Stephanie Street,Henderson,NV,89014,702.948.2121,36.0608632,-115.047932,https://stores.nordstromrack.com/us/nv/henderson/579-n-stephanie-st,America/Los_Angeles,Nevada,Nordstrom,2024-03-31
230,FullLineStore,Nordstrom Oak Park Mall,11143 West 95th Street,Overland Park,KS,66214,913.492.8111,38.95228729999999,-94.718537,,America/Chicago,Kansas,Nordstrom,2024-03-31
248,Rack,Nordstrom Rack Orchard Corners,9540 Quivira Road,Lenexa,KS,66215,913.553.6242,38.9557004,-94.7250116,https://stores.nordstromrack.com/us/ks/lenexa/9540-quivira-rd,America/Chicago,Kansas,Nordstrom,2024-03-31
200,Rack,Nordstrom Rack Overland Crossing,12050 Metcalf Ave,Overland Park,KS,66213,913.982.1777,38.984764,-94.677658,,America/Chicago,Kansas,Nordstrom,2024-03-31
377,Rack,Nordstrom Rack Chandler Festival,2620 West Chandler Boulevard,Chandler,AZ,85224,480.722.2000,33.3076253,-111.8865942,https://stores.nordstromrack.com/us/az/chandler/2620-w-chandler-blvd,America/Phoenix,Arizona,Nordstrom,2024-03-31
154,Rack,Nordstrom Rack SanTan Village,2090 E. Williams Field Road,Gilbert,AZ,85295,480.665.5103,33.3080536,-111.7450886,https://stores.nordstromrack.com/us/az/gilbert/2090-e-williams-field-road,America/Phoenix,Arizona,Nordstrom,2024-03-31
150,Rack,Nordstrom Rack Tempe Marketplace,1900 East Rio Salado Parkway,Tempe,AZ,85281,480.603.4600,33.4301127,-111.9020577,https://stores.nordstromrack.com/us/az/tempe/1900-east-rio-salado-parkway,America/Phoenix,Arizona,Nordstrom,2024-03-31
380,FullLineStore,Nordstrom Scottsdale Fashion Square,7055 East Camelback Road,Scottsdale,AZ,85251,480.946.4111,33.5013274,-111.9290039,,America/Phoenix,Arizona,Nordstrom,2024-03-31
367,Rack,Nordstrom Rack The Shops At Town and Country,2073 East Camelback Road,Phoenix,AZ,85016,602.345.6880,33.509251,-112.038242,https://stores.nordstromrack.com/us/az/phoenix/2073-east-camelback-road,America/Phoenix,Arizona,Nordstrom,2024-03-31
770,LastChance,Last Chance Clearance Store,1919 East Camelback Road,Phoenix,AZ,85016,602.248.2843,33.5071775,-112.0422343,https://stores.nordstromrack.com/us/az/phoenix/1919-e-camelback-rd,America/Phoenix,Arizona,Nordstrom,2024-03-31
379,Rack,Nordstrom Rack Scottsdale Promenade,16245 North Scottsdale Road,Scottsdale,AZ,85254,480.624.2200,33.6339923,-111.9212327,https://stores.nordstromrack.com/us/az/scottsdale/16245-n-scottsdale-rd,America/Phoenix,Arizona,Nordstrom,2024-03-31
416,Rack,Nordstrom Rack Desert Ridge Marketplace,21001 N TATUM BLVD STE 24,PHOENIX,AZ,850504208,480.750.5860,33.677386,-111.977274,https://stores.nordstromrack.com/us/az/phoenix/21001-n-tatum-blvd-suite-24,America/Phoenix,Arizona,Nordstrom,2024-03-31
388,Rack,Nordstrom Rack Arrowhead Crossing,7535 West Bell Road,Peoria,AZ,85382,623.240.2430,33.6371096,-112.2211602,https://stores.nordstromrack.com/us/az/peoria/7535-w-bell-rd,America/Phoenix,Arizona,Nordstrom,2024-03-31
677,Rack,Nordstrom Rack Pembroke Mall,4588 Virginia Beach Boulevard,Virginia Beach,VA,23462,757.518.2550,36.8450876,-76.13568529999999,https://stores.nordstromrack.com/us/va/virginia-beach/4588-virginia-beach-blvd,America/New_York,Virginia,Nordstrom,2024-03-31
624,Rack,Nordstrom Rack Potomac Mills,2700 Potomac Mills Circle,Woodbridge,VA,22192,703.490.1440,38.640362,-77.297539,https://stores.nordstromrack.com/us/va/woodbridge/2700-potomac-mills-circle,America/New_York,Virginia,Nordstrom,2024-03-31
674,Rack,Nordstrom Rack Springfield Town Center,6501 Springfield Mall,Springfield,VA,22150,703.373.4500,38.776539,-77.175607,https://stores.nordstromrack.com/us/va/springfield/6501-springfield-mall,America/New_York,Virginia,Nordstrom,2024-03-31
640,Rack,Nordstrom Rack Fair Lakes Promenade,12199 Fair Lakes Promenade Drive,Fairfax,VA,22033,703.563.2540,38.859399,-77.368963,https://stores.nordstromrack.com/us/va/fairfax/12199-fair-lakes-promenade-dr,America/New_York,Virginia,Nordstrom,2024-03-31
644,Rack,Nordstrom Rack Tysons Corner,8027 Leesburg Pike,Vienna,VA,22182,703.206.7100,38.912865,-77.222332,https://stores.nordstromrack.com/us/va/vienna/8027-leesburg-pike,America/New_York,Virginia,Nordstrom,2024-03-31
600,FullLineStore,Nordstrom Tysons Corner Center,8075 Tysons Corner Center,McLean,VA,22102,703.761.1121,38.916183,-77.22004,,America/New_York,Virginia,Nordstrom,2024-03-31
621,FullLineStore,Nordstrom The Fashion Centre at Pentagon City,1400 South Hayes Street,Arlington,VA,22202,703.415.1121,38.861305,-77.059911,,America/New_York,Virginia,Nordstrom,2024-03-31
671,Rack,Nordstrom Rack Pentagon Centre,1201 South Hayes Street. Suite A,Arlington,VA,22202,703.399.3222,38.862979,-77.059278,https://stores.nordstromrack.com/us/va/arlington/1201-s-hayes-st,America/New_York,Virginia,Nordstrom,2024-03-31
673,Rack,Nordstrom Rack L Street,1800 L Street NW,Washington,DC,20036,202.627.3650,38.906283,-77.041364,https://stores.nordstromrack.com/us/dc/washington/1800-l-st-nw,America/New_York,,Nordstrom,2024-03-31
675,Rack,Nordstrom Rack Metro Center,"555 12th Street NW, Suite C120",Washington,DC,20004,202.827.2499,38.896719,-77.028009,https://stores.nordstromrack.com/us/dc/washington/555-12th-street-nw,America/New_York,,Nordstrom,2024-03-31
670,Rack,Nordstrom Rack Dulles Town Crossing,45575 Dulles Eastern Plaza,Sterling,VA,20166,703.948.0100,39.023875,-77.422635,https://stores.nordstromrack.com/us/va/sterling/45575-dulles-eastern-plaza,America/New_York,Virginia,Nordstrom,2024-03-31
623,FullLineStore,Nordstrom Montgomery Mall,7111 Democracy Boulevard,Bethesda,MD,20817,301.365.4111,39.022415,-77.148722,,America/New_York,Maryland,Nordstrom,2024-03-31
633,Rack,Nordstrom Rack Gaithersburg,15760 Shady Grove Road,Gaithersburg,MD,20877,301.527.1133,39.116212,-77.18462,https://stores.nordstromrack.com/us/md/gaithersburg/15760-shady-grove-rd,America/New_York,Maryland,Nordstrom,2024-03-31
660,Rack,Nordstrom Rack Woodmore Towne Centre,2700  Campus Way N. Ste. 100,Lanham,MD,20706,240.764.2021,38.964971,-76.848602,https://stores.nordstromrack.com/us/md/lanham/2700-campus-way-n,America/New_York,Maryland,Nordstrom,2024-03-31
631,FullLineStore,Nordstrom The Mall in Columbia,10300 Little Patuxent Parkway,Columbia,MD,21044,410.715.2222,39.219574,-76.859036,,America/New_York,Maryland,Nordstrom,2024-03-31
625,Rack,Nordstrom Rack at Columbia Crossing,6141 Columbia Crossing Circle,Columbia,MD,21045,443.518.7205,39.195956,-76.81346,https://stores.nordstromrack.com/us/md/columbia/6141-columbia-crossing,America/New_York,Maryland,Nordstrom,2024-03-31
643,Rack,Nordstrom Rack Annapolis Harbour Center,2540 Solomons Island Road,Annapolis,MD,21401,443.440.6330,38.967702,-76.544644,https://stores.nordstromrack.com/us/md/annapolis/2540-solomons-island-rd,America/New_York,Maryland,Nordstrom,2024-03-31
754,Rack,Nordstrom Rack Renaissance Center,6807 Fayetteville Road,Durham,NC,27713,919.695.1000,35.9049244,-78.93539969999999,https://stores.nordstromrack.com/us/nc/durham/6807-fayetteville-rd,America/New_York,North Carolina,Nordstrom,2024-03-31
751,FullLineStore,Nordstrom The Streets at Southpoint,6910 Fayetteville Road #500,Durham,NC,27713,919.806.3700,35.9042348,-78.9410777,,America/New_York,North Carolina,Nordstrom,2024-03-31
239,FullLineStore,Nordstrom Kenwood Towne Centre,7801 Montgomery Road,Cincinnati,OH,45236,513.699.4190,39.2001668,-84.3788864,,America/New_York,Ohio,Nordstrom,2024-03-31
243,Rack,Nordstrom Rack Rookwood Pavilion,2692 Madison Road,Cincinnati,OH,45208,513.878.6810,39.1456706,-84.4452462,https://stores.nordstromrack.com/us/oh/cincinnati/2692-madison-rd,America/New_York,Ohio,Nordstrom,2024-03-31
279,Rack,Nordstrom Rack The Greene,33 Greene Boulevard,Beavercreek,OH,45440,937.306.4145,39.6954851,-84.1044253,https://stores.nordstromrack.com/us/oh/beavercreek/33-greene-boulevard,America/New_York,Ohio,Nordstrom,2024-03-31
785,Rack,Nordstrom Rack Belle Isle Station,1741 Belle Isle Boulevard,Oklahoma City,OK,73118,405.529.5290,35.5265141,-97.5380077,https://stores.nordstromrack.com/us/ok/oklahoma-city/1741-belle-isle-blvd,America/Chicago,Oklahoma,Nordstrom,2024-03-31
217,Rack,Nordstrom Southlands Rack,24101 E Orchard Rd,Aurora,CO,80016,303.481.3838,39.60875,-104.70592,https://stores.nordstromrack.com/us/co/aurora/24101-e-orchard-rd,America/Denver,Colorado,Nordstrom,2024-03-31
34,FullLineStore,Nordstrom Park Meadows,8465 Park Meadows Center Drive,Lone Tree,CO,80124,303.799.3400,39.5613293,-104.8749196,,America/Denver,Colorado,Nordstrom,2024-03-31
36,Rack,Nordstrom Rack Park Meadows,8676 Park Meadows Center Drive,Lone Tree,CO,80124,303.706.0035,39.557539,-104.8738079,https://stores.nordstromrack.com/us/co/lone-tree/8676-park-meadows-center-dr,America/Denver,Colorado,Nordstrom,2024-03-31
136,Rack,Nordstrom Rack Cherry Creek,1505 South Colorado Boulevard,Denver,CO,80222,303.305.4380,39.688784,-104.9423662,https://stores.nordstromrack.com/us/co/denver/1505-s-colorado-blvd,America/Denver,Colorado,Nordstrom,2024-03-31
37,FullLineStore,Nordstrom Cherry Creek Shopping Center,2810 East First Avenue,Denver,CO,80206,720.746.2424,39.7172026,-104.9550336,,America/Denver,Colorado,Nordstrom,2024-03-31
110,Rack,Nordstrom Rack Belmar,393 South Vance Street,Lakewood,CO,80226,720.389.3420,39.7096472,-105.0799865,https://stores.nordstromrack.com/us/co/lakewood/393-s-vance-st,America/Denver,Colorado,Nordstrom,2024-03-31
148,Rack,Nordstrom Rack the Orchard,14530 Delaware St,Westminster,CO,80023,303.729.6560,39.9605347,-104.9898488,https://stores.nordstromrack.com/us/co/westminster/14530-delaware-st,America/Denver,Colorado,Nordstrom,2024-03-31
135,Rack,Nordstrom Rack Twenty Ninth Street Shopping Center,1601 29th Street,Boulder,CO,80301,720.887.3588,40.01532359999999,-105.2566784,https://stores.nordstromrack.com/us/co/boulder/1601-29th-st,America/Denver,Colorado,Nordstrom,2024-03-31
137,Rack,Nordstrom Rack Chapel Hills East,7645 Academy Boulevard North,Colorado Springs,CO,80920,719.772.6001,38.9427955,-104.7973849,https://stores.nordstromrack.com/us/co/colorado-springs/7645-n-academy-blvd,America/Denver,Colorado,Nordstrom,2024-03-31
797,Rack,Nordstrom Rack The Shops at Midtown Miami,3201 North Miami Avenue,Miami,FL,33127,786.338.2000,25.8072115,-80.1947411,https://stores.nordstromrack.com/us/fl/miami/3201-north-miami-avenue,America/New_York,Florida,Nordstrom,2024-03-31
777,Rack,Nordstrom Rack Miracle Marketplace,3301 Coral Way,Miami,FL,33145,786.662.6025,25.750451,-80.2497308,https://stores.nordstromrack.com/us/fl/miami/3301-coral-way,America/New_York,Florida,Nordstrom,2024-03-31
763,FullLineStore,Nordstrom Shops at Merrick Park,4310 Ponce de Leon Boulevard,Coral Gables,FL,33146,786.999.1313,25.732069,-80.258474,,America/New_York,Florida,Nordstrom,2024-03-31
774,FullLineStore,Nordstrom Aventura,19507 Biscayne Boulevard,Aventura,FL,33180,305.356.6900,25.957253,-80.14524,,America/New_York,Florida,Nordstrom,2024-03-31
743,Rack,Nordstrom Rack The Promenade Shops,20669 Biscayne Boulevard,Aventura,FL,33180,305.384.4850,25.9672024,-80.14457,https://stores.nordstromrack.com/us/fl/aventura/20669-biscayne-blvd,America/New_York,Florida,Nordstrom,2024-03-31
779,Rack,Nordstrom Rack The Palms at Town and Country,8525 Mills Drive,Kendall,FL,33183,786.972.3450,25.687978,-80.3861721,https://stores.nordstromrack.com/us/fl/kendall/8525-mills-dr,America/New_York,Florida,Nordstrom,2024-03-31
771,Rack,Nordstrom Rack The Oasis at Sawgrass Mills,"2604 Sawgrass Mills Circle, #1129",Sunrise,FL,33323,954.331.3960,26.1538022,-80.3211668,https://stores.nordstromrack.com/us/fl/sunrise/2604-sawgrass-mills-circle,America/New_York,Florida,Nordstrom,2024-03-31
712,Rack,Nordstrom Rack at 1600 Commons,1540 North Federal Highway,Ft. Lauderdale,FL,33304,954.901.2950,26.1471033,-80.1191134,https://stores.nordstromrack.com/us/fl/fort-lauderdale/1540-north-federal-highway,America/New_York,Florida,Nordstrom,2024-03-31
762,FullLineStore,Nordstrom Town Center at Boca Raton,5820 Glades Road,Boca Raton,FL,33431,561.620.5555,26.3628304,-80.1308142,,America/New_York,Florida,Nordstrom,2024-03-31
755,Rack,Nordstrom Rack University Commons,1400 Glades Road,Boca Raton,FL,33431,561.287.4663,26.3656936,-80.11318589999999,https://stores.nordstromrack.com/us/fl/boca-raton/1400-glades-rd,America/New_York,Florida,Nordstrom,2024-03-31
692,Rack,Nordstrom Delray Beach Rack,1855 S Federal Hwy Suite 514,Delray Beach,FL,33483,561.404.2000,26.444633,-80.067822,https://stores.nordstromrack.com/us/fl/delray-beach/1855-s-federal-highway,America/New_York,Florida,Nordstrom,2024-03-31
282,FullLineStore,Nordstrom Mayfair,2424 N. Mayfair Road,Wauwatosa,WI,53226,414.203.6900,43.062757,-88.047597,,America/Chicago,Wisconsin,Nordstrom,2024-03-31
784,Rack,Nordstrom Rack Palm Beach Outlets,"1865 Palm Beach Lakes Blvd, #B24",West Palm Beach,FL,33401,561.491.4540,26.7226619,-80.0900328,https://stores.nordstromrack.com/us/fl/west-palm-beach/1865-palm-beach-lakes-boulevard,America/New_York,Florida,Nordstrom,2024-03-31
773,FullLineStore,Nordstrom The Gardens,3111 PGA Boulevard,Palm Beach Gardens,FL,33410,561.340.2100,26.8481472,-80.08758189999999,,America/New_York,Florida,Nordstrom,2024-03-31
661,Rack,Nordstrom Rack Canton Crossing,3967 Boston St,Baltimore,MD,21224,410.801.4922,39.28382,-76.550113,https://stores.nordstromrack.com/us/md/baltimore/3967-boston-st,America/New_York,Maryland,Nordstrom,2024-03-31
622,FullLineStore,Nordstrom Towson Town Center,700 Fairmount Avenue,Towson,MD,21286,410.296.2111,39.404083,-76.596677,,America/New_York,Maryland,Nordstrom,2024-03-31
627,Rack,Nordstrom Rack Towson,700 Fairmount Avenue,Towson,MD,21286,410.494.9111,39.404083,-76.596677,https://stores.nordstromrack.com/us/md/towson/700-fairmount-ave,America/New_York,Maryland,Nordstrom,2024-03-31
796,Rack,Nordstrom Rack Lake Brandon Plaza,11201 Causeway Boulevard,Brandon,FL,33511,813.330.4500,27.923099,-82.324066,https://stores.nordstromrack.com/us/fl/brandon/11201-causeway-boulevard,America/New_York,Florida,Nordstrom,2024-03-31
781,Rack,Nordstrom Rack in Tampa,1702 North Dale Mabry Highway,Tampa,FL,33607,813.422.7500,27.958001,-82.505678,https://stores.nordstromrack.com/us/fl/tampa/1702-n-dale-mabry-highway,America/New_York,Florida,Nordstrom,2024-03-31
765,FullLineStore,Nordstrom International Plaza,2223 N Westshore Blvd Ste 300,Tampa,FL,33607,813.875.4400,27.961608,-82.524039,,America/New_York,Florida,Nordstrom,2024-03-31
793,Rack,Nordstrom Rack Clearwater,2435 State Road 580,Clearwater,FL,33761,727.216.2525,28.0188758,-82.7367201,https://stores.nordstromrack.com/us/fl/clearwater/2435-state-road-580,America/New_York,Florida,Nordstrom,2024-03-31
27,Rack,Nordstrom Rack Tanasbourne Town Center,11100 NE Evergreen Parkway,Hillsboro,OR,97006,503.439.0900,45.5353945,-122.8656015,https://stores.nordstromrack.com/us/or/hillsboro/11100-ne-evergreen-pkwy,America/Los_Angeles,Oregon,Nordstrom,2024-03-31
125,Rack,Nordstrom Rack Cascade Plaza,9175 SW Cascade Avenue,Beaverton,OR,97008,971.327.6161,45.453587,-122.786513,https://stores.nordstromrack.com/us/or/beaverton/9175-sw-cascade-ave,America/Los_Angeles,Oregon,Nordstrom,2024-03-31
25,FullLineStore,Nordstrom Washington Square,9700 SW Washington Square Road,Tigard,OR,97223,503.620.0555,45.4491225,-122.7820142,,America/Los_Angeles,Oregon,Nordstrom,2024-03-31
20,FullLineStore,Nordstrom Downtown Portland,701 SW Broadway,Portland,OR,97205,503.224.6666,45.5191726,-122.6803729,,America/Los_Angeles,Oregon,Nordstrom,2024-03-31
28,Rack,Nordstrom Rack Downtown Portland,245 SW Morrison Street,Portland,OR,97204,503.299.1815,45.5183505,-122.6752872,https://stores.nordstromrack.com/us/or/portland/245-sw-morrison-st,America/Los_Angeles,Oregon,Nordstrom,2024-03-31
113,Rack,Nordstrom Rack Cascade Station,10159 NE Cascades Parkway,Portland,OR,97220,971.201.4332,45.572915,-122.558151,https://stores.nordstromrack.com/us/or/portland/10159-ne-cascades-parkway,America/Los_Angeles,Oregon,Nordstrom,2024-03-31
22,Rack,Nordstrom Rack Clackamas Promenade,8930 SE Sunnyside Road,Clackamas,OR,97015,503.654.5415,45.4308309,-122.572411,https://stores.nordstromrack.com/us/or/clackamas/8930-se-sunnyside-rd,America/Los_Angeles,Oregon,Nordstrom,2024-03-31
417,Rack,Nordstrom Willamette Town Center Rack,827 Lancaster Dr NE,Salem,OR,97301,971.345.3336,44.94128,-122.985588,,America/Los_Angeles,Oregon,Nordstrom,2024-03-31
139,Rack,Nordstrom Rack The Village at Totem Lake,12520 Totem Lake Blvd NE #120,Kirkland,WA,98034,425.202.0205,47.715886,-122.203819,https://stores.nordstromrack.com/us/wa/kirkland/12520-totem-lake-blvd-ne,America/Los_Angeles,Washington,Nordstrom,2024-03-31
138,Rack,Nordstrom Rack Bellevue Lincoln Square,500 Bellevue Way NE,Bellevue,WA,98004,425.505.4222,47.6148123,-122.2013927,https://stores.nordstromrack.com/us/wa/bellevue/500-bellevue-way-ne,America/Los_Angeles,Washington,Nordstrom,2024-03-31
4,FullLineStore,Nordstrom Bellevue Square,100 Bellevue Square,Bellevue,WA,98004,425.455.5800,47.614107,-122.204688,,America/Los_Angeles,Washington,Nordstrom,2024-03-31
14,Rack,Nordstrom Rack Factoria Mall,3920 124th Avenue SE,Bellevue,WA,98006,425.746.7200,47.5755136,-122.1721649,https://stores.nordstromrack.com/us/wa/bellevue/3920-124th-ave-se,America/Los_Angeles,Washington,Nordstrom,2024-03-31
111,Rack,Nordstrom Rack Northgate,"401 NE Northgate Way, Suite #304",Seattle,WA,98125,206.641.3300,47.7040309,-122.3254295,https://stores.nordstromrack.com/us/wa/seattle/401-ne-northgate-way,America/Los_Angeles,Washington,Nordstrom,2024-03-31
1,FullLineStore,Nordstrom Downtown Seattle,500 Pine Street,Seattle,WA,98101,206.628.2111,47.611949,-122.335961,,America/Los_Angeles,Washington,Nordstrom,2024-03-31
16,Rack,Nordstrom Rack Downtown Seattle,400 Pine Street,Seattle,WA,98101,206.448.8522,47.611759,-122.3367904,https://stores.nordstromrack.com/us/wa/seattle/400-pine-st,America/Los_Angeles,Washington,Nordstrom,2024-03-31
15,Rack,Nordstrom Rack Golde Creek Plaza,19500 Alderwood Mall Parkway,Lynnwood,WA,98036,425.774.6569,47.822014,-122.2718707,https://stores.nordstromrack.com/us/wa/lynnwood/19500-alderwood-mall-pkwy,America/Los_Angeles,Washington,Nordstrom,2024-03-31
10,FullLineStore,Nordstrom Alderwood Mall,3200 184th Street SW,Lynnwood,WA,98037,425.771.5755,47.8306559,-122.2741404,,America/Los_Angeles,Washington,Nordstrom,2024-03-31
3,Rack,Nordstrom Rack Southcenter Square,17200 Southcenter Parkway,Tukwila,WA,98188,206.407.1020,47.450822,-122.262458,https://stores.nordstromrack.com/us/wa/tukwila/17200-southcenter-pkwy,America/Los_Angeles,Washington,Nordstrom,2024-03-31
5,FullLineStore,Nordstrom Southcenter,100 Southcenter Mall,Tukwila,WA,98188,206.246.0400,47.452837,-122.271716,,America/Los_Angeles,Washington,Nordstrom,2024-03-31
17,Rack,Nordstrom Rack at The Outlet Collection,"1101 Outlet Collection Dr SW, #1320",Auburn,WA,98001,253.833.8824,47.298706,-122.2484283,https://stores.nordstromrack.com/us/wa/auburn/1101-outlet-collection-dr-sw,America/Los_Angeles,Washington,Nordstrom,2024-03-31
120,Rack,Nordstrom Tacoma Mall Rack,4502 S STEELE ST STE 1670,TACOMA,WA,984097242,253.393.4500,47.217879,-122.467628,https://stores.nordstromrack.com/us/wa/tacoma/4502-s-steele-st,America/Los_Angeles,Washington,Nordstrom,2024-03-31
6,FullLineStore,Nordstrom Tacoma Mall,"4502 South Steele Street, #800",Tacoma,WA,98409,253.475.3630,47.217879,-122.467628,,America/Los_Angeles,Washington,Nordstrom,2024-03-31
645,Rack,Nordstrom Rack Christiana Fashion Center,2400 Fashion Center Boulevard,Newark,DE,19702,302.613.6400,39.633688,-75.713964,https://stores.nordstromrack.com/us/de/newark/2400-fashion-center-blvd,America/New_York,Delaware,Nordstrom,2024-03-31
652,Rack,Nordstrom Rack Shoppes at Belmont,1585 Fruitville Pike,Lancaster,PA,17601,717.666.6420,40.063258,-76.314052,https://stores.nordstromrack.com/us/pa/lancaster/1585-fruitville-pike,America/New_York,Pennsylvania,Nordstrom,2024-03-31
72,Rack,Nordstrom Rack Station Park,380 North Station Parkway,Farmington,UT,84025,801.447.6077,40.9867087,-111.9049188,https://stores.nordstromrack.com/us/ut/farmington/380-n-station-pkwy,America/Denver,Utah,Nordstrom,2024-03-31
73,FullLineStore,Nordstrom City Creek Center,55 South West Temple,Salt Lake City,UT,84101,801.322.4200,40.76811,-111.893822,,America/Denver,Utah,Nordstrom,2024-03-31
33,Rack,Nordstrom Rack Sugar House,2210 South 1300 East,Salt Lake City,UT,84106,801.484.8880,40.722851,-111.855343,https://stores.nordstromrack.com/us/ut/salt-lake-city/2210-s-1300-e,America/Denver,Utah,Nordstrom,2024-03-31
32,FullLineStore,Nordstrom Fashion Place,"6191 South State Street, Suite 200",Murray,UT,84107,801.261.4402,40.6368125,-111.8871581,,America/Denver,Utah,Nordstrom,2024-03-31
71,Rack,Nordstrom Rack Commons at South Towne,10379 South State Street,Sandy,UT,84070,801.432.5100,40.5627165,-111.8888718,https://stores.nordstromrack.com/us/ut/sandy/10379-s-state-st,America/Denver,Utah,Nordstrom,2024-03-31
551,Rack,Nordstrom Rack Chestnut Street,1700 Chestnut Street,Philadelphia,PA,19103,215.599.6755,39.951524,-75.169577,https://stores.nordstromrack.com/us/pa/philadelphia/1700-chestnut-street,America/New_York,Pennsylvania,Nordstrom,2024-03-31
634,Rack,Nordstrom Rack King of Prussia Town Center,101 Town Square Place,King of Prussia,PA,19406,610.205.8717,40.093503,-75.374754,https://stores.nordstromrack.com/us/pa/king-of-prussia/101-town-square-place,America/New_York,Pennsylvania,Nordstrom,2024-03-31
629,FullLineStore,Nordstrom The Plaza at King of Prussia,190 North Gulph Road,King of Prussia,PA,19406,610.265.6111,40.085397,-75.394692,,America/New_York,Pennsylvania,Nordstrom,2024-03-31
639,FullLineStore,Nordstrom Christiana Mall,100 Christiana Mall,Newark,DE,19702,302.613.6000,39.676473,-75.654339,,America/New_York,Delaware,Nordstrom,2024-03-31
648,Rack,Nordstrom Rack Hamilton Crossings,"750 North Krocks Road, Suite 303",Allentown,PA,18106,610.628.6001,40.564625,-75.603429,https://stores.nordstromrack.com/us/pa/allentown/750-north-krocks-road,America/New_York,Pennsylvania,Nordstrom,2024-03-31
74,Rack,Nordstrom Rack University Crossing,360 East University Parkway,Orem,UT,84058,801.734.4600,40.2722141,-111.6861015,https://stores.nordstromrack.com/us/ut/orem/360-east-university-parkway,America/Denver,Utah,Nordstrom,2024-03-31
266,Rack,Nordstrom Rack Arborland Center,3547 Washtenaw Avenue,Ann Arbor,MI,48104,734.780.3232,42.2574113,-83.68978129999999,https://stores.nordstromrack.com/us/mi/ann-arbor/3547-washtenaw-ave,America/Detroit,Michigan,Nordstrom,2024-03-31
288,Rack,Nordstrom Rack Novi West Oaks,43839 West Oaks Drive,Novi,MI,48377,248.319.4000,42.491786,-83.481492,https://stores.nordstromrack.com/us/mi/novi/43839-west-oaks-drive,America/New_York,Michigan,Nordstrom,2024-03-31
235,FullLineStore,Nordstrom Twelve Oaks Mall,27640 Novi Road,Novi,MI,48377,248.504.5700,42.491798,-83.4673196,,America/New_York,Michigan,Nordstrom,2024-03-31
228,FullLineStore,Nordstrom Somerset Collection,2850 West Big Beaver Road,Troy,MI,48084,248.816.5100,42.5627731,-83.18595529999999,,America/New_York,Michigan,Nordstrom,2024-03-31
231,Rack,Nordstrom Rack Troy Marketplace,822 East Big Beaver Road,Troy,MI,48083,248.764.2121,42.562777,-83.130922,https://stores.nordstromrack.com/us/mi/troy/822-e-big-beaver-rd,America/New_York,Michigan,Nordstrom,2024-03-31
267,Rack,Nordstrom Rack Great Lakes Crossing,4700 Baldwin Road,Auburn Hills,MI,48326,248.920.7000,42.7026934329469,-83.302741243865,https://stores.nordstromrack.com/us/mi/auburn-hills/4700-baldwin-rd,America/Detroit,Michigan,Nordstrom,2024-03-31
749,Rack,Nordstrom Rack Woodland Plaza,8722 East 71st Street,Tulsa,OK,74133,918.505.4650,36.0590893,-95.8790263,https://stores.nordstromrack.com/us/ok/tulsa/8722-east-71st-st,America/Chicago,Oklahoma,Nordstrom,2024-03-31
714,Rack,Nordstrom Rack Winter Park Square,1090 N Orlando Avenue Suite 101,Winter Park,FL,32789,407.772.6010,28.607487,-81.365117,https://stores.nordstromrack.com/us/fl/winter-park/1090-orlando-avenue,America/New_York,Florida,Nordstrom,2024-03-31
778,Rack,Nordstrom Rack Millenia Crossing,4036 Eastgate Drive,Orlando,FL,32839,321.558.3800,28.4844623,-81.4261686,https://stores.nordstromrack.com/us/fl/orlando/4036-eastgate-dr,America/New_York,Florida,Nordstrom,2024-03-31
277,Rack,Nordstrom Rack Crocker Park,30121 Detroit Road,Westlake,OH,44145,440.925.6464,41.46149279999999,-81.952348,https://stores.nordstromrack.com/us/oh/westlake/30121-detroit-rd,America/New_York,Ohio,Nordstrom,2024-03-31
241,Rack,Nordstrom Rack Legacy Village,25149 Cedar Road,Lyndhurst,OH,44124,216.472.2244,41.5028181,-81.4988704,https://stores.nordstromrack.com/us/oh/lyndhurst/25149-cedar-rd,America/New_York,Ohio,Nordstrom,2024-03-31
227,FullLineStore,Nordstrom Beachwood Place,26200 Cedar Road,Beachwood,OH,44122,216.378.2121,41.501184,-81.494465,,America/New_York,Ohio,Nordstrom,2024-03-31
547,Rack,Nordstrom Rack Newbury,497 Boylston Street,Boston,MA,02116,857.300.2300,42.351166,-71.07427419999999,https://stores.nordstromrack.com/us/ma/boston/497-boylston-st,America/New_York,Massachusetts,Nordstrom,2024-03-31
543,Rack,Nordstrom Rack Middlesex Commons,"43 Middlesex Turnpike, Suite 5",Burlington,MA,01803,781.345.4960,42.4703242,-71.2076014,https://stores.nordstromrack.com/us/ma/burlington/43-middlesex-turnpike,America/New_York,Massachusetts,Nordstrom,2024-03-31
535,FullLineStore,Nordstrom Burlington,75 Middlesex Turnpike,Burlington,MA,01803,781.345.7800,42.480541,-71.216846,,America/New_York,Massachusetts,Nordstrom,2024-03-31
536,FullLineStore,Nordstrom Northshore,210 Andover Street,Peabody,MA,01960,978.278.7400,42.545286,-70.944518,,America/New_York,Massachusetts,Nordstrom,2024-03-31
542,Rack,Nordstrom Rack Liberty Tree Mall,50 Independence Way,Danvers,MA,01923,978.539.6060,42.550617,-70.939458,https://stores.nordstromrack.com/us/ma/danvers/50-independence-way,America/New_York,Massachusetts,Nordstrom,2024-03-31
534,FullLineStore,Nordstrom South Shore Plaza,250 Granite Street,Braintree,MA,02184,781.519.7200,42.218466,-71.025525,,America/New_York,Massachusetts,Nordstrom,2024-03-31
553,Rack,Nordstrom Rack Marketplace at Braintree,"200 Grossman Drive, Suite 102",Braintree,MA,02184,781.930.6001,42.211511,-70.999128,https://stores.nordstromrack.com/us/ma/braintree/200-grossman-drive,America/New_York,Massachusetts,Nordstrom,2024-03-31
541,Rack,Nordstrom Rack University Station,231 University Avenue,Westwood,MA,02090,781.915.6700,42.2040842,-71.15546379999999,https://stores.nordstromrack.com/us/ma/westwood/231-university-avenue,America/New_York,Massachusetts,Nordstrom,2024-03-31
531,FullLineStore,Nordstrom Natick Mall,290 Speen Street,Natick,MA,01760,508.318.2600,42.300485,-71.379738,,America/New_York,Massachusetts,Nordstrom,2024-03-31
546,Rack,Nordstrom Rack Shoppers World,1 Worcester Road,Framingham,MA,01701,508.598.3484,42.298947,-71.393602,https://stores.nordstromrack.com/us/ma/framingham/1-worcester-rd,America/New_York,Massachusetts,Nordstrom,2024-03-31
550,Rack,Nordstrom Rack The Shoppes at Blackstone Valley,70 Worcester Providence Turnpike,Millbury,MA,01527,774.276.4400,42.19605019999999,-71.7784829,https://stores.nordstromrack.com/us/ma/millbury/70-worcester-providence-tpke,America/New_York,Massachusetts,Nordstrom,2024-03-31
140,Rack,Nordstrom Rack Foothills Mall,3050 S. College Avenue,Fort Collins,CO,80525,970.829.3101,40.5448197,-105.0763375,https://stores.nordstromrack.com/us/co/fort-collins/3050-s-college-ave,America/Denver,Colorado,Nordstrom,2024-03-31
533,Rack,Nordstrom Rack Warwick Mall,400 Bald Hill Road,Warwick,RI,02886,401.773.7930,41.72362,-71.480666,https://stores.nordstromrack.com/us/ri/warwick/400-bald-hill-rd,America/New_York,Rhode Island,Nordstrom,2024-03-31
510,Rack,Nordstrom Rack Destiny USA,9643 Destiny USA Drive,Syracuse,NY,13204,315.802.0200,43.068267,-76.171717,https://stores.nordstromrack.com/us/ny/syracuse/3-destiny-usa-drive,America/New_York,New York,Nordstrom,2024-03-31
278,Rack,Nordstrom Rack Sun Center,3702 West Dublin Granville Road,Columbus,OH,43235,614.408.4205,40.0953494,-83.08847159999999,https://stores.nordstromrack.com/us/oh/columbus/3702-west-dublin-granville-rd,America/New_York,Ohio,Nordstrom,2024-03-31
276,Rack,Nordstrom Rack Easton Market,3736 Easton Market,Columbus,OH,43219,614.750.2222,40.0529831,-82.92423529999999,https://stores.nordstromrack.com/us/oh/columbus/3736-easton-market,America/New_York,Ohio,Nordstrom,2024-03-31
234,FullLineStore,Nordstrom Easton Town Center,4000 Worth Avenue,Columbus,OH,43219,614.416.7111,40.0548072,-82.91516469999999,,America/New_York,Ohio,Nordstrom,2024-03-31
756,Rack,Nordstrom Rack The Markets at Town Center,4924 Big Island Drive,Jacksonville,FL,32246,904.328.2340,30.252561,-81.528554,https://stores.nordstromrack.com/us/fl/jacksonville/4924-big-island-dr,America/New_York,Florida,Nordstrom,2024-03-31
789,FullLineStore,Nordstrom St. Johns Town Center,4835 Town Crossing Drive,Jacksonville,FL,32246,904.672.2200,30.253385,-81.527181,,America/New_York,Florida,Nordstrom,2024-03-31
130,Rack,Nordstrom Rack Boise Towne Square,534 North Milwaukee Street,Boise,ID,83704,208.321.4040,43.609932,-116.284634,https://stores.nordstromrack.com/us/id/boise/534-n-milwaukee-st,America/Denver,Idaho,Nordstrom,2024-03-31
491,Rack,Nordstrom SLO Promenade Rack,323 Madonna Rd,San Luis Obispo,CA,93405,805.858.3666,35.2623,-120.67859,,America/Los_Angeles,California,Nordstrom,2024-03-31
247,Rack,Nordstrom Rack Rivers Edge Shopping Center,4036 East 82nd Street,Indianapolis,IN,46250,317.572.2955,39.90858,-86.0965866,https://stores.nordstromrack.com/us/in/indianapolis/4036-e-82nd-st,America/New_York,Indiana,Nordstrom,2024-03-31
238,FullLineStore,Nordstrom Fashion Mall at Keystone,8702 Keystone Crossing,Indianapolis,IN,46240,317.810.9809,39.9151886,-86.1115957,,America/New_York,Indiana,Nordstrom,2024-03-31
526,FullLineStore,Nordstrom Westfarms,600 Westfarms Mall,Farmington,CT,06032,860.521.9090,41.722043,-72.765831,,America/New_York,Connecticut,Nordstrom,2024-03-31
545,Rack,Nordstrom Rack West Farm Shopping Center,1600 South East Road,Farmington,CT,06032,860.321.2400,41.717868,-72.762584,https://stores.nordstromrack.com/us/ct/farmington/1600-s-east-rd,America/New_York,Connecticut,Nordstrom,2024-03-31
791,Rack,Nordstrom Rack Harbison Court,278 Harbison Boulevard,Columbia,SC,29212,803.740.5454,34.0721598,-81.1567864,https://stores.nordstromrack.com/us/sc/columbia/278-harbison-boulevard,America/New_York,South Carolina,Nordstrom,2024-03-31
711,Rack,Nordstrom Rack Bowman Place,1110 Bowman Road,Mt. Pleasant,SC,29464,843.375.4801,32.810023,-79.851665,https://stores.nordstromrack.com/us/sc/mount-pleasant/1110-bowman-road,America/New_York,South Carolina,Nordstrom,2024-03-31
389,Rack,Nordstrom Rack The Corner,4320 North Oracle Road,Tucson,AZ,85705,520.333.2720,32.285765,-110.978076,https://stores.nordstromrack.com/us/az/tucson/4320-n-oracle-rd,America/Phoenix,Arizona,Nordstrom,2024-03-31
151,Rack,Nordstrom Rack Wilmot Plaza,6317 E. Broadway Boulevard,Tucson,AZ,85710,520.395.4000,32.2227412,-110.8572124,https://stores.nordstromrack.com/us/az/tucson/6317-e-broadway-blvd,America/Phoenix,Arizona,Nordstrom,2024-03-31
237,FullLineStore,Nordstrom Ross Park,1000 Ross Park Mall Drive,Pittsburgh,PA,15237,412.548.4300,40.5444283,-80.0083315,,America/New_York,Pennsylvania,Nordstrom,2024-03-31
676,Rack,Nordstrom Rack at The Block Northway,8031 McKnight Road,Pittsburgh,PA,15237,412.548.6000,40.5516777,-80.02145,https://stores.nordstromrack.com/us/pa/pittsburgh/8031-mcknight-road,America/New_York,Pennsylvania,Nordstrom,2024-03-31
272,Rack,Nordstrom Rack Mayfair Collection,11500 West Burleigh Street,Wauwatosa,WI,53222,414.944.6350,43.0780498,-88.0566784,https://stores.nordstromrack.com/us/wi/wauwatosa/11500-west-burleigh-st,America/Chicago,Wisconsin,Nordstrom,2024-03-31
798,Rack,Nordstrom Rack Mall of Louisiana,"9330 Mall of Louisiana Blvd, #120",Baton Rouge,LA,70836,225.508.3030,30.392477,-91.090129,https://stores.nordstromrack.com/us/la/baton-rouge/9330-mall-of-louisiana,America/Chicago,Louisiana,Nordstrom,2024-03-31
716,Rack,Nordstrom Rack The Outlet Collection at Riverwalk,"500 Port of New Orleans Pl, #245",New Orleans,LA,70130,504.930.3870,29.947149,-90.062842,https://stores.nordstromrack.com/us/la/new-orleans/500-port-of-new-orleans-place,America/Chicago,Louisiana,Nordstrom,2024-03-31
792,Rack,Nordstrom Rack Magnolia Park,1025 Woodruff Road,Greenville,SC,29607,864.603.6100,34.83455,-82.310675,https://stores.nordstromrack.com/us/sc/greenville/1025-woodruff-road,America/New_York,South Carolina,Nordstrom,2024-03-31
256,Rack,Nordstrom Rack Woodbury CityPlace,315 Radio Drive,Woodbury,MN,55125,651.900.7400,44.9430266,-92.9297926,https://stores.nordstromrack.com/us/mn/woodbury/315-radio-drive,America/Chicago,Minnesota,Nordstrom,2024-03-31
222,FullLineStore,Nordstrom Mall of America,1000 NW Court,Bloomington,MN,55425,952.883.2121,44.8558951,-93.24421509999999,,America/Chicago,Minnesota,Nordstrom,2024-03-31
233,Rack,Nordstrom Rack Mall of America,324 West Marketplace,Bloomington,MN,55425,952.854.3131,44.85429670000001,-93.24416629999999,https://stores.nordstromrack.com/us/mn/bloomington/324-w-marketplace,America/Chicago,Minnesota,Nordstrom,2024-03-31
275,Rack,Nordstrom Rack Shoppes at Knollwood,8344  Highway 7,St. Louis Park,MN,55426,952.303.7300,44.93793120000001,-93.38610659999999,https://stores.nordstromrack.com/us/mn/saint-louis-park/8344-highway-7,America/Chicago,Minnesota,Nordstrom,2024-03-31
283,FullLineStore,Nordstrom Ridgedale,12441 Wayzata Boulevard,Minnetonka,MN,55305,651.900.6800,44.9685972,-93.4354168,,America/Chicago,Minnesota,Nordstrom,2024-03-31
271,Rack,Nordstrom Rack Arbor Lakes,12745 Elm Creek Boulevard,Maple Grove,MN,55369,763.898.5300,45.0928228,-93.4422934,https://stores.nordstromrack.com/us/mn/maple-grove/12745-elm-creek-blvd,America/Chicago,Minnesota,Nordstrom,2024-03-31
787,Rack,Nordstrom Rack at The Summit,339 Summit Blvd,Birmingham,AL,35243,205.578.3100,33.45186,-86.73071,https://stores.nordstromrack.com/us/al/birmingham/4612-highway-280,America/Chicago,Alabama,Nordstrom,2024-03-31
658,Rack,Nordstrom TERRACE AT HAMILTON PLACE RACK,2220 Hamilton Pl Blvd Ste 126,Chattanooga,TN,37421,423.591.6387,35.039012,-85.155903,https://stores.nordstromrack.com/us/tn/chattanooga/2220-hamilton-place-blvd ,America/New_York,Tennessee,Nordstrom,2024-03-31
786,Rack,Nordstrom Rack The Shoppes at University Town Center,8551 Cooper Creek Boulevard,Bradenton,FL,34201,941.870.4200,27.389178,-82.455636,https://stores.nordstromrack.com/us/fl/bradenton/8551-cooper-creek-blvd,America/New_York,Florida,Nordstrom,2024-03-31
560,Rack,Nordstrom Rack Colonie Center,224B Colonie Center,Albany,NY,12205,518.776.3600,42.708296,-73.816419,https://stores.nordstromrack.com/us/ny/albany/224b-colonie-center,America/New_York,New York,Nordstrom,2024-03-31
9,FullLineStore,Nordstrom Spokane,828 West Main Avenue,Spokane,WA,99201,509.455.6111,47.6595362,-117.4246376,,America/Los_Angeles,Washington,Nordstrom,2024-03-31
109,Rack,Nordstrom Rack Spokane Valley Plaza,14018 East Indiana Avenue,Spokane Valley,WA,99216,509.484.2233,47.675854,-117.218264,https://stores.nordstromrack.com/us/wa/spokane-valley/14018-e-indiana-ave,America/Los_Angeles,Washington,Nordstrom,2024-03-31
554,Rack,Nordstrom Rack Boulevard Consumer Square,1579 Niagara Falls Boulevard,Amherst,NY,14228,716.242.6830,42.9982949,-78.81733129999999,https://stores.nordstromrack.com/us/ny/amherst/1579-niagara-falls-boulevard,America/New_York,New York,Nordstrom,2024-03-31
112,Rack,Nordstrom Rack Oakway Center,5 Oakway Center,Eugene,OR,97401,541.334.7020,44.0652403,-123.0770499,https://stores.nordstromrack.com/us/or/eugene/5-oakway-center,America/Los_Angeles,Oregon,Nordstrom,2024-03-31
708,Rack,Nordstrom Rack Poplar Commons,4572 Poplar Avenue,Memphis,TN,38117,901.866.2023,35.1191085,-89.90969869999999,https://stores.nordstromrack.com/us/tn/memphis/4572-poplar-avenue,America/Chicago,Tennessee,Nordstrom,2024-03-31
281,Rack,Nordstrom Rack Shelbyville Road Plaza,4600 Shelbyville Road,Louisville,KY,40207,502.899.4940,38.2494596,-85.6291042,https://stores.nordstromrack.com/us/ky/louisville/4600-shelbyville-rd,America/New_York,Kentucky,Nordstrom,2024-03-31
485,Rack,Nordstrom Cooper Point Marketplace Rack,1200 Cooper Point Rd SW,Olympia,WA,98502,564.225.4222,47.03538,-122.93799,,America/Los_Angeles,Washington,Nordstrom,2024-03-31
286,Rack,Nordstrom Rack West Towne Crossing,7349 West Towne Way,Madison,WI,53719,608.824.6760,43.054976,-89.5111939,https://stores.nordstromrack.com/us/wi/madison/7349-west-towne-way-west,America/Chicago,Wisconsin,Nordstrom,2024-03-31
477,Rack,Nordstrom Rack Redfield Promenade,4995 South Virginia Street,Reno,NV,89502,775.332.6220,39.4791862,-119.7910137,https://stores.nordstromrack.com/us/nv/reno/4995-south-virginia-street,America/Los_Angeles,Nevada,Nordstrom,2024-03-31
250,Rack,Nordstrom Bradley Fair Wichita Rack,1800 N Rock Rd Ste 130,Wichita,KS,67206,316.768.5674,37.716208,-97.244038,https://stores.nordstromrack.com/us/ks/wichita/1800-n-rock-road,America/Chicago,Kansas,Nordstrom,2024-03-31
273,Rack,Nordstrom Rack Centerpointe Mall,3615 28th Street SE,Grand Rapids,MI,49512,616.575.2127,42.9160092,-85.5783306,https://stores.nordstromrack.com/us/mi/grand-rapids/3615-28th-st-se,America/New_York,Michigan,Nordstrom,2024-03-31
284,Rack,Nordstrom Rack The Plaza at Jordan Creek,"320 S Jordan Creek Pky, #400",West Des Moines,IA,50266,515.221.4320,41.5659151,-93.8076207,https://stores.nordstromrack.com/us/ia/west-des-moines/320-south-jordan-creek-parkway,America/Chicago,Iowa,Nordstrom,2024-03-31
757,Rack,Nordstrom Rack Mercato,"9100 Strada Place, Suite 2100",Naples,FL,34108,239.449.7444,26.2536296,-81.80005249999999,https://stores.nordstromrack.com/us/fl/naples/9100-strada-place,America/New_York,Florida,Nordstrom,2024-03-31
552,Rack,Nordstrom Rack Maine Crossing,200 Running Hill Road,South Portland,ME,04106,207.245.6610,43.635329,-70.34529909999999,https://stores.nordstromrack.com/us/me/south-portland/200-running-hill-rd,America/New_York,Maine,Nordstrom,2024-03-31
717,Rack,Nordstrom Rack Ambassador Town Center,"111 Meadow Farm Road, Suite 140",Lafayette,LA,70508,337.484.1360,30.1577417,-92.04443839999999,https://stores.nordstromrack.com/us/la/lafayette/111-meadow-farm-road,America/Chicago,Louisiana,Nordstrom,2024-03-31
