store_id,street,city,state,zip,latitude,longitude,phone,url,state_name,brand
0130,130 North Highway 123 Bypass,Seguin,TX,78155,29.5685734,-97.9414738,(830) 406-2195,https://shipleydonuts.com/locations/fc0130/,Texas,Shipley Do-nuts
1130,11300 U.S. 290,Manor,TX,78653,30.3496903,-97.5261326,(512) 953-5499,https://shipleydonuts.com/locations/fc1130/,Texas,Shipley Do-nuts
5154,1001 McKinney Street,Houston,TX,77002,29.756905,-95.36430949999999,(713) 651-3033,https://shipleydonuts.com/locations/fc5154/,Texas,Shipley Do-nuts
6018,3485 College Street,Beaumont,TX,77701,30.0679519,-94.1268868,(409) 832-2595,https://shipleydonuts.com/locations/fc6018/,Texas,Shipley Do-nuts
6057,620 State Highway 288,Clute,TX,77531,29.0157,-95.393875,(979) 265-2822,https://shipleydonuts.com/locations/fc6057/,Texas,Shipley Do-nuts
6077,212 South Friendswood Drive,Friendswood,TX,77546,29.530799,-95.2038749,(832) 569-5945,https://shipleydonuts.com/locations/fc6077/,Texas,Shipley Do-nuts
6082,502 Eva Street,Montgomery,TX,77356,30.38872939999999,-95.69709890000001,(936) 597-5557,https://shipleydonuts.com/locations/fc6082/,Texas,Shipley Do-nuts
9020,1401 Mississippi 1,Greenville,MS,38701,33.3849945,-91.03925629999999,(662) 378-2603,https://shipleydonuts.com/locations/fc9020/,Mississippi,Shipley Do-nuts
0501,5000 Collin McKinney Parkway,McKinney,TX,75070,33.1507781,-96.68137569999999,,https://shipleydonuts.com/locations/fc0501/,Texas,Shipley Do-nuts
5062,5823 Gulf Freeway,Houston,TX,77023,29.7162916,-95.3153559,,https://shipleydonuts.com/locations/fc5062/,Texas,Shipley Do-nuts
6049,1205 Speight Avenue,Waco,TX,76706,31.5397788,-97.12521249999999,,https://shipleydonuts.com/locations/fc6049/,Texas,Shipley Do-nuts
6050,210 East Villa Maria Road,Bryan,TX,77801,30.6412139,-96.3562208,,https://shipleydonuts.com/locations/fc6050/,Texas,Shipley Do-nuts
2201,2201 West Wall Street,Midland,TX,79701,31.9932768,-102.0981192,(432) 218-6426,https://shipleydonuts.com/locations/fc2201/,Texas,Shipley Do-nuts
7704,15727 Wallisville Road,Houston,TX,77049,29.8093483,-95.1609466,(281) 864-5353,https://shipleydonuts.com/locations/fc7704/,Texas,Shipley Do-nuts
8121,8121 Florida Boulevard,Baton Rouge,LA,70806,30.4524167,-91.1039076,225-964-5364,https://shipleydonuts.com/locations/fc8121/,Louisiana,Shipley Do-nuts
9000,8710 University Avenue,Lubbock,TX,79423,33.5152671,-101.8710172,(806) 500-6146,https://shipleydonuts.com/locations/fc9000/,Texas,Shipley Do-nuts
6655,6655 Ardmore Street,Houston,TX,77021,29.701296,-95.37652369999999,(713) 497-5391,https://shipleydonuts.com/locations/fc6655/,Texas,Shipley Do-nuts
0113,113 North Washington Avenue,Cleveland,TX,77327,30.3443421,-95.0895398,(832) 480-5330,https://shipleydonuts.com/locations/fc0113/,Texas,Shipley Do-nuts
0200,200 Martin Luther King Junior Parkway,Brenham,TX,77833,30.1704189,-96.4006442,(713) 541-0500,https://shipleydonuts.com/locations/fc0200/,Texas,Shipley Do-nuts
0213,213 Promenade Boulevard,Flowood,MS,39232,32.3433757,-90.0570518,(769) 572-5043,https://shipleydonuts.com/locations/fc0213/,Mississippi,Shipley Do-nuts
0303,20303 Farm to Market Road 529,Cypress,TX,77433,29.8792266,-95.7206547,(832) 906-6622,https://shipleydonuts.com/locations/fc0303/,Texas,Shipley Do-nuts
0315,315 East Commerce Street,San Antonio,TX,78205,29.4242747,-98.4893608,(210) 908-9339,https://shipleydonuts.com/locations/fc0315/,Texas,Shipley Do-nuts
0521,5210 West Wadley Avenue,Midland,TX,79707,32.0131224,-102.1553657,(432) 218-6023,https://shipleydonuts.com/locations/fc0521/,Texas,Shipley Do-nuts
0704,704 Junction Highway,Kerrville,TX,78028,30.0566754,-99.15915369999999,(830) 315-3400,https://shipleydonuts.com/locations/fc0704/,Texas,Shipley Do-nuts
0998,998 Shady Grove Road,Hot Springs,AR,71901,34.4622452,-93.0263681,(501) 701-4434,https://shipleydonuts.com/locations/fc0998/,Arkansas,Shipley Do-nuts
1002,1245 Main Street,Buda,TX,78610,30.0874463,-97.82905079999999,(512) 312-9393,https://shipleydonuts.com/locations/fc1002/,Texas,Shipley Do-nuts
1070,10705 Market Street,Houston,TX,77029,29.7680172,-95.2398517,(713) 672-0065,https://shipleydonuts.com/locations/fc1070/,Texas,Shipley Do-nuts
1080,10807 Huffmeister Road,Houston,TX,77065,29.9322342,-95.62885779999999,(281) 653-9606,https://shipleydonuts.com/locations/fc1080/,Texas,Shipley Do-nuts
1093,326 Singing Oaks,Spring Branch,TX,78070,29.800585,-98.4194,(830) 438-3700,https://shipleydonuts.com/locations/fc1093/,Texas,Shipley Do-nuts
1205,1205 South Caraway Road,Jonesboro,AR,72401,35.8305439,-90.6780644,(870) 203-6124,https://shipleydonuts.com/locations/fc1205/,Arkansas,Shipley Do-nuts
1206,401 Southwest Drive,Jonesboro,AR,72401,35.817652,-90.708581,(870) 268-1414,https://shipleydonuts.com/locations/fc1206/,Arkansas,Shipley Do-nuts
1216,1216 North Jackson,Magnolia,AR,71753,33.2785669,-93.23638559999999,(870) 562-2694,https://shipleydonuts.com/locations/fc1216/,Arkansas,Shipley Do-nuts
1223,1223 Malcolm Avenue,Newport,AR,72112,35.6063816,-91.2644145,(870) 217-4098,https://shipleydonuts.com/locations/fc1223/,Arkansas,Shipley Do-nuts
1256,12568 Broadway Street,Pearland,TX,77584,29.5545281,-95.41502559999999,(281) 741-0270,https://shipleydonuts.com/locations/fc1256/,Texas,Shipley Do-nuts
1280,1280 North Interstate 35 Frontage Road,New Braunfels,TX,78130,29.6862273,-98.1286928,(830) 620-9930,https://shipleydonuts.com/locations/fc1280/,Texas,Shipley Do-nuts
1282,12827 Telge Road,Cypress,TX,77429,29.9625396,-95.650505,(281) 213-4400,https://shipleydonuts.com/locations/fc1282/,Texas,Shipley Do-nuts
1300,5225 Bellaire Boulevard,Bellaire,TX,77401,29.7050827,-95.47126879999999,(713) 664-3308,https://shipleydonuts.com/locations/fc1300/,Texas,Shipley Do-nuts
1301,1300 South Main Street,Pine Bluff,AR,71601,34.2168466,-92.0036598,(870) 850-7373,https://shipleydonuts.com/locations/fc1301/,Arkansas,Shipley Do-nuts
1310,8606 Almeda Road,Houston,TX,77054,29.67979509999999,-95.3939449,(346) 374-6982,https://shipleydonuts.com/locations/fc1310/,Texas,Shipley Do-nuts
1312,13120 Crystal Hill Road,Maumelle,AR,72113,34.8288046,-92.39086859999999,(501) 771-1518,https://shipleydonuts.com/locations/fc1312/,Arkansas,Shipley Do-nuts
1380,5302 Bingle Road,Houston,TX,77092,29.8416526,-95.4884522,(713) 686-5600,https://shipleydonuts.com/locations/fc1380/,Texas,Shipley Do-nuts
1427,1427 Hwy 62/65 North,Harrison,AR,72601,36.269281,-93.143128,(870) 204-5020,https://shipleydonuts.com/locations/fc1427/,Arkansas,Shipley Do-nuts
1433,1433 Farm to Market 1463,Katy,TX,77494,29.767082323934932,-95.83996164715192,(281) 574-2770,https://shipleydonuts.com/locations/fc1433/,Texas,Shipley Do-nuts
1455,14555 West Lake Houston Parkway,Houston,TX,77044,29.9377708,-95.1764074,(281) 864-5353,https://shipleydonuts.com/locations/fc1455/,Texas,Shipley Do-nuts
1463,6300 Farm to Market 1463,Fulshear,TX,77441,29.699830017494094,-95.8468715429569,(281) 505-0712,https://shipleydonuts.com/locations/fc1463/,Texas,Shipley Do-nuts
1485,20132 Farm to Market 1485,New Caney,TX,77357,30.154872430735278,-95.22320818895494,(832) 793-5100,https://shipleydonuts.com/locations/fc1485/,Texas,Shipley Do-nuts
1488,2550 Farm to Market Road 1488,Conroe,TX,77384,30.2310622,-95.5023578,(936) 231-8952,https://shipleydonuts.com/locations/fc1488/,Texas,Shipley Do-nuts
1501,1500 East Main Street,Magnolia,AR,71753,33.2669478,-93.2213472,(870) 234-1165,https://shipleydonuts.com/locations/fc1501/,Arkansas,Shipley Do-nuts
1513,12667 Beach Boulevard,Jacksonville,FL,32246,30.287886526420436,-81.48643198220901,(904) 551-1629,https://shipleydonuts.com/locations/fc1513/,Florida,Shipley Do-nuts
1560,1560 River Road,Boerne,TX,78006,29.789213472204406,-98.70573503862303,(830) 331-7477,https://shipleydonuts.com/locations/fc1560/,Texas,Shipley Do-nuts
1602,1602 Aquarena Springs Drive,San Marcos,TX,78666,29.8923679,-97.9179434,(512) 393-5010,https://shipleydonuts.com/locations/fc1602/,Texas,Shipley Do-nuts
1722,1722 Rodd Field Road,Corpus Christi,TX,78412,27.6893855,-97.3434063,(361) 452-2501,https://shipleydonuts.com/locations/fc1722/,Texas,Shipley Do-nuts
1742,17425 North Freeway,Houston,TX,77090,30.0198128,-95.4295909,(281) 836-5391,https://shipleydonuts.com/locations/fc1742/,Texas,Shipley Do-nuts
1764,2600 Farm to Market Road 1764,La Marque,TX,77568,29.40157540572038,-95.03562117242203,(409) 440-8694,https://shipleydonuts.com/locations/fc1764/,Texas,Shipley Do-nuts
1805,1805 West Main Street,Norman,OK,73069,35.2187253,-97.4686969,(405) 217-2251,https://shipleydonuts.com/locations/fc1805/,Oklahoma,Shipley Do-nuts
1916,1916 Avenue F,Bay City,TX,77414,28.9844632,-95.97057679999999,,https://shipleydonuts.com/locations/fc1916/,Texas,Shipley Do-nuts
1945,1945 West William Cannon Drive,Austin,TX,78745,30.2023878,-97.80626919999999,(512) 551-2435,https://shipleydonuts.com/locations/fc1945/,Texas,Shipley Do-nuts
2005,2113 West Anderson Lane,Austin,TX,78757,30.3547461,-97.72881269999999,(512) 371-7667,https://shipleydonuts.com/locations/fc2005/,Texas,Shipley Do-nuts
2103,2103 South Main Street,Stuttgart,AR,72160,34.4807567,-91.5528167,(870) 672-7224,https://shipleydonuts.com/locations/fc2103/,Arkansas,Shipley Do-nuts
2214,2214 East Race Avenue,Searcy,AR,72143,35.2508203,-91.710076,(501) 268-1999,https://shipleydonuts.com/locations/fc2214/,Arkansas,Shipley Do-nuts
2301,2301 U.S. Highway 190,Copperas Cove,TX,76522,31.120724,-97.87913999999999,(254) 518-1180,https://shipleydonuts.com/locations/fc2301/,Texas,Shipley Do-nuts
2380,23806 Aldine Westfield Road,Spring,TX,77373,30.056319930182823,-95.39264710492822,(832) 663-5074,https://shipleydonuts.com/locations/fc2380/,Texas,Shipley Do-nuts
2404,2404 Stadium Boulevard,Jonesboro,AR,72401,35.81529017105343,-90.66872835159302,(870) 933-7444,https://shipleydonuts.com/locations/fc2404/,Arkansas,Shipley Do-nuts
2405,3410 East Johnson Avenue,Jonesboro,AR,72401,35.85791926542268,-90.65789655029718,(870) 972-4767,https://shipleydonuts.com/locations/fc2405/,Arkansas,Shipley Do-nuts
2434,24345 Gosling Road,Spring,TX,77389,30.117746509762487,-95.50752364667912,(832) 381-0003,https://shipleydonuts.com/locations/fc2434/,Texas,Shipley Do-nuts
2505,2913 Macarthur Drive,Orange,TX,77630,30.094397743379666,-93.76145749447745,(409) 886-0400,https://shipleydonuts.com/locations/fc2505/,Texas,Shipley Do-nuts
2520,1336 Fannin Street,Columbus,TX,78934,29.7034007,-96.547191,(979) 733-0267,https://shipleydonuts.com/locations/fc2520/,Texas,Shipley Do-nuts
2525,1912 West Pecan Street,Pflugerville,TX,78660,30.446893286279963,-97.6451351232788,(512) 252-6329,https://shipleydonuts.com/locations/fc2525/,Texas,Shipley Do-nuts
2541,25417 Kuykendahl Road,Tomball,TX,77375,30.130594808110747,-95.5542974871025,(832) 717-6411,https://shipleydonuts.com/locations/fc2541/,Texas,Shipley Do-nuts
2560,10806 Spring Cypress Road,Houston,TX,77070,30.01412239999999,-95.5874395,(281) 257-5996,https://shipleydonuts.com/locations/fc2560/,Texas,Shipley Do-nuts
2561,2561 Metairie Road,Metairie,LA,70001,29.980675799424315,-90.15148337790984,(504) 264-7351,https://shipleydonuts.com/locations/fc2561/,Louisiana,Shipley Do-nuts
2575,2575 East Griffin Parkway,Mission,TX,78572,26.224008820209498,-98.27844300496292,(956) 271-1006,https://shipleydonuts.com/locations/fc2575/,Texas,Shipley Do-nuts
2600,1303 Pat Booker Road,Universal City,TX,78148,29.5504759,-98.29949889999999,(210) 560-2234,https://shipleydonuts.com/locations/fc2600/,Texas,Shipley Do-nuts
2601,2601 North Navarro Street,Victoria,TX,77901,28.8196807,-97.00094089999999,(361) 894-6386,https://shipleydonuts.com/locations/fc2601/,Texas,Shipley Do-nuts
2723,2723 Yale Street,Houston,TX,77008,29.8117452,-95.399731,(713) 677-0577,https://shipleydonuts.com/locations/fc2723/,Texas,Shipley Do-nuts
2920,9116 Grand Parkway,Tomball,TX,77375,30.0743514,-95.55897139999999,(346) 808-5826,https://shipleydonuts.com/locations/fc2920/,Texas,Shipley Do-nuts
3000,19757 Stokes Road,Waller,TX,77484,30.0613876,-95.9090897,(936) 372-3905,https://shipleydonuts.com/locations/fc3000/,Texas,Shipley Do-nuts
3001,3001 Judson Road,Longview,TX,75605,32.5466247523643,-94.74997853502235,(903) 663-4321,https://shipleydonuts.com/locations/fc3001/,Texas,Shipley Do-nuts
3011,2941 West Grand Parkway North,Katy,TX,77449,29.817513250964836,-95.77215000987053,(281) 665-7619,https://shipleydonuts.com/locations/fc3011/,Texas,Shipley Do-nuts
3020,302 Union Street,Dardanelle,AR,72834,35.2230488,-93.1583776,(479) 229-2909,https://shipleydonuts.com/locations/fc3020/,Arkansas,Shipley Do-nuts
3201,3201 Commercial Circle,New Braunfels,TX,78132,29.6753869,-98.15583459999999,(830) 625-2538,https://shipleydonuts.com/locations/fc3201/,Texas,Shipley Do-nuts
3249,3235 Riley Fuzzel Road,Spring,TX,77386,30.1160232,-95.3834445,(281) 288-9528,https://shipleydonuts.com/locations/fc3249/,Texas,Shipley Do-nuts
3300,3300 Southeast Loop 820,Fort Worth,TX,76140,32.6607285,-97.2746528,(817) 562-4752,https://shipleydonuts.com/locations/fc3300/,Texas,Shipley Do-nuts
3301,3301 Kemp Boulevard,Wichita Falls,TX,76308,33.87923381957485,-98.52867614603271,(940) 386-2222,https://shipleydonuts.com/locations/fc3301/,Texas,Shipley Do-nuts
3303,3303 East Main Street,Madisonville,TX,77864,30.966978903303882,-95.88111797979698,(936) 348-2260,https://shipleydonuts.com/locations/fc3303/,Texas,Shipley Do-nuts
3357,3357 Gilmer Road,Longview,TX,75604,32.5470715,-94.79933439999999,(903) 759-0354,https://shipleydonuts.com/locations/fc3357/,Texas,Shipley Do-nuts
3501,10401 Anderson Mill Road,Austin,TX,78750,30.446851375462376,-97.80439912202071,(512) 219-9170,https://shipleydonuts.com/locations/fc3501/,Texas,Shipley Do-nuts
3505,1441 South Valley Mills Drive,Waco,TX,76711,31.524355441154732,-97.1435121956314,(254) 714-2660,https://shipleydonuts.com/locations/fc3505/,Texas,Shipley Do-nuts
3515,925 North Industrial Boulevard,Bedford,TX,76021,32.8506463,-97.10042329999999,(817) 545-2944,https://shipleydonuts.com/locations/fc3515/,Texas,Shipley Do-nuts
3607,3607 South Main Street,Stafford,TX,77477,29.61983501476337,-95.56800029947509,(281) 969-7160,https://shipleydonuts.com/locations/fc3607/,Texas,Shipley Do-nuts
3629,3629 Nelson Road,Lake Charles,LA,70605,30.1912086,-93.2487575,(337) 419-1991,https://shipleydonuts.com/locations/fc3629/,Louisiana,Shipley Do-nuts
3800,405 West Main Street,Mesquite,TX,75149,32.7673834,-96.6026794,(972) 285-4744,https://shipleydonuts.com/locations/fc3800/,Texas,Shipley Do-nuts
3900,6417 Precinct Line Road,North Richland Hills,TX,76182,32.8639062,-97.18670829999999,(817) 849-2464,https://shipleydonuts.com/locations/fc3900/,Texas,Shipley Do-nuts
4070,407 South Arkansas Avenue,Russellville,AR,72801,35.282370180109695,-93.13392426672591,(479) 880-0885,https://shipleydonuts.com/locations/fc4070/,Arkansas,Shipley Do-nuts
4200,1218 West Bitters Road,San Antonio,TX,78216,29.5782512,-98.51207629999999,(210) 492-7900,https://shipleydonuts.com/locations/fc4200/,Texas,Shipley Do-nuts
4250,1134 Culebra Road,San Antonio,TX,78201,29.444711500495725,-98.5260610625656,(210) 736-0059,https://shipleydonuts.com/locations/fc4250/,Texas,Shipley Do-nuts
4501,2140 East Pioneer Parkway,Arlington,TX,76010,32.71144720000001,-97.072849,(817) 583-6619,https://shipleydonuts.com/locations/fc4501/,Texas,Shipley Do-nuts
4600,20711 Wilderness Oak,San Antonio,TX,78258,29.635201761067112,-98.51686687308576,(210) 481-0706,https://shipleydonuts.com/locations/fc4600/,Texas,Shipley Do-nuts
5010,3417 Aldine Mail Route Road,Houston,TX,77039,29.9028465,-95.33874460000001,(281) 449-3985,https://shipleydonuts.com/locations/fc5010/,Texas,Shipley Do-nuts
5015,11431 Airline Drive,Houston,TX,77060,29.9217624,-95.40772609999999,(281) 931-4315,https://shipleydonuts.com/locations/fc5015/,Texas,Shipley Do-nuts
5020,5847 West Airport Boulevard,Houston,TX,77035,29.643740881582428,-95.4927999958397,(713) 729-2381,https://shipleydonuts.com/locations/fc5020/,Texas,Shipley Do-nuts
5030,7220 Antoine Drive,Houston,TX,77088,29.865797,-95.4724334,(281) 445-6437,https://shipleydonuts.com/locations/fc5030/,Texas,Shipley Do-nuts
5035,10750 Barker Cypress Road,Cypress,TX,77433,29.93750969228777,-95.6803604951065,(281) 256-2408,https://shipleydonuts.com/locations/fc5035/,Texas,Shipley Do-nuts
5040,11568 Bellaire Boulevard,Houston,TX,77072,29.7041412,-95.5826924,(281) 498-6471,https://shipleydonuts.com/locations/fc5040/,Texas,Shipley Do-nuts
5055,979 Bunker Hill Road,Houston,TX,77024,29.78224545155928,-95.53211232023774,(281) 402-3145,https://shipleydonuts.com/locations/fc5055/,Texas,Shipley Do-nuts
5058,11551 Bissonnet Street,Houston,TX,77099,29.6745477,-95.5805597,(281) 568-6634,https://shipleydonuts.com/locations/fc5058/,Texas,Shipley Do-nuts
5060,6545 Bissonnet Street,Houston,TX,77074,29.69120899999999,-95.49912529999999,(713) 869-7621,https://shipleydonuts.com/locations/fc5060/,Texas,Shipley Do-nuts
5063,9209 Gulf Freeway,Houston,TX,77017,29.6557588,-95.2522029,(832) 295-6684,https://shipleydonuts.com/locations/fc5063/,Texas,Shipley Do-nuts
5065,1209 South Dairy Ashford Road,Houston,TX,77077,29.7598317,-95.6059149,(281) 589-9770,https://shipleydonuts.com/locations/fc5065/,Texas,Shipley Do-nuts
5070,13349 East Freeway,Houston,TX,77015,29.7712378,-95.1871837,(713) 485-5436,https://shipleydonuts.com/locations/fc5070/,Texas,Shipley Do-nuts
5080,3410 Ella Boulevard,Houston,TX,77018,29.8178627,-95.4292811,(713) 682-4343,https://shipleydonuts.com/locations/fc5080/,Texas,Shipley Do-nuts
5085,3040 Farm to Market 1960 Road East,Houston,TX,77073,30.02025,-95.38181999999999,(281) 443-7350,https://shipleydonuts.com/locations/fc5085/,Texas,Shipley Do-nuts
5088,3040 Farm to Market 1960,Humble,TX,77338,29.99911144978403,-95.19243635568084,(281) 852-7587,https://shipleydonuts.com/locations/fc5088/,Texas,Shipley Do-nuts
5090,2339 Farm to Market 1960 Road West,Houston,TX,77068,30.00535126848961,-95.46512455211484,(281) 440-1820,https://shipleydonuts.com/locations/fc5090/,Texas,Shipley Do-nuts
5100,9557 Farm to Market 1960,Houston,TX,77070,29.942679534355577,-95.56801233862305,(281) 955-0318,https://shipleydonuts.com/locations/fc5100/,Texas,Shipley Do-nuts
5105,3811 North Fry Road,Katy,TX,77449,29.828357815696805,-95.72056295959396,(281) 599-9995,https://shipleydonuts.com/locations/fc5105/,Texas,Shipley Do-nuts
5110,10985 Fuqua Street,Houston,TX,77089,29.6121554,-95.22440399999999,(713) 944-7510,https://shipleydonuts.com/locations/fc5110/,Texas,Shipley Do-nuts
5119,5119 Troup Highway,Tyler,TX,75707,32.2936076,-95.26007279999999,(903) 630-6281,https://shipleydonuts.com/locations/fc5119/,Texas,Shipley Do-nuts
5120,4410 West Fuqua Street,Houston,TX,77045,29.6136984,-95.4434685,(713) 433-0095,https://shipleydonuts.com/locations/fc5120/,Texas,Shipley Do-nuts
5122,1629 Gessner Road,Houston,TX,77080,29.8010676,-95.5452358,(713) 932-0905,https://shipleydonuts.com/locations/fc5122/,Texas,Shipley Do-nuts
5123,12671 Veterans Memorial Drive,Houston,TX,77014,29.9717746,-95.4867726,(281) 583-9484,https://shipleydonuts.com/locations/fc5123/,Texas,Shipley Do-nuts
5126,20077 Katy Freeway,Katy,TX,77450,29.78330145022187,-95.72134515704307,(281) 492-6186,https://shipleydonuts.com/locations/fc5126/,Texas,Shipley Do-nuts
5127,27110 Cinco Ranch Boulevard,Katy,TX,77494,29.715805827038043,-95.81341351964342,(281) 394-5002,https://shipleydonuts.com/locations/fc5127/,Texas,Shipley Do-nuts
5128,6734 South Texas 6,Houston,TX,77083,29.705242,-95.64505799999999,(281) 879-5300,https://shipleydonuts.com/locations/fc5128/,Texas,Shipley Do-nuts
5130,6400 Highway 6 North,Houston,TX,77084,29.871584651722298,-95.64480368220903,(281) 859-5654,https://shipleydonuts.com/locations/fc5130/,Texas,Shipley Do-nuts
5131,8601 Jensen Drive,Houston,TX,77093,29.8379539,-95.34311699999999,(713) 742-8315,https://shipleydonuts.com/locations/fc5131/,Texas,Shipley Do-nuts
5133,11617 Katy Freeway,Houston,TX,77079,29.783913451058233,-95.58930526249618,(281) 596-0096,https://shipleydonuts.com/locations/fc5133/,Texas,Shipley Do-nuts
5134,1997 Katy Mills Boulevard,Katy,TX,77494,29.78430018710929,-95.80673064173355,(832) 913-3068,https://shipleydonuts.com/locations/fc5134/,Texas,Shipley Do-nuts
5136,13639 Texas 249,Houston,TX,77086,29.9191233,-95.4934095,(281) 272-5000,https://shipleydonuts.com/locations/fc5136/,Texas,Shipley Do-nuts
5137,2321 South Texas 6,Houston,TX,77077,29.7387497,-95.64359750000001,(281) 679-7080,https://shipleydonuts.com/locations/fc5137/,Texas,Shipley Do-nuts
5138,28517 Texas 249,Tomball,TX,77375,30.0885228,-95.63271329999999,(281) 255-0490,https://shipleydonuts.com/locations/fc5138/,Texas,Shipley Do-nuts
5150,826 Little York Road,Houston,TX,77076,29.8700145,-95.36850989999999,(713) 692-3611,https://shipleydonuts.com/locations/fc5150/,Texas,Shipley Do-nuts
5156,7141 Louetta Road,Spring,TX,77379,30.022018,-95.5211946,(281) 257-3091,https://shipleydonuts.com/locations/fc5156/,Texas,Shipley Do-nuts
5158,1135 Mason Road,Katy,TX,77450,29.763749,-95.75115040000001,(281) 828-3031,https://shipleydonuts.com/locations/fc5158/,Texas,Shipley Do-nuts
5160,8901 Mesa Drive,Houston,TX,77028,29.8423047,-95.2627524,(713) 633-0580,https://shipleydonuts.com/locations/fc5160/,Texas,Shipley Do-nuts
5165,6411 Martin Luther King Boulevard,Houston,TX,77033,29.6851711,-95.34033889999999,(713) 738-2248,https://shipleydonuts.com/locations/fc5165/,Texas,Shipley Do-nuts
5170,3932 North Main Street,Houston,TX,77009,29.7934968,-95.3760779,(713) 862-4655,https://shipleydonuts.com/locations/fc5170/,Texas,Shipley Do-nuts
5175,3726 Scott Street,Houston,TX,77004,29.7218282,-95.35214889999999,(713) 748-7076,https://shipleydonuts.com/locations/fc5175/,Texas,Shipley Do-nuts
5180,518 East Davis Street,Conroe,TX,77301,30.3143345,-95.4504875,(936) 521-6986,https://shipleydonuts.com/locations/fc5180/,Texas,Shipley Do-nuts
5185,10517 South Post Oak Road,Houston,TX,77035,29.6671833,-95.4626005,(713) 728-9366,https://shipleydonuts.com/locations/fc5185/,Texas,Shipley Do-nuts
5190,6602 North Shepherd Drive,Houston,TX,77091,29.8599438,-95.41201579999999,(713) 993-6560,https://shipleydonuts.com/locations/fc5190/,Texas,Shipley Do-nuts
5192,15135 Old Humble Road,Humble,TX,77396,29.94138869999999,-95.28323999999999,(281) 441-2622,https://shipleydonuts.com/locations/fc5192/,Texas,Shipley Do-nuts
5198,14135 Northwest Freeway,Houston,TX,77040,29.859101236923976,-95.5260976067459,(713) 485-0691,https://shipleydonuts.com/locations/fc5198/,Texas,Shipley Do-nuts
5200,5513 Richmond Avenue,Houston,TX,77056,29.731070449567298,-95.47454702453689,(713) 781-4880,https://shipleydonuts.com/locations/fc5200/,Texas,Shipley Do-nuts
5205,11285 Southwest Freeway,Houston,TX,77031,29.654200504641747,-95.56426166137695,(832) 295-6653,https://shipleydonuts.com/locations/fc5205/,Texas,Shipley Do-nuts
5210,8802 Stella Link Road,Houston,TX,77025,29.6868792,-95.4404988,(713) 661-5267,https://shipleydonuts.com/locations/fc5210/,Texas,Shipley Do-nuts
5214,2538 South Voss Road,Houston,TX,77057,29.7399243,-95.50145189999999,(713) 435-0085,https://shipleydonuts.com/locations/fc5214/,Texas,Shipley Do-nuts
5215,6619 Tidwell Road,Houston,TX,77016,29.8487019,-95.3025287,(713) 635-4494,https://shipleydonuts.com/locations/fc5215/,Texas,Shipley Do-nuts
5220,6115 Telephone Road,Houston,TX,77087,29.677355,-95.290515,(713) 644-9666,https://shipleydonuts.com/locations/fc5220/,Texas,Shipley Do-nuts
5230,19015 Tomball Parkway,Houston,TX,77070,29.971526,-95.5629327,(832) 688-5166,https://shipleydonuts.com/locations/fc5230/,Texas,Shipley Do-nuts
5240,4505 Bissonnet Street,Bellaire,TX,77401,29.715527720794153,-95.45174454788513,(713) 665-2530,https://shipleydonuts.com/locations/fc5240/,Texas,Shipley Do-nuts
5245,6115 Washington Avenue,Houston,TX,77007,29.77154845692454,-95.42387187480927,(713) 869-8622,https://shipleydonuts.com/locations/fc5245/,Texas,Shipley Do-nuts
5248,12403 Westheimer Road,Houston,TX,77077,29.73587099999999,-95.60025,(713) 589-3292,https://shipleydonuts.com/locations/fc5248/,Texas,Shipley Do-nuts
5250,9643 Westheimer Road,Houston,TX,77063,29.73692275684482,-95.53783171779098,(713) 781-9722,https://shipleydonuts.com/locations/fc5250/,Texas,Shipley Do-nuts
5253,5257 Walzem Road,San Antonio,TX,78218,29.510670609517504,-98.38640123605728,(210) 646-7324,https://shipleydonuts.com/locations/fc5253/,Texas,Shipley Do-nuts
5255,121 West Rankin Road,Houston,TX,77060,29.9652874,-95.4206088,(281) 873-8786,https://shipleydonuts.com/locations/fc5255/,Texas,Shipley Do-nuts
5257,1401 West Mount Houston Road,Houston,TX,77038,29.8976537,-95.4268773,(281) 931-7000,https://shipleydonuts.com/locations/fc5257/,Texas,Shipley Do-nuts
5263,5263 Old Highway 11,Hattiesburg,MS,39402,31.3117552,-89.4110461,(601) 336-7158,https://shipleydonuts.com/locations/fc5263/,Mississippi,Shipley Do-nuts
5310,9203 South Main Street,Houston,TX,77025,29.684919,-95.421393,(713) 666-9203,https://shipleydonuts.com/locations/fc5310/,Texas,Shipley Do-nuts
5400,5400 South Parker Road,Aurora,CO,80015,39.6170505,-104.8176235,(303) 690-4127,https://shipleydonuts.com/locations/fc5400/,Colorado,Shipley Do-nuts
5565,5565 Essen Lane,Baton Rouge,LA,70809,30.3976512614366,-91.10731244087219,(225) 256-0007,https://shipleydonuts.com/locations/fc5565/,Louisiana,Shipley Do-nuts
5911,5911 19th Street,Lubbock,TX,79407,33.57773558883616,-101.94618300006941,(806) 993-5144,https://shipleydonuts.com/locations/fc5911/,Texas,Shipley Do-nuts
6000,921 North Velasco Street,Angleton,TX,77515,29.1725773,-95.43263999999999,(979) 849-4412,https://shipleydonuts.com/locations/fc6000/,Texas,Shipley Do-nuts
6007,1479 East Highway 6,Alvin,TX,77511,29.4250841,-95.2309294,(281) 824-8007,https://shipleydonuts.com/locations/fc6007/,Texas,Shipley Do-nuts
6010,501 East Abram Street,Arlington,TX,76010,32.7357488,-97.10256749999999,(817) 274-7746,https://shipleydonuts.com/locations/fc6010/,Texas,Shipley Do-nuts
6015,26321 Northwest Freeway,Cypress,TX,77429,29.97364050795846,-95.70269733624573,(281) 256-0082,https://shipleydonuts.com/locations/fc6015/,Texas,Shipley Do-nuts
6025,7211 Atascocita Road,Humble,TX,77346,29.9970949,-95.1685215,(281) 852-6166,https://shipleydonuts.com/locations/fc6025/,Texas,Shipley Do-nuts
6030,2524 West Park Row Drive,Pantego,TX,76013,32.7210186,-97.15169279999999,(817) 274-4814,https://shipleydonuts.com/locations/fc6030/,Texas,Shipley Do-nuts
6044,600 North Loop 340,Bellmead,TX,76705,31.603836316943873,-97.10014277056962,(254) 412-0022,https://shipleydonuts.com/locations/fc6044/,Texas,Shipley Do-nuts
6045,4402 Garth Road,Baytown,TX,77521,29.7693587,-94.9772833,(281) 428-1993,https://shipleydonuts.com/locations/fc6045/,Texas,Shipley Do-nuts
6046,7930 Texas 146,Baytown,TX,77523,29.808262369264842,-94.90234838703307,(281) 573-3800,https://shipleydonuts.com/locations/fc6046/,Texas,Shipley Do-nuts
6048,521 East 6th Avenue,Belton,TX,76513,31.0601629,-97.4570463,(254) 939-6965,https://shipleydonuts.com/locations/fc6048/,Texas,Shipley Do-nuts
6055,2501 North Josey Lane,Carrollton,TX,75006,32.98355669569374,-96.8904559594551,(972) 242-3424,https://shipleydonuts.com/locations/fc6055/,Texas,Shipley Do-nuts
6058,706 Dixie Drive,Clute,TX,77531,29.0132709,-95.4206492,(979) 297-9035,https://shipleydonuts.com/locations/fc6058/,Texas,Shipley Do-nuts
6059,806 North Brazosport Boulevard,Freeport,TX,77541,28.9675148,-95.3711164,(979) 239-1283,https://shipleydonuts.com/locations/fc6059/,Texas,Shipley Do-nuts
6061,13731 Farm to Market 2100,Crosby,TX,77532,29.8873476,-95.06367089999999,(281) 462-8250,https://shipleydonuts.com/locations/fc6061/,Texas,Shipley Do-nuts
6063,1829 El Dorado Boulevard,Houston,TX,77062,29.5770301,-95.1227882,(281) 286-7040,https://shipleydonuts.com/locations/fc6063/,Texas,Shipley Do-nuts
6065,5625 Saratoga Boulevard,Corpus Christi,TX,78414,27.684223032780313,-97.38338227493821,(361) 991-1125,https://shipleydonuts.com/locations/fc6065/,Texas,Shipley Do-nuts
6068,3113 South Staples Street,Corpus Christi,TX,78415,27.7535283,-97.3979329,(361) 855-8077,https://shipleydonuts.com/locations/fc6068/,Texas,Shipley Do-nuts
6071,1760 Greens Prairie Road,College Station,TX,77845,30.5521557,-96.2655389,(979) 690-1760,https://shipleydonuts.com/locations/fc6071/,Texas,Shipley Do-nuts
6073,3117 Center Street,Deer Park,TX,77536,29.679952897403936,-95.12465000152588,(832) 429-3210,https://shipleydonuts.com/locations/fc6073/,Texas,Shipley Do-nuts
6075,1031 North Loop 336 West,Conroe,TX,77301,30.334817,-95.471612,(936) 756-7794,https://shipleydonuts.com/locations/fc6075/,Texas,Shipley Do-nuts
6078,4750 North Jupiter Road,Garland,TX,75044,32.95914118833326,-96.68204547731553,(972) 414-6268,https://shipleydonuts.com/locations/fc6078/,Texas,Shipley Do-nuts
6080,1522 South 77 Sunshine Strip,Harlingen,TX,78550,26.1759516,-97.67679129999999,(956) 423-6652,https://shipleydonuts.com/locations/fc6080/,Texas,Shipley Do-nuts
6081,12339 Interstate 45 North,Willis,TX,77318,30.4186336,-95.4921394,(936) 856-7999,https://shipleydonuts.com/locations/fc6081/,Texas,Shipley Do-nuts
6083,5403 Farm to Market Road 1488,Magnolia,TX,77354,30.223940733696775,-95.54935606315995,(281) 259-4252,https://shipleydonuts.com/locations/fc6083/,Texas,Shipley Do-nuts
6084,15243 Texas 105,Montgomery,TX,77356,30.3562209,-95.5913306,(936) 588-6498,https://shipleydonuts.com/locations/fc6084/,Texas,Shipley Do-nuts
6085,19399 Eastex Freeway Service Road,Humble,TX,77338,29.99943529999999,-95.2708889,(281) 548-2502,https://shipleydonuts.com/locations/fc6085/,Texas,Shipley Do-nuts
6086,420 East Farm to Market 2410 Road,Harker Heights,TX,76548,31.06638410618221,-97.66688996864778,(254) 690-6900,https://shipleydonuts.com/locations/fc6086/,Texas,Shipley Do-nuts
6087,3011 State Highway 30,Huntsville,TX,77340,30.717710007435425,-95.57333394885063,(936) 291-0026,https://shipleydonuts.com/locations/fc6087/,Texas,Shipley Do-nuts
6095,1301 West Central Texas Expressway,Killeen,TX,76541,31.1106825,-97.7488214,(254) 616-2229,https://shipleydonuts.com/locations/fc6095/,Texas,Shipley Do-nuts
6097,4201 East Rancier Avenue,Killeen,TX,76543,31.11646697364852,-97.68363419762268,(254) 432-4971,https://shipleydonuts.com/locations/fc6097/,Texas,Shipley Do-nuts
6098,2400 South W. S. Young Drive,Killeen,TX,76542,31.0896787,-97.7199057,(254) 213-2878,https://shipleydonuts.com/locations/fc6098/,Texas,Shipley Do-nuts
6100,120 Texas 146,La Porte,TX,77571,29.6662437,-95.0284253,(281) 842-9522,https://shipleydonuts.com/locations/fc6100/,Texas,Shipley Do-nuts
6110,210 Texas 332,Lake Jackson,TX,77566,29.0487947,-95.4668253,(979) 299-6266,https://shipleydonuts.com/locations/fc6110/,Texas,Shipley Do-nuts
6115,9825 Mason Road,Richmond,TX,77406,29.658824084424996,-95.73495074973755,(281) 239-3150,https://shipleydonuts.com/locations/fc6115/,Texas,Shipley Do-nuts
6120,612 North Saint Louis,Batesville,AR,72501,35.773523,-91.641167,(501) 326-8450,https://shipleydonuts.com/locations/fc6120/,Arkansas,Shipley Do-nuts
6125,2215 Clinton Drive,Galena Park,TX,77547,29.7327778,-95.2463075,(713) 674-0205,https://shipleydonuts.com/locations/fc6125/,Texas,Shipley Do-nuts
6130,915 East Main Street,League City,TX,77573,29.5129904,-95.0875464,(281) 332-4141,https://shipleydonuts.com/locations/fc6130/,Texas,Shipley Do-nuts
6132,,Lewisville,TX,75067,33.02728643529719,-96.99225052394254,(972) 436-6626,https://shipleydonuts.com/locations/fc6132/,Texas,Shipley Do-nuts
6140,325 North Spur 63,Longview,TX,75601,32.50260477582688,-94.75075368280332,(903) 753-0871,https://shipleydonuts.com/locations/fc6140/,Texas,Shipley Do-nuts
6153,706 Magnolia Boulevard,Magnolia,TX,77355,30.210316,-95.7530022,(281) 259-4401,https://shipleydonuts.com/locations/fc6153/,Texas,Shipley Do-nuts
6160,1501 North 10th Street,McAllen,TX,78501,26.2172784,-98.2279842,(956) 687-2011,https://shipleydonuts.com/locations/fc6160/,Texas,Shipley Do-nuts
6161,800 South Cage Boulevard,Pharr,TX,78577,26.187648148062316,-98.18550485152053,(956) 787-0502,https://shipleydonuts.com/locations/fc6161/,Texas,Shipley Do-nuts
6163,2451 FM 1092 Road,Missouri City,TX,77459,29.583707557984777,-95.56375366315994,(281) 499-8091,https://shipleydonuts.com/locations/fc6163/,Texas,Shipley Do-nuts
6165,1701 Farm-To-Market Road 2234,Missouri City,TX,77489,29.60206999999999,-95.526078,(281) 499-5234,https://shipleydonuts.com/locations/fc6165/,Texas,Shipley Do-nuts
6167,9011 Highway 6,Missouri City,TX,77459,29.5396031,-95.53402609999999,(281) 778-2444,https://shipleydonuts.com/locations/fc6167/,Texas,Shipley Do-nuts
6170,2829 North Street,Nacogdoches,TX,75965,31.625467382036838,-94.6526026725769,(936) 205-3045,https://shipleydonuts.com/locations/fc6170/,Texas,Shipley Do-nuts
6176,263 Texas 337 Loop,New Braunfels,TX,78130,29.70390270518349,-98.09815929814758,(830) 626-8644,https://shipleydonuts.com/locations/fc6176/,Texas,Shipley Do-nuts
6190,1358 NASA Road 1,Nassau Bay,TX,77058,29.546755225546097,-95.10217867121771,(281) 333-3172,https://shipleydonuts.com/locations/fc6190/,Texas,Shipley Do-nuts
6200,2902 Southmore Avenue,Pasadena,TX,77503,29.69151059999999,-95.17100669999999,(713) 497-5940,https://shipleydonuts.com/locations/fc6200/,Texas,Shipley Do-nuts
6206,1602 Genoa Red Bluff Road,Houston,TX,77034,29.6301654,-95.172066,(281) 998-0450,https://shipleydonuts.com/locations/fc6206/,Texas,Shipley Do-nuts
6208,211 Richey Street,Pasadena,TX,77506,29.7090616,-95.2195515,(713) 473-3353,https://shipleydonuts.com/locations/fc6208/,Texas,Shipley Do-nuts
6210,3933 Spencer Highway,Pasadena,TX,77504,29.6654897,-95.1841962,(713) 941-6479,https://shipleydonuts.com/locations/fc6210/,Texas,Shipley Do-nuts
6220,3409 East Broadway Street,Pearland,TX,77581,29.5617728,-95.27631840000001,(281) 485-7135,https://shipleydonuts.com/locations/fc6220/,Texas,Shipley Do-nuts
6221,9501 Broadway Street,Pearland,TX,77584,29.557823669161746,-95.36672206686478,(281) 485-6464,https://shipleydonuts.com/locations/fc6221/,Texas,Shipley Do-nuts
6223,11315 South Texas 6,Sugar Land,TX,77498,29.651734745022544,-95.64921905952454,(281) 494-1474,https://shipleydonuts.com/locations/fc6223/,Texas,Shipley Do-nuts
6225,2106 Seabrook Circle,Seabrook,TX,77586,29.5803052,-95.0277141,(281) 474-3750,https://shipleydonuts.com/locations/fc6225/,Texas,Shipley Do-nuts
6227,611 Dulles Avenue,Stafford,TX,77477,29.6200317,-95.58222049999999,(281) 261-9700,https://shipleydonuts.com/locations/fc6227/,Texas,Shipley Do-nuts
6230,10918 Wurzbach Road,San Antonio,TX,78230,29.541098874688426,-98.55169460370486,(210) 699-1073,https://shipleydonuts.com/locations/fc6230/,Texas,Shipley Do-nuts
6232,6346 Bandera Road,San Antonio,TX,78238,29.4888657,-98.61059180000001,(210) 520-2009,https://shipleydonuts.com/locations/fc6232/,Texas,Shipley Do-nuts
6234,14088 Nacogdoches Road,San Antonio,TX,78247,29.570110164290504,-98.38199703988113,(210) 599-0320,https://shipleydonuts.com/locations/fc6234/,Texas,Shipley Do-nuts
6235,3147 Highway 6,Sugar Land,TX,77478,29.59340225248086,-95.60659549447746,(281) 980-1806,https://shipleydonuts.com/locations/fc6235/,Texas,Shipley Do-nuts
6238,1240 Austin Highway,San Antonio,TX,78209,29.4882949,-98.4444494,(210) 805-8222,https://shipleydonuts.com/locations/fc6238/,Texas,Shipley Do-nuts
6240,507 West Moore Avenue,Terrell,TX,75160,32.73679320000001,-96.2826393,(972) 551-0502,https://shipleydonuts.com/locations/fc6240/,Texas,Shipley Do-nuts
6241,19875 Interstate 69,Sugar Land,TX,77479,29.561746030514396,-95.68353013809813,(281) 545-9102,https://shipleydonuts.com/locations/fc6241/,Texas,Shipley Do-nuts
6242,401 West Hopkins Street,San Marcos,TX,78666,29.8821035,-97.9456233,(512) 393-5010,https://shipleydonuts.com/locations/fc6242/,Texas,Shipley Do-nuts
6244,17319 Interstate 35 North,Schertz,TX,78154,29.597866419725744,-98.2819485392868,(210) 599-9898,https://shipleydonuts.com/locations/fc6244/,Texas,Shipley Do-nuts
6245,5 Meadowbrook Drive,Temple,TX,76502,31.11791357908381,-97.4190843245369,(254) 770-0121,https://shipleydonuts.com/locations/fc6245/,Texas,Shipley Do-nuts
6246,115 North 31st Street,Temple,TX,76504,31.1028635,-97.35667769999999,(254) 773-4451,https://shipleydonuts.com/locations/fc6246/,Texas,Shipley Do-nuts
6248,1005 Marlandwood Road,Temple,TX,76502,31.06197064157882,-97.36497473743438,(254) 771-3688,https://shipleydonuts.com/locations/fc6248/,Texas,Shipley Do-nuts
6250,2319 Palmer Highway,Texas City,TX,77590,29.39365399232336,-94.92827903128281,(409) 945-7551,https://shipleydonuts.com/locations/fc6250/,Texas,Shipley Do-nuts
6251,13200 Highway 6,Santa Fe,TX,77510,29.377769,-95.10256009999999,(409) 927-1824,https://shipleydonuts.com/locations/fc6251/,Texas,Shipley Do-nuts
6252,,Tyler,TX,75701,32.331230329031186,-95.26454582506177,(903) 566-0006,https://shipleydonuts.com/locations/fc6252/,Texas,Shipley Do-nuts
6254,6512 Highway 90a,Sugar Land,TX,77498,29.608137155833393,-95.65895291045074,(281) 277-9474,https://shipleydonuts.com/locations/fc6254/,Texas,Shipley Do-nuts
6260,5037 Farm to Market 2920,Spring,TX,77388,30.0735909,-95.49797799999999,(281) 355-0258,https://shipleydonuts.com/locations/fc6260/,Texas,Shipley Do-nuts
6282,1800 Louetta Road,Spring,TX,77388,30.0632399,-95.4412779,(281) 907-0009,https://shipleydonuts.com/locations/fc6282/,Texas,Shipley Do-nuts
6292,1755 Northpark Drive,Humble,TX,77339,30.068981,-95.2281969,(281) 312-1903,https://shipleydonuts.com/locations/fc6292/,Texas,Shipley Do-nuts
6294,2737 Memorial Boulevard,Port Arthur,TX,77640,29.9055407,-93.9389745,(409) 982-3251,https://shipleydonuts.com/locations/fc6294/,Texas,Shipley Do-nuts
6298,23668 U.S. 59,Porter,TX,77365,30.1030862,-95.2379653,(281) 354-5605,https://shipleydonuts.com/locations/fc6298/,Texas,Shipley Do-nuts
6300,4519 Reading Road,Rosenberg,TX,77471,29.5654691,-95.7812939,(281) 342-3695,https://shipleydonuts.com/locations/fc6300/,Texas,Shipley Do-nuts
6302,1300 South Mays Street,Round Rock,TX,78664,30.4964354,-97.6763885,(512) 388-8900,https://shipleydonuts.com/locations/fc6302/,Texas,Shipley Do-nuts
6305,3250 East Palm Valley Boulevard,Round Rock,TX,78665,30.524542290110865,-97.63523917305106,(512) 218-0231,https://shipleydonuts.com/locations/fc6305/,Texas,Shipley Do-nuts
6315,649 Robinson Drive,Robinson,TX,76706,31.4872423,-97.1210863,(254) 662-4200,https://shipleydonuts.com/locations/fc6315/,Texas,Shipley Do-nuts
6316,318 North Hewitt Drive,Hewitt,TX,76643,31.4696496,-97.19917799999999,(254) 666-8230,https://shipleydonuts.com/locations/fc6316/,Texas,Shipley Do-nuts
6320,11881 Bandera Road,Helotes,TX,78023,29.5553252,-98.6701578,(210)-695-6472,https://shipleydonuts.com/locations/fc6320/,Texas,Shipley Do-nuts
6323,2815 North Loop 1604 East,San Antonio,TX,78232,29.603864279206952,-98.44445024180295,(210) 545-2605,https://shipleydonuts.com/locations/fc6323/,Texas,Shipley Do-nuts
6324,6531 Farm to Market Road 78,San Antonio,TX,78244,29.481433021967394,-98.36002748102035,(210) 661-2055,https://shipleydonuts.com/locations/fc6324/,Texas,Shipley Do-nuts
6326,8802 Potranco Road,San Antonio,TX,78251,29.444035054872177,-98.66006619577026,(210) 647-1119,https://shipleydonuts.com/locations/fc6326/,Texas,Shipley Do-nuts
6350,1924 North Valley Mills Drive,Waco,TX,76710,31.5321894,-97.2025807,(254) 741-0707,https://shipleydonuts.com/locations/fc6350/,Texas,Shipley Do-nuts
6355,8810 Woodway Drive,Waco,TX,76712,31.497492393851907,-97.21831349933623,(254) 741-1740,https://shipleydonuts.com/locations/fc6355/,Texas,Shipley Do-nuts
6365,1800 West Waco Drive,Waco,TX,76701,31.5487607,-97.1470691,(254) 753-3900,https://shipleydonuts.com/locations/fc6365/,Texas,Shipley Do-nuts
6366,10300 China Spring Road,Waco,TX,76708,31.628934131659136,-97.24329470020828,(254) 836-1596,https://shipleydonuts.com/locations/fc6366/,Texas,Shipley Do-nuts
6370,,The Woodlands,TX,77380,30.127419605773238,-95.45563278339768,(281) 466-2527,https://shipleydonuts.com/locations/fc6370/,Texas,Shipley Do-nuts
6380,7901 Research Forest Drive,The Woodlands,TX,77382,30.207557490140946,-95.5276132495987,(281) 367-1660,https://shipleydonuts.com/locations/fc6380/,Texas,Shipley Do-nuts
6385,3707 College Park Drive,The Woodlands,TX,77384,30.20558493944563,-95.47282288829116,(936) 271-1215,https://shipleydonuts.com/locations/fc6385/,Texas,Shipley Do-nuts
6390,6308 Denton Highway,Watauga,TX,76148,32.8614387,-97.2635368,(817) 605-1919,https://shipleydonuts.com/locations/fc6390/,Texas,Shipley Do-nuts
6405,10332 Ferguson Road,Dallas,TX,75228,32.835662,-96.67183100000001,(214) 319-8003,https://shipleydonuts.com/locations/fc6405/,Texas,Shipley Do-nuts
6406,3555 Gulf Freeway South,Dickinson,TX,77539,29.450036,-95.07691799999999,(281) 614-0144,https://shipleydonuts.com/locations/fc6406/,Texas,Shipley Do-nuts
6440,3308 Williams Drive,Georgetown,TX,78628,30.6659336,-97.6950464,(512) 819-0770,https://shipleydonuts.com/locations/fc6440/,Texas,Shipley Do-nuts
6442,1011 Leander Road,Georgetown,TX,78628,30.62020022173319,-97.6918159239252,(512) 819-0900,https://shipleydonuts.com/locations/fc6442/,Texas,Shipley Do-nuts
6600,8213 Brodie Lane,Austin,TX,78745,30.20088968219329,-97.83835326812286,(512) 233-6887,https://shipleydonuts.com/locations/fc6600/,Texas,Shipley Do-nuts
6610,10019 West Parmer Lane,Austin,TX,78717,30.4887763,-97.7723596,(512) 218-4944,https://shipleydonuts.com/locations/fc6610/,Texas,Shipley Do-nuts
7000,700 North West Avenue,El Dorado,AR,71730,33.2184826,-92.66587659999999,(870) 863-4750,https://shipleydonuts.com/locations/fc7000/,Arkansas,Shipley Do-nuts
7050,7710 Cantrell Road,Little Rock,AR,72227,34.7742835,-92.3609475,(501) 664-5353,https://shipleydonuts.com/locations/fc7050/,Arkansas,Shipley Do-nuts
7051,1307 John Barrow Road,Little Rock,AR,72205,34.74127094949044,-92.37187905276126,(501) 225-9938,https://shipleydonuts.com/locations/fc7051/,Arkansas,Shipley Do-nuts
7085,1424 North Shackleford Road,Little Rock,AR,72211,34.767170897873136,-92.39621664662704,(501) 224-1359  </br> </br> Temporarily Closed,https://shipleydonuts.com/locations/fc7085/,Arkansas,Shipley Do-nuts
7090,8611 Arkansas 107,Sherwood,AR,72120,34.8343903,-92.23223809999999,(501) 834-5235,https://shipleydonuts.com/locations/fc7090/,Arkansas,Shipley Do-nuts
7505,7505 Southwest Freeway,Houston,TX,77074,29.698214,-95.51903999999999,(713) 541-0500,https://shipleydonuts.com/locations/fc7505/,Texas,Shipley Do-nuts
7701,7701 Crowley Road,Fort Worth,TX,76134,32.63702495685987,-97.34799066197128,(817) 439-9354,https://shipleydonuts.com/locations/fc7701/,Texas,Shipley Do-nuts
7810,797 West Main Street,Hendersonville,TN,37075,36.30317993227055,-86.64573348650818,(615) 826-9969,https://shipleydonuts.com/locations/fc7810/,Tennessee,Shipley Do-nuts
7813,2055 Wilma Rudolph Boulevard,Clarksville,TN,37040,36.5605228,-87.3148723,(931) 896-2097,https://shipleydonuts.com/locations/fc7813/,Tennessee,Shipley Do-nuts
7815,2197 Madison Street,Clarksville,TN,37043,36.51089537577136,-87.28026851045074,(931) 647-1114,https://shipleydonuts.com/locations/fc7815/,Tennessee,Shipley Do-nuts
7820,2540 Lebanon Pike,Nashville,TN,37214,36.1712222,-86.6757329,(615) 883-5823,https://shipleydonuts.com/locations/fc7820/,Tennessee,Shipley Do-nuts
7900,2050 Greenvale Lane,Birmingham,AL,35216,33.4033458,-86.80459599999999,(205) 822-2142,https://shipleydonuts.com/locations/fc7900/,Alabama,Shipley Do-nuts
8003,800 West Whitestone Boulevard,Cedar Park,TX,78613,30.517675606008797,-97.83843889996528,(512) 505-8075,https://shipleydonuts.com/locations/fc8003/,Texas,Shipley Do-nuts
8010,4110 Jackson Street,Alexandria,LA,71303,31.280745,-92.47920839999999,(318) 443-3461,https://shipleydonuts.com/locations/fc8010/,Louisiana,Shipley Do-nuts
8025,6100 Masonic Drive,Alexandria,LA,71301,31.2582787,-92.4780153,(318) 448-2218,https://shipleydonuts.com/locations/fc8025/,Louisiana,Shipley Do-nuts
8030,3223 South Macarthur Drive,Alexandria,LA,71301,31.265697396504383,-92.45323149695892,(318) 442-1253,https://shipleydonuts.com/locations/fc8030/,Louisiana,Shipley Do-nuts
8092,3200 Monroe Highway,Pineville,LA,71360,31.3618694,-92.4113508,(318) 704-6294,https://shipleydonuts.com/locations/fc8092/,Louisiana,Shipley Do-nuts
8128,8128 North Sam Houston Parkway West,Houston,TX,77064,29.9299382,-95.5462471,(281) 890-8888,https://shipleydonuts.com/locations/fc8128/,Texas,Shipley Do-nuts
8201,8201 North Beach Street,Fort Worth,TX,76244,32.8911356,-97.2903673,(817) 562-3044,https://shipleydonuts.com/locations/fc8201/,Texas,Shipley Do-nuts
8211,8211 Geyer Springs Road,Little Rock,AR,72209,34.6753792,-92.3434091,(501) 570-7730,https://shipleydonuts.com/locations/fc8211/,Arkansas,Shipley Do-nuts
8223,8223 Jones Road,Jersey Village,TX,77065,29.8940608,-95.58517499999999,(832) 744-3732,https://shipleydonuts.com/locations/fc8223/,Texas,Shipley Do-nuts
8410,8410 Hall Road,Houston,TX,77075,29.6011326,-95.2680855,(713) 987-9797,https://shipleydonuts.com/locations/fc8410/,Texas,Shipley Do-nuts
8523,8523 West Markham Street,Little Rock,AR,72205,34.752893,-92.3697596,(501) 227-4123,https://shipleydonuts.com/locations/fc8523/,Arkansas,Shipley Do-nuts
9015,103 Highway 80 West,Clinton,MS,39056,32.3340904,-90.3264787,(601) 925-0020,https://shipleydonuts.com/locations/fc9015/,Mississippi,Shipley Do-nuts
9040,2011 Hardy Street,Hattiesburg,MS,39401,31.3249928,-89.3218429,(601) 545-1891,https://shipleydonuts.com/locations/fc9040/,Mississippi,Shipley Do-nuts
9065,418 Mississippi 12,Starkville,MS,39759,33.454006108266405,-88.80881934662705,(662) 324-6003,https://shipleydonuts.com/locations/fc9065/,Mississippi,Shipley Do-nuts
9130,913 Montague Avenue,Greenwood,SC,29649,34.2087874,-82.1760582,(864) 450-9430,https://shipleydonuts.com/locations/fc9130/,South Carolina,Shipley Do-nuts
9750,9702 Huebner Road,San Antonio,TX,78240,29.533050265853173,-98.58992079262504,(210) 690-1989,https://shipleydonuts.com/locations/fc9750/,Texas,Shipley Do-nuts
9979,9979 Beechnut Street,Houston,TX,77036,29.688692215394518,-95.55597734973753,(713) 773-2282,https://shipleydonuts.com/locations/fc9979/,Texas,Shipley Do-nuts
1881,1881 North Central Expressway,Plano,TX,75075,33.0266854,-96.71062959999999,(469) 298-0400,https://shipleydonuts.com/locations/fc1881/,Texas,Shipley Do-nuts
9775,775 Lake Harbour Drive,Ridgeland,MS,39157,32.4136298,-90.10867209999999,(601) 790-7611,https://shipleydonuts.com/locations/fc9775/,Mississippi,Shipley Do-nuts
0210,240 South Saginaw Boulevard,Saginaw,TX,76179,32.8581875,-97.3627088,(682) 224-5656,https://shipleydonuts.com/locations/fc0210/,Texas,Shipley Do-nuts
0604,604 East Northwest Highway,Grapevine,TX,76051,32.9405902,-97.0715673,(817) 527-5444,https://shipleydonuts.com/locations/fc0604/,Texas,Shipley Do-nuts
0896,896 Vee Street,Biloxi,MS,39532,30.437658,-88.9555067,(228) 400-6040,https://shipleydonuts.com/locations/fc0896/,Mississippi,Shipley Do-nuts
1045,1045 Norwood Park Boulevard,Austin,TX,78753,30.33771609999999,-97.6927563,(512) 833-8046,https://shipleydonuts.com/locations/fc1045/,Texas,Shipley Do-nuts
1500,1500 West Hebron Parkway,Carrollton,TX,75010,33.02125098737749,-96.93066351845474,(972) 492-2345,https://shipleydonuts.com/locations/fc1500/,Texas,Shipley Do-nuts
1507,1507 West League City Parkway,League City,TX,77573,29.4870346,-95.10620229999999,(832) 632-2720,https://shipleydonuts.com/locations/fc1507/,Texas,Shipley Do-nuts
1700,1700 West Parmer Lane,Austin,TX,78727,30.414203128240825,-97.68889359014358,(512) 584-8125,https://shipleydonuts.com/locations/fc1700/,Texas,Shipley Do-nuts
1703,1703 Arkansas Boulevard,Texarkana,AR,71854,33.4609802,-94.025469,(870) 330-4440,https://shipleydonuts.com/locations/fc1703/,Arkansas,Shipley Do-nuts
1900,1922 West University Drive,Edinburg,TX,78539,26.30384976278268,-98.18315763261032,(956) 378-9300,https://shipleydonuts.com/locations/fc1900/,Texas,Shipley Do-nuts
2119,2119 West Walnut Street,Rogers,AR,72756,36.3345159,-94.14845740000001,(479) 621-0808,https://shipleydonuts.com/locations/fc2119/,Arkansas,Shipley Do-nuts
2370,2370 Nall Street,Port Neches,TX,77651,29.977620575609325,-93.96563413743438,(409) 722-9100,https://shipleydonuts.com/locations/fc2370/,Texas,Shipley Do-nuts
2503,2503 Farm to Market 1960,Spring,TX,77373,30.023718107280043,-95.3901906664093,(281) 443-7350,https://shipleydonuts.com/locations/fc2503/,Texas,Shipley Do-nuts
2550,109 America Drive,Brownsville,TX,78526,25.9519107,-97.4865112,(956) 546-1550,https://shipleydonuts.com/locations/fc2550/,Texas,Shipley Do-nuts
3620,3620 Ranch Road 620 South,Bee Cave,TX,78738,30.3195592,-97.9532144, (512) 358-1486,https://shipleydonuts.com/locations/fc3620/,Texas,Shipley Do-nuts
4131,4131 John F Kennedy Boulevard,North Little Rock,AR,72116,34.793427,-92.258445,(501) 747-1153,https://shipleydonuts.com/locations/fc4131/,Arkansas,Shipley Do-nuts
4244,4224 Miller Avenue,Fort Worth,TX,76119,32.7015237,-97.26328389999999,(817) 386-7577,https://shipleydonuts.com/locations/fc4244/,Texas,Shipley Do-nuts
4489,4477 West Davis Street,Conroe,TX,77304,30.332111,-95.51096000000001,(936) 494-1932,https://shipleydonuts.com/locations/fc4489/,Texas,Shipley Do-nuts
4911,4911 Main Street,The Colony,TX,75056,33.0797539,-96.8933093,(469) 287-2970 ,https://shipleydonuts.com/locations/fc4911/,Texas,Shipley Do-nuts
5000,5341 Airline Drive,Houston,TX,77022,29.845189,-95.38481449999999,(713) 691-3491,https://shipleydonuts.com/locations/fc5000/,Texas,Shipley Do-nuts
5102,5102 North 19th Street,Waco,TX,76708,31.5929039,-97.1870454,(254) 732-4107,https://shipleydonuts.com/locations/fc5102/,Texas,Shipley Do-nuts
5750,5750 Northwest Expressway,Warr Acres,OK,73132,35.5471442,-97.6147682,(405) 721-3409,https://shipleydonuts.com/locations/fc5750/,Oklahoma,Shipley Do-nuts
6053,3001 Wildflower Drive,Bryan,TX,77802,30.666487375611144,-96.32248523372954,(979) 776-6170,https://shipleydonuts.com/locations/fc6053/,Texas,Shipley Do-nuts
6070,1716 Southwest Parkway,College Station,TX,77840,30.6062635,-96.30966939999999,(979) 693-6170,https://shipleydonuts.com/locations/fc6070/,Texas,Shipley Do-nuts
6076,5401 Broadway Avenue J,Galveston,TX,77551,29.2902649,-94.8276204,(409) 740-4276,https://shipleydonuts.com/locations/fc6076/,Texas,Shipley Do-nuts
6111,611 Office Park Drive,Bryant,AR,72022,34.6226169,-92.50201919999999,(501) 847-7272,https://shipleydonuts.com/locations/fc6111/,Arkansas,Shipley Do-nuts
6150,609 South Timberland Drive,Lufkin,TX,75901,31.3305771,-94.72237720000001,(936) 632-7484,https://shipleydonuts.com/locations/fc6150/,Texas,Shipley Do-nuts
6327,11440 Potranco Road,San Antonio,TX,78253,29.4333338,-98.71891049999999,(210) 332-5494,https://shipleydonuts.com/locations/fc6327/,Texas,Shipley Do-nuts
7020,1005 Albert Pike Road,Hot Springs,AR,71913,34.4935049,-93.0801424,(501) 623-1916,https://shipleydonuts.com/locations/fc7020/,Arkansas,Shipley Do-nuts
7955,7955 Fountain Mesa Road,Fountain,CO,80817,38.717208,-104.7009887,(719) 382-9165,https://shipleydonuts.com/locations/fc7955/,Colorado,Shipley Do-nuts
8135,8135 Interstate 10 Frontage Road,Houston,TX,77024,29.7830304,-95.48289249999999,(346) 204-4606,https://shipleydonuts.com/locations/fc8135/,Texas,Shipley Do-nuts
8606,6362 De Zavala Road,San Antonio,TX,78249,29.5626288,-98.61157949999999,(210) 600-3978,https://shipleydonuts.com/locations/fc8606/,Texas,Shipley Do-nuts
9200,920 Fenwick Drive,Laredo,TX,78041,27.5645541,-99.4739098,(956) 704-5038,https://shipleydonuts.com/locations/fc9200/,Texas,Shipley Do-nuts
5003,15003 Highway 6,Rosharon,TX,77583,29.4975235,-95.4401572,(281) 710-4284,https://shipleydonuts.com/locations/fc5003-15003-sh-6-suite-120/,Texas,Shipley Do-nuts
7864,4520 Farm to Market 1626,Kyle,TX,78640,30.0246107,-97.87251769999999,(512) 256-5252,https://shipleydonuts.com/locations/fc7864/,Texas,Shipley Do-nuts
6846,6846 Alamo Parkway,San Antonio,TX,78253,29.5014701,-98.7286034,(210) 280-8082,https://shipleydonuts.com/locations/fc6846/,Texas,Shipley Do-nuts
1875,10447 Bailey Road,Manvel,TX,77578,29.5273027,-95.38361010000001,832-336-5241,https://shipleydonuts.com/locations/fc1875-sedona-lake/,Texas,Shipley Do-nuts
5151,5151 East Freeway,Baytown,TX,77521,29.8054211,-94.98099859999999,281-837-5722,https://shipleydonuts.com/locations/fc5151-5151-east-freeway/,Texas,Shipley Do-nuts
8247,,,,,,,(713)468-1223,https://shipleydonuts.com/locations/fc8247-long-point/,,Shipley Do-nuts
7520,17848 Preston Road,Dallas,TX,75252,32.9950928,-96.7986591,(214) 531-0403,https://shipleydonuts.com/locations/fc7520-preston-rd/,Texas,Shipley Do-nuts
1113,113 Avenue M,Huntsville,TX,77320,30.7346827,-95.5505103,(936) 291-0797,https://shipleydonuts.com/locations/fc1113-113-avenue-m/,Texas,Shipley Do-nuts
7854,300 East Edinburg Avenue,Elsa,TX,78543,26.2932232,-97.98992109999999,,https://shipleydonuts.com/locations/fc7854-edinburg-ave/,Texas,Shipley Do-nuts
1487,3514 Briarwood Bend,Mont Belvieu,TX,77523,29.8323531,-94.8493728,(832) 501-2990,https://shipleydonuts.com/locations/fc1487/,Texas,Shipley Do-nuts
2106,1099 Annapolis Road,Odenton,MD,21113,39.0776972,-76.68478619999999,(410) 870-9139,https://shipleydonuts.com/locations/fc2106-odenton/,Maryland,Shipley Do-nuts
3801,1010 North Germantown Parkway,Memphis,TN,38018,35.152615,-89.7943991,(901) 730-0213,https://shipleydonuts.com/locations/fc3801/,Tennessee,Shipley Do-nuts
7859,2001 West Expressway 83,Weslaco,TX,78596,26.1716009,-98.0102704,Coming Soon!,https://shipleydonuts.com/locations/fc7859/,Texas,Shipley Do-nuts
1364,13646 Bissonnet Street,Houston,TX,77083,29.6813165,-95.62273440000001,(281) 506-7187,https://shipleydonuts.com/locations/fc1364/,Texas,Shipley Do-nuts
2999,2999 South Richey Street,Houston,TX,77017,29.6760349,-95.2319491,(281) 661-1312,https://shipleydonuts.com/locations/fc2999/,Texas,Shipley Do-nuts
0760,760 North Denton Tap Road,Coppell,TX,75019,32.9889,-96.9927369,Coming Soon!,https://shipleydonuts.com/locations/fc0760/,Texas,Shipley Do-nuts
1739,1739 West 7th Avenue,Corsicana,TX,75110,32.0827042,-96.4813393,Permanently Closed,https://shipleydonuts.com/locations/fc1739/,Texas,Shipley Do-nuts
3004,3225 Keith Bridge Road,Cumming,GA,30041,34.2576168,-84.0769011,470-839-2135,https://shipleydonuts.com/locations/fc3004/,Georgia,Shipley Do-nuts
0149,13774 Jordan Lewis Way,Magnolia,TX,77354,30.2093794,-95.75078150000002,(936) 499-0531,https://shipleydonuts.com/locations/fc0149/,Texas,Shipley Do-nuts
0101,502 North Interstate 35 East Road,Red Oak,TX,75154,32.533231,-96.82125099999999,(469) 820-9116,https://shipleydonuts.com/locations/fc0101/,Texas,Shipley Do-nuts
3281,5919 South Orange Blossom Trail,Orlando,FL,32809,28.471499,-81.3960858,Coming Soon!,https://shipleydonuts.com/locations/fc3281/,Florida,Shipley Do-nuts
0901,901 East Ennis Avenue,Ennis,TX,75119,32.331737,-96.61849439999999,(469) 456-0977,https://shipleydonuts.com/locations/fc0901/,Texas,Shipley Do-nuts
0112,112 West Princeton Drive,Princeton,TX,75407,33.17479683980589,-96.50103071403275,Coming Soon!,https://shipleydonuts.com/locations/fc0112/,Texas,Shipley Do-nuts
1052,10525 North Sam Houston Parkway East,Humble,TX,77396,29.9345411,-95.22963539999999,(281) 809-3863,https://shipleydonuts.com/locations/fc1052/,Texas,Shipley Do-nuts
1104,1104 North Sam Houston Parkway East,Houston,TX,77032,29.9379035,-95.3724452,Coming Soon!,https://shipleydonuts.com/locations/fc1104/,Texas,Shipley Do-nuts
1257,2503 Almeda-Genoa Road,Houston,TX,77047,29.6148974,-95.3854892,Coming Soon!,https://shipleydonuts.com/locations/fc1257/,Texas,Shipley Do-nuts
1631,1631 John B White Sr Boulevard,Spartanburg,SC,29301,34.9227731,-81.981115,(864) 285-0298,https://shipleydonuts.com/locations/fc1631/,South Carolina,Shipley Do-nuts
1942,19429 Highway 6,Manvel,TX,77578,29.464629,-95.3473633,(832) 892-0750,https://shipleydonuts.com/locations/fc1942/,Texas,Shipley Do-nuts
2001,2001 Northwest Cache Road,Lawton,OK,73507,34.6236086,-98.42088539999999,(580) 699-3999,https://shipleydonuts.com/locations/fc2001/,Oklahoma,Shipley Do-nuts
2241,2241 East Austin Street,Giddings,TX,78942,30.1795497,-96.91522429999999,(979) 274-0411,https://shipleydonuts.com/locations/fc2241/,Texas,Shipley Do-nuts
2255,2255 South Semoran Boulevard,Orlando,FL,32822,28.51883522343259,-81.30970731382928,(407) 270-8707,https://shipleydonuts.com/locations/fc2255/,Florida,Shipley Do-nuts
3009,4165 Pleasant Hill Road,Duluth,GA,30096,34.0038434,-84.1711565,Coming Soon!,https://shipleydonuts.com/locations/fc3009/,Georgia,Shipley Do-nuts
3699,,Rosenberg,TX,77471,29.5313962,-95.8159738,Coming Soon!,https://shipleydonuts.com/locations/fc3699/,Texas,Shipley Do-nuts
4605,4605 Colleyville Boulevard,Colleyville,TX,76034,32.8774045,-97.1592582,(817) 576-4365,https://shipleydonuts.com/locations/fc4605/,Texas,Shipley Do-nuts
7507,8155 Custer Road,Frisco,TX,75035,33.1433512,-96.7336639,(214) 785-7097,https://shipleydonuts.com/locations/fc7507/,Texas,Shipley Do-nuts
7617,9728 Blue Mound Road,Fort Worth,TX,76131,32.91181929999999,-97.3481015,817-615-9394,https://shipleydonuts.com/locations/fc7617/,Texas,Shipley Do-nuts
7842,234 Valley Hi Drive,San Antonio,TX,78227,29.3816702,-98.6373654,Coming Soon!,https://shipleydonuts.com/locations/fc7842/,Texas,Shipley Do-nuts
7976,6000 Eastridge Road,Odessa,TX,79762,31.894184,-102.316339,Coming Soon!,https://shipleydonuts.com/locations/fc7976/,Texas,Shipley Do-nuts
6500,,Humble,TX,77338,30.0054043,-95.2614428,Coming Soon!,https://shipleydonuts.com/locations/fc6500/,Texas,Shipley Do-nuts
7956,11010 Cross Peak View,Colorado Springs,CO,80921,38.9910152,-104.793445,(719) 357-7719,https://shipleydonuts.com/locations/fc7956/,Colorado,Shipley Do-nuts
1431,14314 Potranco Road,San Antonio,TX,78245,29.4211165,-98.77964159999999,(603)521-4516,https://shipleydonuts.com/locations/fc1431/,Texas,Shipley Do-nuts
0835,835 North Main Street,Lumberton,TX,77657,30.2653951,-94.20014429999999,Coming Soon,https://shipleydonuts.com/locations/fc0835/,Texas,Shipley Do-nuts
4701,4701 Almeda Road,Houston,TX,77004,29.7274147,-95.3768815,Coming Soon,https://shipleydonuts.com/locations/fc4701/,Texas,Shipley Do-nuts
8915,8915 Bandera Road,San Antonio,TX,78254,29.5262194,-98.64196220000001,Coming Soon,https://shipleydonuts.com/locations/fc8915-bandera-road/,Texas,Shipley Do-nuts
5430,5430 Farm to Market 359,Brookshire,TX,77423,29.723488,-95.9256877,Coming Soon,https://shipleydonuts.com/locations/fc5430-fm-359-south/,Texas,Shipley Do-nuts
7740,10815 West Grand Parkway South,Richmond,TX,77406,29.6607062,-95.73634419999999,Coming Soon,https://shipleydonuts.com/locations/fc7740-west-grand-parkway-south/,Texas,Shipley Do-nuts
7622,26621 US Highway 380,Prosper,TX,75078,33.2192494,-96.88590649999999,Coming Soon,https://shipleydonuts.com/locations/fc7622/,Texas,Shipley Do-nuts
2501,25011 Farm to Market Road 2978,Tomball,TX,77375,30.1245364,-95.5927646,Coming soon,https://shipleydonuts.com/locations/fc2501/,Texas,Shipley Do-nuts
